{"version": 0.6, "generator": "Overpass API 0.7.62.7 375dc00a", "osm3s": {"timestamp_osm_base": "2025-07-07T14:22:03Z", "copyright": "The data included in this document is from www.openstreetmap.org. The data is made available under ODbL."}, "elements": [{"type": "node", "id": 465192715, "lat": 12.3342845, "lon": 76.6297013, "tags": {"addr:city": "Mysore", "addr:housenumber": "P-3", "addr:postcode": "570002", "addr:street": "6th Cross Road", "amenity": "school", "name": "Mysore West Lions Sevanikethan School", "phone": "91-821-2511254"}}, {"type": "node", "id": 465192999, "lat": 12.3272782, "lon": 76.6366858, "tags": {"amenity": "school", "name": "Ramakrishna Vidyashala", "name:kn": "\u0cb0\u0cbe\u0cae\u0c95\u0cc3\u0cb7\u0ccd\u0ca3 \u0cb5\u0cbf\u0ca6\u0ccd\u0caf\u0cbe\u0cb6\u0cbe\u0cb2\u0cc6"}}, {"type": "node", "id": 465195463, "lat": 12.3286366, "lon": 76.6299481, "tags": {"amenity": "school", "name": "Nirmala Convent"}}, {"type": "node", "id": 465196073, "lat": 12.3315512, "lon": 76.6271812, "tags": {"addr:district": "Mysuru", "addr:full": "417 Contour Road, Gokulam Ii Nd Stag Near Vijaya Bank", "addr:postcode": "570002", "addr:state": "Karnataka", "amenity": "hospital", "healthcare": "hospital", "name": "Adithya Adhikari Hospital", "name:kn": "\u0c86\u0ca6\u0cbf\u0ca4\u0ccd\u0caf \u0c86\u0cb8\u0ccd\u0caa\u0ca4\u0ccd\u0cb0\u0cc6", "source": "OpenGovernmentData"}}, {"type": "node", "id": 540647812, "lat": 12.3097363, "lon": 76.6446, "tags": {"amenity": "cafe", "cuisine": "indian", "name": "Cafe Coffee Day", "name:kn": "\u0c95\u0cab\u0cc6 \u0c95\u0cbe\u0cab\u0cbf \u0ca1\u0cc7"}}, {"type": "node", "id": 540651230, "lat": 12.3063337, "lon": 76.6451531, "tags": {"amenity": "bank", "name": "ICICI Bank (Main Branch)", "name:kn": "\u0c88 \u0cb8\u0cbf \u0c88 \u0cb8\u0cbf \u0c88 \u0cac\u0ccd\u0caf\u0cbe\u0c82\u0c95\u0ccd (\u0cae\u0cc1\u0c96\u0ccd\u0caf \u0cb6\u0cbe\u0c96\u0cc6 )", "operator": "ATM"}}, {"type": "node", "id": 540654209, "lat": 12.2978617, "lon": 76.6431092, "tags": {"alt_name": "Laxmipuram Government School", "amenity": "school", "int_name": "Laxmipuram Government School", "name": "Government School;Raman IT", "name:kn": "\u0cb2\u0c95\u0ccd\u0cb7\u0ccd\u0cae\u0cc0\u0caa\u0cc1\u0cb0\u0c82 \u0cb8\u0cb0\u0ccd\u0c95\u0cbe\u0cb0\u0cbf \u0cb6\u0cbe\u0cb2\u0cc6", "old_name": "Government School"}}, {"type": "node", "id": 540655865, "lat": 12.299309, "lon": 76.6429854, "tags": {"amenity": "fuel", "brand": "Indian Oil", "brand:wikidata": "Q1289348", "brand:wikipedia": "en:Indian Oil Corporation", "fuel:diesel": "yes", "name": "Indian Oil", "operator": "Indian Oil"}}, {"type": "node", "id": 540901926, "lat": 12.3045994, "lon": 76.6328627}, {"type": "node", "id": 540901927, "lat": 12.3046217, "lon": 76.6339896}, {"type": "node", "id": 540901928, "lat": 12.3021668, "lon": 76.6337481}, {"type": "node", "id": 540901929, "lat": 12.30228, "lon": 76.6326287}, {"type": "node", "id": 540916260, "lat": 12.3030906, "lon": 76.6380888}, {"type": "node", "id": 540916261, "lat": 12.3029198, "lon": 76.6393532}, {"type": "node", "id": 540916264, "lat": 12.3020658, "lon": 76.6392353}, {"type": "node", "id": 540916265, "lat": 12.3019689, "lon": 76.6391966}, {"type": "node", "id": 540916266, "lat": 12.3018348, "lon": 76.639188}, {"type": "node", "id": 540916267, "lat": 12.3018012, "lon": 76.6390679}, {"type": "node", "id": 540916270, "lat": 12.3014742, "lon": 76.6390507}, {"type": "node", "id": 540916275, "lat": 12.3014239, "lon": 76.6389305}, {"type": "node", "id": 540916277, "lat": 12.3013819, "lon": 76.6388018}, {"type": "node", "id": 540916280, "lat": 12.3013819, "lon": 76.6384928}, {"type": "node", "id": 540916283, "lat": 12.301449, "lon": 76.6382525}, {"type": "node", "id": 540916288, "lat": 12.3016084, "lon": 76.6381066}, {"type": "node", "id": 540924263, "lat": 12.2951146, "lon": 76.6418418, "tags": {"amenity": "bank", "atm": "yes", "brand": "Canara Bank", "brand:pa": "\u0a15\u0a47\u0a28\u0a30\u0a3e \u0a2c\u0a48\u0a02\u0a15", "brand:ur": "\u06a9\u06cc\u0646\u0631\u0627 \u0628\u06cc\u0646\u06a9", "brand:wikidata": "Q2003777", "brand:wikipedia": "en:Canara Bank", "brand:wikipedia:pa": "\u0a15\u0a47\u0a28\u0a30\u0a3e \u0a2c\u0a48\u0a02\u0a15", "name": "Canara Bank", "name:kn": "\u0c95\u0cc6\u0ca8\u0cb0\u0cbe \u0cac\u0ccd\u0caf\u0cbe\u0c82\u0c95\u0ccd", "name:pa": "\u0a15\u0a47\u0a28\u0a30\u0a3e \u0a2c\u0a48\u0a02\u0a15", "name:ur": "\u06a9\u06cc\u0646\u0631\u0627 \u0628\u06cc\u0646\u06a9", "website": "https://www.canarabank.com/"}}, {"type": "node", "id": 540928640, "lat": 12.2955488, "lon": 76.6411661, "tags": {"addr:postcode": "570004", "addr:street": "Kanthraj urs road", "alt_name": "Mahesh Prasad", "amenity": "restaurant", "cuisine": "indian", "int_name": "Mahesh Prasad", "name": "Hotel Mahesh Prasad", "name:kn": "\u0cb9\u0ccb\u0c9f\u0cc6\u0cb2\u0ccd \u0cae\u0cb9\u0cc7\u0cb6\u0ccd \u0caa\u0ccd\u0cb0\u0cb8\u0cbe\u0ca6\u0ccd", "old_name": "Mahesh Prasad"}}, {"type": "node", "id": 540932620, "lat": 12.2929656, "lon": 76.6388951}, {"type": "node", "id": 540932622, "lat": 12.2929424, "lon": 76.6391352}, {"type": "node", "id": 540932623, "lat": 12.2927115, "lon": 76.6391119}, {"type": "node", "id": 540932624, "lat": 12.2927347, "lon": 76.6388718}, {"type": "node", "id": 541311830, "lat": 12.3147056, "lon": 76.6509617}, {"type": "node", "id": 541322483, "lat": 12.3112839, "lon": 76.6175702}, {"type": "node", "id": 541330596, "lat": 12.3070699, "lon": 76.6674958}, {"type": "node", "id": 541330599, "lat": 12.3059159, "lon": 76.6689382}, {"type": "node", "id": 541330600, "lat": 12.3045406, "lon": 76.6700585}, {"type": "node", "id": 541330602, "lat": 12.3049166, "lon": 76.6663239}, {"type": "node", "id": 541330603, "lat": 12.3060906, "lon": 76.667002}, {"type": "node", "id": 541332070, "lat": 12.2976467, "lon": 76.6428237, "tags": {"addr:city": "Mysuru", "amenity": "police", "name": "Laxmipuram Police Station", "name:kn": "\u0cb2\u0c95\u0ccd\u0cb7\u0ccd\u0cae\u0cbf\u0caa\u0cc1\u0cb0\u0c82 \u0c86\u0cb0\u0c95\u0ccd\u0cb7\u0c95 \u0ca0\u0cbe\u0ca3\u0cc6"}}, {"type": "node", "id": 542380669, "lat": 12.2944744, "lon": 76.6412248, "tags": {"addr:district": "Mysuru", "addr:full": "Krishnamurthy Puram", "addr:postcode": "570008", "addr:state": "Karnataka", "amenity": "clinic", "name": "Vinayaka Nursing Home", "source": "OpenGovernmentData"}}, {"type": "node", "id": 542383450, "lat": 12.2922036, "lon": 76.6423443, "tags": {"amenity": "hospital", "name": "Ashoka Clinic"}}, {"type": "node", "id": 542426401, "lat": 12.2942995, "lon": 76.640221, "tags": {"amenity": "pharmacy"}}, {"type": "node", "id": 542427344, "lat": 12.294275, "lon": 76.6409562, "tags": {"amenity": "pharmacy"}}, {"type": "node", "id": 553052578, "lat": 12.2839716, "lon": 76.6415174, "tags": {"amenity": "college", "name": "National Institute of Engineering"}}, {"type": "node", "id": 553052626, "lat": 12.2814743, "lon": 76.6412739, "tags": {"amenity": "college", "name": "Golden Jubliee Block"}}, {"type": "node", "id": 553053422, "lat": 12.2845013, "lon": 76.6407134}, {"type": "node", "id": 553053428, "lat": 12.2843492, "lon": 76.6417809}, {"type": "node", "id": 553053430, "lat": 12.2814427, "lon": 76.6403433}, {"type": "node", "id": 553058111, "lat": 12.3095094, "lon": 76.6416601}, {"type": "node", "id": 553058112, "lat": 12.3093668, "lon": 76.6440548}, {"type": "node", "id": 553058113, "lat": 12.3084108, "lon": 76.643969}, {"type": "node", "id": 553058114, "lat": 12.3086121, "lon": 76.6430677}, {"type": "node", "id": 553058118, "lat": 12.3088804, "lon": 76.6425098}, {"type": "node", "id": 553058126, "lat": 12.3090985, "lon": 76.6418833}, {"type": "node", "id": 553058131, "lat": 12.3092159, "lon": 76.6415228}, {"type": "node", "id": 601688264, "lat": 12.309104, "lon": 76.6623707, "tags": {"addr:city": "Mysore", "addr:housenumber": "3", "addr:postcode": "570010", "addr:street": "Nazarabad Main Road", "amenity": "restaurant", "name": "Sandesh The Prince", "phone": "+91 821 243 6777", "website": "https://sandeshtheprince.com"}}, {"type": "node", "id": 659788601, "lat": 12.3165985, "lon": 76.6267721}, {"type": "node", "id": 1153301848, "lat": 12.310994, "lon": 76.6593118, "tags": {"addr:city": "Mysuru", "addr:street": "Bangalore Nilgiri Road", "alt_name": "Pia Vista", "amenity": "restaurant", "cuisine": "international", "int_name": "Pia Vista", "name": "Pai Vista", "old_name": "Pia Vista"}}, {"type": "node", "id": 1153301916, "lat": 12.3110944, "lon": 76.6550151, "tags": {"amenity": "restaurant", "cuisine": "indian", "diet:vegan": "yes", "diet:vegetarian": "yes", "name": "RRR Hotel"}}, {"type": "node", "id": 1153302101, "lat": 12.3100755, "lon": 76.6528438, "tags": {"amenity": "restaurant", "cuisine": "indian", "name": "Indra Cafe's Paras"}}, {"type": "node", "id": 1153369413, "lat": 12.3104659, "lon": 76.6578166, "tags": {"amenity": "restaurant", "cuisine": "indian", "name": "Arun Darshan"}}, {"type": "node", "id": 1153369452, "lat": 12.3111204, "lon": 76.6447296, "tags": {"addr:city": "Mysuru", "addr:street": "Jhansi Lakshmibai Road", "amenity": "fuel", "brand": "Hindustan Petroleum", "brand:wikidata": "Q1619375", "name": "Aravind Service Station", "official_name": "Hindustan Petroleum", "operator": "HP"}}, {"type": "node", "id": 1153369464, "lat": 12.3100962, "lon": 76.6566137, "tags": {"amenity": "restaurant", "cuisine": "indian", "name": "Hotel Zameera"}}, {"type": "node", "id": 1153369530, "lat": 12.29325, "lon": 76.6590172, "tags": {"amenity": "fuel"}}, {"type": "node", "id": 1153369580, "lat": 12.3139028, "lon": 76.6563078, "tags": {"amenity": "bank", "brand": "State Bank of India", "brand:wikidata": "Q1340361", "brand:wikipedia": "en:State Bank of India", "name": "State Bank of India", "name:kn": "\u0cad\u0cbe\u0cb0\u0ca4\u0cc0\u0caf \u0cb8\u0ccd\u0c9f\u0cc7\u0c9f\u0ccd \u0cac\u0ccd\u0caf\u0cbe\u0c82\u0c95\u0ccd", "short_name": "SBI", "website": "https://www.sbi.co.in"}}, {"type": "node", "id": 1153369633, "lat": 12.3103638, "lon": 76.6577443, "tags": {"amenity": "restaurant", "cuisine": "indian", "name": "Hotel Iyengar's"}}, {"type": "node", "id": 1153369741, "lat": 12.3104513, "lon": 76.6579302, "tags": {"amenity": "restaurant", "cuisine": "indian", "name": "Hotel Santosh"}}, {"type": "node", "id": 1363241810, "lat": 12.3128495, "lon": 76.6474754, "tags": {"addr:city": "Mysuru", "addr:street": "Dhanvantri Road", "amenity": "fuel", "brand": "Hindustan Petroleum", "brand:wikidata": "Q1619375", "name": "Ganesh Petrol Bunk", "official_name": "Hindustan Petroleum", "operator": "Hindustan Petroleum"}}, {"type": "node", "id": 1363241811, "lat": 12.3124681, "lon": 76.647261, "tags": {"addr:city": "Mysuru", "addr:street": "Diwan's Road", "amenity": "fuel", "brand": "Indian Oil", "brand:wikidata": "Q1289348", "brand:wikipedia": "en:Indian Oil Corporation", "name": "Vijaya Petrol Bunk", "operator": "Indianoil"}}, {"type": "node", "id": 1409642790, "lat": 12.2819042, "lon": 76.6408258}, {"type": "node", "id": 1409642792, "lat": 12.2793626, "lon": 76.6401394}, {"type": "node", "id": 1409642810, "lat": 12.279496, "lon": 76.6414993}, {"type": "node", "id": 1409642813, "lat": 12.2817476, "lon": 76.6417929}, {"type": "node", "id": 1450352851, "lat": 12.3085469, "lon": 76.6603582, "tags": {"addr:city": "Mysuru", "addr:housenumber": "73/1", "addr:postcode": "570010", "addr:street": "Guest House Road", "amenity": "restaurant", "cuisine": "regional;indian", "diet:vegetarian": "yes", "name": "Om Shanti", "phone": "+919880232055", "website": "https://www.hotelsiddharta.com/"}}, {"type": "node", "id": 1575062525, "lat": 12.2927496, "lon": 76.6801124}, {"type": "node", "id": 1575062531, "lat": 12.2926972, "lon": 76.6812657}, {"type": "node", "id": 1575062533, "lat": 12.2903176, "lon": 76.6823493}, {"type": "node", "id": 1575062554, "lat": 12.2901551, "lon": 76.6809492}, {"type": "node", "id": 1575086660, "lat": 12.2877653, "lon": 76.6733827, "tags": {"amenity": "restaurant", "name": "Jambalaya", "name:kn": "\u0c9c\u0c82\u0cac\u0cb2\u0caf"}}, {"type": "node", "id": 1575103250, "lat": 12.2842822, "lon": 76.6416039}, {"type": "node", "id": 1575103261, "lat": 12.2842455, "lon": 76.6417675}, {"type": "node", "id": 1575103265, "lat": 12.2843399, "lon": 76.6416146}, {"type": "node", "id": 1575103269, "lat": 12.2825225, "lon": 76.640453}, {"type": "node", "id": 1575103271, "lat": 12.2831669, "lon": 76.640973, "tags": {"amenity": "cafe", "diet:vegetarian": "only", "name": "Old Canteen"}}, {"type": "node", "id": 1575103273, "lat": 12.2815559, "lon": 76.6406712}, {"type": "node", "id": 1575103274, "lat": 12.2816566, "lon": 76.6404747, "tags": {"barrier": "gate"}}, {"type": "node", "id": 1575103293, "lat": 12.2836466, "lon": 76.6415261, "tags": {"barrier": "gate"}}, {"type": "node", "id": 1575103298, "lat": 12.2814171, "lon": 76.6407047}, {"type": "node", "id": 1575103307, "lat": 12.2841676, "lon": 76.6418414}, {"type": "node", "id": 1575103317, "lat": 12.2813451, "lon": 76.6405727}, {"type": "node", "id": 1575103323, "lat": 12.2843084, "lon": 76.6417836}, {"type": "node", "id": 1575103352, "lat": 12.2833091, "lon": 76.6405482}, {"type": "node", "id": 1575103358, "lat": 12.2804506, "lon": 76.6414644, "tags": {"amenity": "cafe", "name": "New Canteen"}}, {"type": "node", "id": 1575103376, "lat": 12.2813482, "lon": 76.640649}, {"type": "node", "id": 1575103391, "lat": 12.28138, "lon": 76.6406747, "tags": {"barrier": "gate"}}, {"type": "node", "id": 1575103399, "lat": 12.2809023, "lon": 76.6403738}, {"type": "node", "id": 1575103403, "lat": 12.2810678, "lon": 76.6417503}, {"type": "node", "id": 1575107327, "lat": 12.2817678, "lon": 76.6417324, "tags": {"barrier": "gate"}}, {"type": "node", "id": 1636119388, "lat": 12.2836452, "lon": 76.6415113}, {"type": "node", "id": 1636119407, "lat": 12.2829056, "lon": 76.64159, "tags": {"amenity": "fuel"}}, {"type": "node", "id": 1636119426, "lat": 12.2837358, "lon": 76.6408243, "tags": {"amenity": "library", "name": "NIE Library"}}, {"type": "node", "id": 1636785470, "lat": 12.2951389, "lon": 76.6412904, "tags": {"amenity": "hospital", "designation": "Diagnostic Centre", "emergency": "no", "name": "Clumax Diagnostics", "source": "MedAll"}}, {"type": "node", "id": 1636799287, "lat": 12.2914909, "lon": 76.6435489, "tags": {"addr:postcode": "570001", "addr:street": "Sharada Vilas Road", "alt_name": "Sharada Vilas", "amenity": "school", "int_name": "Sharada Vilas", "name": "Sharada Vilas School and College", "old_name": "Sharada Vilas"}}, {"type": "node", "id": 1636804091, "lat": 12.2959592, "lon": 76.6386458, "tags": {"alt_name": "Sindoora", "amenity": "restaurant", "cuisine": "indian", "int_name": "Sindoora", "name": "Sindoora", "name:kn": "\u0cb8\u0cbf\u0c82\u0ca7\u0cc2\u0cb0", "old_name": "Sindoora"}}, {"type": "node", "id": 1636810658, "lat": 12.292285, "lon": 76.6417652, "tags": {"addr:postcode": "570001", "addr:street": "Ambedkar road", "amenity": "pharmacy", "dispensing": "no", "name": "Appaji Medicals"}}, {"type": "node", "id": 1636836240, "lat": 12.2978723, "lon": 76.6432846, "tags": {"addr:postcode": "570004", "addr:street": "JLB Road", "alt_name": "Vijaya Bank", "amenity": "bank", "atm": "yes", "int_name": "Vijaya Bank", "name": "Vijaya Bank", "name:kn": "\u0cb5\u0cbf\u0c9c\u0caf \u0cac\u0ccd\u0caf\u0cbe\u0c82\u0c95\u0cc1", "old_name": "Vijaya Bank"}}, {"type": "node", "id": 1636836769, "lat": 12.2978723, "lon": 76.6432846, "tags": {"addr:city": "Mysuru", "addr:street": "Jhansi Lakshmibai Road", "alt_name": "Vijaya Bank", "amenity": "bank", "atm": "yes", "int_name": "Vijaya Bank", "name": "Vijaya Bank", "name:kn": "\u0cb5\u0cbf\u0c9c\u0caf \u0cac\u0ccd\u0caf\u0cbe\u0c82\u0c95\u0cc1", "old_name": "Vijaya Bank"}}, {"type": "node", "id": 1636849945, "lat": 12.3008834, "lon": 76.6404911, "tags": {"alt_name": "Jade Garden", "amenity": "restaurant", "cuisine": "indian", "int_name": "Jade Garden", "name": "Jade Garden", "old_name": "Jade Garden"}}, {"type": "node", "id": 1636862983, "lat": 12.2920439, "lon": 76.6472878, "tags": {"addr:city": "Mysuru", "amenity": "marketplace", "name": "Nanjumalige", "name:kn": "\u0ca8\u0c82\u0c9c\u0cc1\u0cae\u0cb3\u0cbf\u0c97\u0cc6"}}, {"type": "node", "id": 1636864310, "lat": 12.295892, "lon": 76.641981, "tags": {"amenity": "bank", "atm": "yes", "brand:wikidata": "Q1340361", "brand:wikipedia": "en:State Bank of India", "name": "State Bank of India", "name:kn": "\u0cae\u0cc8\u0cb8\u0cc2\u0cb0\u0cc1 \u0cac\u0ccd\u0caf\u0cbe\u0c82\u0c95\u0ccd\u200c", "short_name": "SBI", "website": "https://www.sbi.co.in"}}, {"type": "node", "id": 1637358308, "lat": 12.2944005, "lon": 76.6438784}, {"type": "node", "id": 1637358309, "lat": 12.2948094, "lon": 76.6440393}, {"type": "node", "id": 1637358310, "lat": 12.2937663, "lon": 76.6433205}, {"type": "node", "id": 1637358311, "lat": 12.2944028, "lon": 76.6438223}, {"type": "node", "id": 1637358312, "lat": 12.2946023, "lon": 76.6438248}, {"type": "node", "id": 1637358313, "lat": 12.294715, "lon": 76.6441091}, {"type": "node", "id": 1637358314, "lat": 12.2932789, "lon": 76.6435914}, {"type": "node", "id": 1637358315, "lat": 12.2940804, "lon": 76.6438063}, {"type": "node", "id": 1637358316, "lat": 12.2941512, "lon": 76.6433905}, {"type": "node", "id": 1637358317, "lat": 12.2933313, "lon": 76.6431783}, {"type": "node", "id": 1637358318, "lat": 12.294636, "lon": 76.6434039}, {"type": "node", "id": 1637358319, "lat": 12.2931111, "lon": 76.6435753}, {"type": "node", "id": 1637358320, "lat": 12.2930614, "lon": 76.6441171}, {"type": "node", "id": 1637358321, "lat": 12.2937768, "lon": 76.6432159}, {"type": "node", "id": 1637358322, "lat": 12.2941542, "lon": 76.6433473}, {"type": "node", "id": 1637359948, "lat": 12.2933335, "lon": 76.6453029, "tags": {"amenity": "fuel", "brand": "Indian Oil", "brand:wikidata": "Q1289348", "brand:wikipedia": "en:Indian Oil Corporation", "fuel:GTL_diesel": "yes", "fuel:HGV_diesel": "yes", "fuel:diesel": "yes", "fuel:octane_100": "yes", "fuel:octane_91": "yes", "fuel:octane_95": "yes", "fuel:octane_98": "yes", "name": "Indian Oil", "name:kn": "\u0c87\u0c82\u0ca1\u0cbf\u0caf\u0ca8\u0ccd \u0c86\u0caf\u0cbf\u0cb2\u0ccd"}}, {"type": "node", "id": 1637363383, "lat": 12.2911557, "lon": 76.6468613, "tags": {"amenity": "fuel", "brand": "Bharath Petroleum", "fuel:diesel": "yes"}}, {"type": "node", "id": 1637364368, "lat": 12.2872351, "lon": 76.6505842, "tags": {"addr:city": "Mysuru", "addr:street": "Jhansi Lakshmibai Road", "amenity": "fuel", "brand": "Hindustan Petroleum", "fuel:diesel": "yes", "name": "Hindustan Petroleum", "name:kn": "\u0cb9\u0cbf\u0c82\u0ca6\u0cc1\u0cb8\u0ccd\u0ca4\u0cbe\u0ca8\u0ccd \u0caa\u0cc6\u0c9f\u0ccd\u0cb0\u0ccb\u0cb2\u0cbf\u0caf\u0c82"}}, {"type": "node", "id": 1637364494, "lat": 12.3131217, "lon": 76.6433369, "tags": {"alt_name": "Ideal Jawa Rotary High School", "amenity": "school", "int_name": "Ideal Jawa Rotary High School", "name": "Ideal Jawa Rotary High School", "old_name": "Ideal Jawa Rotary High School"}}, {"type": "node", "id": 1637365364, "lat": 12.313106, "lon": 76.6446565, "tags": {"addr:street": "Jhansi Lakshmibai Road", "amenity": "fuel", "brand": "Hindustan Petroleum", "brand:wikidata": "Q1619375", "fuel:diesel": "yes", "name": "HP", "name:kn": "\u0cb9\u0cbf\u0c82\u0ca6\u0cc1\u0cb8\u0ccd\u0ca4\u0cbe\u0ca8\u0ccd \u0caa\u0cc6\u0c9f\u0ccd\u0cb0\u0ccb\u0cb2\u0cbf\u0caf\u0c82", "official_name": "Hindustan Petroleum"}}, {"type": "node", "id": 1637367301, "lat": 12.2972634, "lon": 76.6545837}, {"type": "node", "id": 1637367303, "lat": 12.2969061, "lon": 76.6545291}, {"type": "node", "id": 1637367304, "lat": 12.2965234, "lon": 76.6550015}, {"type": "node", "id": 1637367305, "lat": 12.2968746, "lon": 76.654744}, {"type": "node", "id": 1637367306, "lat": 12.2948195, "lon": 76.6555141}, {"type": "node", "id": 1637367318, "lat": 12.2946889, "lon": 76.655495}, {"type": "node", "id": 1637367320, "lat": 12.2962194, "lon": 76.6568201}, {"type": "node", "id": 1637367322, "lat": 12.2954437, "lon": 76.6536014}, {"type": "node", "id": 1637367323, "lat": 12.2945684, "lon": 76.6567074}, {"type": "node", "id": 1637367324, "lat": 12.2965654, "lon": 76.6546958}, {"type": "node", "id": 1637367325, "lat": 12.294951, "lon": 76.6545348}, {"type": "node", "id": 1637367326, "lat": 12.2964843, "lon": 76.6549956}, {"type": "node", "id": 1637367327, "lat": 12.2952707, "lon": 76.6546046}, {"type": "node", "id": 1637367328, "lat": 12.2973952, "lon": 76.6539717}, {"type": "node", "id": 1638029068, "lat": 12.3157475, "lon": 76.6325276, "tags": {"amenity": "fuel", "fuel:diesel": "yes", "name": "Nandi Petrol Bunk", "operator": "Hindustan Petrol"}}, {"type": "node", "id": 1638033405, "lat": 12.3228072, "lon": 76.6349681, "tags": {"addr:city": "Mysuru", "addr:street": "Valmiki Road", "amenity": "cafe", "cuisine": "ice_cream", "int_name": "Corner House", "name": "Corner House"}}, {"type": "node", "id": 1638073734, "lat": 12.3086497, "lon": 76.6583683, "tags": {"amenity": "restaurant", "internet_access": "wlan", "name": "Parklane Hotel", "tourism": "hotel", "wheelchair": "yes"}}, {"type": "node", "id": 1638083577, "lat": 12.314282, "lon": 76.6567805, "tags": {"amenity": "police", "name": "Devaraja Police Station", "name:kn": "\u0c86\u0cb0\u0c95\u0ccd\u0cb7\u0c95 \u0ca0\u0cbe\u0ca3\u0cc6"}}, {"type": "node", "id": 1638996823, "lat": 12.2867825, "lon": 76.6523363, "tags": {"addr:city": "Mysuru", "addr:postcode": "570004", "addr:street": "Ramanuja Road", "alt_name": "St. Mary's Girl's High Schrool", "amenity": "school", "int_name": "St. Mary's", "name": "St. Mary's School", "old_name": "St. Mary's", "phone": "+918212442108"}}, {"type": "node", "id": 1639004967, "lat": 12.2881532, "lon": 76.6492411, "tags": {"alt_name": "Murgan Medicals", "amenity": "pharmacy", "dispensing": "yes", "int_name": "Murgan Medicals", "name": "Murgan Medicals", "old_name": "Murgan Medicals"}}, {"type": "node", "id": 1639007585, "lat": 12.2883471, "lon": 76.6495066, "tags": {"alt_name": "GTR", "amenity": "restaurant", "check_date": "2024-03-23", "cuisine": "indian", "int_name": "GTR", "name": "Gayatri Tiffin Room", "old_name": "GTR", "opening_hours": "Mo off; Tu-Su 07:00-11:00,15:30-20:00"}}, {"type": "node", "id": 1639016344, "lat": 12.2964365, "lon": 76.6335822, "tags": {"amenity": "fuel", "brand": "Indian Oil", "brand:wikidata": "Q1289348", "brand:wikipedia": "en:Indian Oil Corporation", "fuel:diesel": "yes", "name": "Indian Oil", "name:kn": "\u0c87\u0c82\u0ca1\u0cbf\u0caf\u0ca8\u0ccd \u0c86\u0caf\u0cbf\u0cb2\u0ccd", "operator": "Indian Oil"}}, {"type": "node", "id": 1645219801, "lat": 12.2803634, "lon": 76.6416954}, {"type": "node", "id": 1645219812, "lat": 12.2801105, "lon": 76.6402629}, {"type": "node", "id": 1645739595, "lat": 12.2903852, "lon": 76.6419285, "tags": {"alt_name": "Ashoka Puram Government School", "amenity": "school", "int_name": "Ashoka Puram Government School", "name": "Ashokapuram Government School", "name:kn": "\u0c85\u0cb6\u0ccb\u0c95\u0caa\u0cc1\u0cb0\u0c82 \u0cb8\u0cb0\u0ccd\u0c95\u0cbe\u0cb0\u0cbf \u0cb6\u0cbe\u0cb2\u0cc6", "old_name": "Ashoka Puram Government School"}}, {"type": "node", "id": 1651613581, "lat": 12.2867455, "lon": 76.6259777, "tags": {"alt_name": "Shanti Sagar", "amenity": "restaurant", "cuisine": "indian", "int_name": "Shanti Sagar", "name": "Shanti Sagar", "name:kn": "\u0cb6\u0cbe\u0c82\u0ca4\u0cbf \u0cb8\u0cbe\u0c97\u0cb0\u0ccd", "old_name": "Shanti Sagar"}}, {"type": "node", "id": 1653868206, "lat": 12.2985955, "lon": 76.6262273, "tags": {"addr:city": "Mysuru", "addr:street": "Vishvamanava Road", "amenity": "fuel", "brand": "Indian Oil", "brand:wikidata": "Q1289348", "brand:wikipedia": "en:Indian Oil Corporation", "name": "Devaru Fuel Center", "operator": "Indian Oil"}}, {"type": "node", "id": 1653868578, "lat": 12.299678, "lon": 76.6264083, "tags": {"alt_name": "State Bank of India", "amenity": "bank", "brand:wikidata": "Q1340361", "brand:wikipedia": "en:State Bank of India", "int_name": "State Bank of India", "name": "State Bank of India (SME Branch)", "old_name": "State Bank of India", "short_name": "SBI"}}, {"type": "node", "id": 1653869139, "lat": 12.2952419, "lon": 76.6258478, "tags": {"addr:city": "Mysuru", "addr:postcode": "570023", "addr:street": "Vishvamanava Road", "amenity": "fuel", "operator": "Bharath Pertol"}}, {"type": "node", "id": 1653870125, "lat": 12.2943948, "lon": 76.6256653, "tags": {"addr:city": "Mysuru", "addr:postcode": "570023", "addr:street": "Vishvamanava Road", "alt_name": "Cafe Biryani", "amenity": "restaurant", "cuisine": "chicken", "int_name": "Cafe Biryani", "name": "Kafe Biryani", "old_name": "Cafe Biryani"}}, {"type": "node", "id": 1654526646, "lat": 12.3247991, "lon": 76.6320872, "tags": {"addr:district": "Mysuru", "addr:full": "#2909,New No.22&22/1,Temple Road,Near Vontikoppal Police Station,V.V.Mohalla", "addr:postcode": "570002", "addr:state": "Karnataka", "amenity": "hospital", "emergency": "yes", "name": "Vikram Jyoth, Mysuru", "source": "OpenGovernmentData"}}, {"type": "node", "id": 1654526686, "lat": 12.3251209, "lon": 76.6317018, "tags": {"addr:city": "Mysuru", "addr:street": "Temple Road", "amenity": "bank", "atm": "yes", "brand": "HDFC Bank", "brand:wikidata": "Q631047", "brand:wikipedia": "en:HDFC Bank", "name": "HDFC Bank", "name:kn": "\u0c8e\u0c9a\u0ccd \u0ca1\u0cbf \u0c8e\u0cab\u0ccd \u0cb8\u0cbf", "short_name": "HDFC", "website": "https://www.hdfcbank.com"}}, {"type": "node", "id": 1654526763, "lat": 12.3245733, "lon": 76.6312404, "tags": {"amenity": "bank", "atm": "yes", "brand": "Axis Bank", "brand:wikidata": "Q2003549", "brand:wikipedia": "en:Axis Bank", "name": "Axis Bank", "name:en": "Axis Bank", "name:kn": "\u0c86\u0c95\u0ccd\u0cb8\u0cbf\u0cb8\u0ccd \u0cac\u0ccd\u0caf\u0cbe\u0c82\u0c95\u0ccd", "website": "https://www.axisbank.com"}}, {"type": "node", "id": 1654527186, "lat": 12.3233522, "lon": 76.629961, "tags": {"amenity": "restaurant", "brand": "Pizza Hut", "brand:wikidata": "Q191615", "cuisine": "pizza", "name": "Pizza Hut", "name:kn": "\u0caa\u0cbf\u0c9f\u0ccd\u0cb8 \u0cb9\u0c9f\u0ccd"}}, {"type": "node", "id": 1658623511, "lat": 12.3045108, "lon": 76.6437878, "tags": {"alt_name": "Jal Paan", "amenity": "restaurant", "cuisine": "international", "int_name": "Jal Paan", "name": "Jal Paan", "name:kn": "\u0c9c\u0cb2\u0ccd \u0caa\u0cbe\u0ca8\u0ccd", "old_name": "Jal Paan"}}, {"type": "node", "id": 1658623688, "lat": 12.3047676, "lon": 76.6438602, "tags": {"alt_name": "Maharaja", "amenity": "restaurant", "cuisine": "indian", "int_name": "Maharaja", "name": "Maharaja", "old_name": "Maharaja"}}, {"type": "node", "id": 1681403715, "lat": 12.2964708, "lon": 76.6309423, "tags": {"addr:postcode": "570004", "addr:street": "New Kantaraj Urs road", "alt_name": "CCD", "amenity": "cafe", "brand": "Cafe Coffee Day", "brand:wikidata": "Q5017235", "cuisine": "coffee_shop", "name": "Cafe Coffee Day", "name:kn": "\u0c95\u0cab\u0cc6 \u0c95\u0cbe\u0cab\u0cbf \u0ca1\u0cc7", "takeaway": "yes", "wifi": "no"}}, {"type": "node", "id": 1681414824, "lat": 12.2953564, "lon": 76.6320028, "tags": {"amenity": "bank", "atm": "yes", "brand": "Canara Bank", "brand:en": "Canara Bank", "brand:hi": "\u0915\u0947\u0928\u0930\u093e \u092c\u0948\u0902\u0915", "brand:kn": "\u0c95\u0cc6\u0ca8\u0cb0\u0cbe \u0cac\u0ccd\u0caf\u0cbe\u0c82\u0c95\u0ccd", "brand:pa": "\u0a15\u0a47\u0a28\u0a30\u0a3e \u0a2c\u0a48\u0a02\u0a15", "brand:pnb": "\u06a9\u06cc\u0646\u0631\u0627 \u0628\u06cc\u0646\u06a9", "brand:ur": "\u06a9\u06cc\u0646\u0631\u0627 \u0628\u06cc\u0646\u06a9", "brand:wikidata": "Q2003777", "brand:wikipedia": "en:Canara Bank", "brand:wikipedia:pa": "\u0a15\u0a47\u0a28\u0a30\u0a3e \u0a2c\u0a48\u0a02\u0a15", "name": "Canara Bank", "name:en": "Canara Bank", "name:hi": "\u0915\u0947\u0928\u0930\u093e \u092c\u0948\u0902\u0915", "name:kn": "\u0c95\u0cc6\u0ca8\u0cb0\u0cbe \u0cac\u0ccd\u0caf\u0cbe\u0c82\u0c95\u0ccd", "name:pa": "\u0a15\u0a47\u0a28\u0a30\u0a3e \u0a2c\u0a48\u0a02\u0a15", "name:pnb": "\u06a9\u06cc\u0646\u0631\u0627 \u0628\u06cc\u0646\u06a9", "name:ur": "\u06a9\u06cc\u0646\u0631\u0627 \u0628\u06cc\u0646\u06a9", "website": "https://www.canarabank.com/"}}, {"type": "node", "id": 1681443539, "lat": 12.2888911, "lon": 76.6271507, "tags": {"amenity": "school", "name": "Dasthi Institute of Nursing"}}, {"type": "node", "id": 1681443541, "lat": 12.2863844, "lon": 76.6297803, "tags": {"addr:postcode": "570023", "amenity": "bank", "atm": "yes", "brand": "Canara Bank", "brand:en": "Canara Bank", "brand:hi": "\u0915\u0947\u0928\u0930\u093e \u092c\u0948\u0902\u0915", "brand:kn": "\u0c95\u0cc6\u0ca8\u0cb0\u0cbe \u0cac\u0ccd\u0caf\u0cbe\u0c82\u0c95\u0ccd", "brand:pa": "\u0a15\u0a47\u0a28\u0a30\u0a3e \u0a2c\u0a48\u0a02\u0a15", "brand:pnb": "\u06a9\u06cc\u0646\u0631\u0627 \u0628\u06cc\u0646\u06a9", "brand:ur": "\u06a9\u06cc\u0646\u0631\u0627 \u0628\u06cc\u0646\u06a9", "brand:wikidata": "Q2003777", "brand:wikipedia": "en:Canara Bank", "brand:wikipedia:pa": "\u0a15\u0a47\u0a28\u0a30\u0a3e \u0a2c\u0a48\u0a02\u0a15", "name": "Canara Bank", "name:en": "Canara Bank", "name:hi": "\u0915\u0947\u0928\u0930\u093e \u092c\u0948\u0902\u0915", "name:kn": "\u0c95\u0cc6\u0ca8\u0cb0\u0cbe \u0cac\u0ccd\u0caf\u0cbe\u0c82\u0c95\u0ccd", "name:pa": "\u0a15\u0a47\u0a28\u0a30\u0a3e \u0a2c\u0a48\u0a02\u0a15", "name:pnb": "\u06a9\u06cc\u0646\u0631\u0627 \u0628\u06cc\u0646\u06a9", "name:ur": "\u06a9\u06cc\u0646\u0631\u0627 \u0628\u06cc\u0646\u06a9", "website": "https://www.canarabank.com/"}}, {"type": "node", "id": 1681443542, "lat": 12.2864459, "lon": 76.6294896, "tags": {"amenity": "fuel", "brand": "Indian Oil", "brand:wikidata": "Q1289348", "brand:wikipedia": "en:Indian Oil Corporation", "name": "Petrol Bunk", "operator": "Indianoil"}}, {"type": "node", "id": 1681443547, "lat": 12.2865429, "lon": 76.6277193, "tags": {"amenity": "school", "name": "Queen's Fashion Institute"}}, {"type": "node", "id": 1681443548, "lat": 12.2887417, "lon": 76.6308216, "tags": {"amenity": "school", "name": "NIIT"}}, {"type": "node", "id": 1681456733, "lat": 12.2857156, "lon": 76.6257221, "tags": {"amenity": "pharmacy", "name": "Ayurvedic Medical Store"}}, {"type": "node", "id": 1681456736, "lat": 12.2857062, "lon": 76.6257819, "tags": {"amenity": "pharmacy", "name": "Bharath Drug House"}}, {"type": "node", "id": 1681456768, "lat": 12.2846559, "lon": 76.6259464, "tags": {"amenity": "pharmacy", "dispensing": "yes", "healthcare": "pharmacy", "name": "Mega Medicals"}}, {"type": "node", "id": 1681456773, "lat": 12.2848131, "lon": 76.625941, "tags": {"amenity": "restaurant", "cuisine": "regional", "name": "Cumin"}}, {"type": "node", "id": 1681456781, "lat": 12.2844462, "lon": 76.6260429, "tags": {"amenity": "school", "name": "Net Focus Browsing Center"}}, {"type": "node", "id": 1681456802, "lat": 12.2844672, "lon": 76.6261985, "tags": {"amenity": "restaurant", "name": "Mr.Idly"}}, {"type": "node", "id": 1681456812, "lat": 12.2849783, "lon": 76.6259464, "tags": {"amenity": "hospital", "emergency": "no", "name": "Sharan Dental Care"}}, {"type": "node", "id": 1798325781, "lat": 12.3121835, "lon": 76.6405428, "tags": {"addr:housename": "Quorum", "addr:street": "Hunsur road", "alt_name": "Quorum", "amenity": "restaurant", "cuisine": "international", "designation": "Quorum", "int_name": "Quorum", "name": "The Quorum", "old_name": "Quorum", "source": "Quorum"}}, {"type": "node", "id": 1798354683, "lat": 12.3253282, "lon": 76.6282116, "tags": {"addr:street": "6th Main", "alt_name": "The 6th main", "amenity": "restaurant", "cuisine": "indian", "designation": "The 6th main", "int_name": "The 6th main", "name": "The 6th main", "old_name": "The 6th main", "source": "The 6th main"}}, {"type": "node", "id": 1798356394, "lat": 12.3251248, "lon": 76.6286932, "tags": {"addr:street": "6th main", "alt_name": "Authana", "amenity": "restaurant", "cuisine": "indian", "designation": "Authana", "int_name": "Authana", "name": "High way", "old_name": "Authana", "source": "Authana"}}, {"type": "node", "id": 1798362543, "lat": 12.3209763, "lon": 76.6306547, "tags": {"addr:housename": "Cafe Pascucci", "amenity": "cafe", "cuisine": "italian", "name": "Cafe Pascucci", "website": "http://www.pascucci.in/"}}, {"type": "node", "id": 1798368365, "lat": 12.3240662, "lon": 76.6261934, "tags": {"addr:street": "Kalidasa Road", "alt_name": "Green leaf", "amenity": "restaurant", "cuisine": "indian", "designation": "Green leaf", "diet:vegetarian": "only", "int_name": "Green leaf", "name": "Green Leaf", "old_name": "Green leaf", "source": "Green leaf"}}, {"type": "node", "id": 1798369492, "lat": 12.3238854, "lon": 76.6277921, "tags": {"amenity": "restaurant", "cuisine": "international", "name": "Empire"}}, {"type": "node", "id": 1798448762, "lat": 12.3258492, "lon": 76.6326671}, {"type": "node", "id": 1798448764, "lat": 12.3260684, "lon": 76.6324474}, {"type": "node", "id": 1798448766, "lat": 12.3261222, "lon": 76.6329525}, {"type": "node", "id": 1798448778, "lat": 12.3263414, "lon": 76.6327327}, {"type": "node", "id": 1798917329, "lat": 12.3232486, "lon": 76.6356858, "tags": {"amenity": "fuel", "brand": "Bharath Petroleum", "compressed_air": "yes", "fuel:HGV_diesel": "yes", "fuel:diesel": "yes", "fuel:octane_91": "yes", "name": "Petrol Bunk", "operator": "Bharath Petroleum", "source": "Bharath Petroleum"}}, {"type": "node", "id": 1798923401, "lat": 12.2973053, "lon": 76.6807469, "tags": {"alt_name": "Little Woods", "amenity": "restaurant", "diet:vegetarian": "only", "int_name": "Little Woods", "name": "Little Woods", "old_name": "Little Woods", "source": "Little Woods"}}, {"type": "node", "id": 1818603813, "lat": 12.2926082, "lon": 76.6716845, "tags": {"amenity": "restaurant", "name": "Olive Garden"}}, {"type": "node", "id": 1936807283, "lat": 12.2955672, "lon": 76.6319664}, {"type": "node", "id": 1936807310, "lat": 12.2954818, "lon": 76.63196}, {"type": "node", "id": 1936807315, "lat": 12.2962459, "lon": 76.6320174}, {"type": "node", "id": 1936807321, "lat": 12.2962087, "lon": 76.6329057}, {"type": "node", "id": 1936807322, "lat": 12.2956249, "lon": 76.6319707}, {"type": "node", "id": 1936807327, "lat": 12.2954592, "lon": 76.6328896}, {"type": "node", "id": 2039565038, "lat": 12.3101549, "lon": 76.6464063, "tags": {"amenity": "restaurant", "name": "Nalapaak", "name:kn": "\u0ca8\u0cb3\u0caa\u0cbe\u0c95"}}, {"type": "node", "id": 2039568182, "lat": 12.3108789, "lon": 76.6446268}, {"type": "node", "id": 2039568183, "lat": 12.3105802, "lon": 76.6462925}, {"type": "node", "id": 2039568186, "lat": 12.3098181, "lon": 76.6444355}, {"type": "node", "id": 2039568206, "lat": 12.3096659, "lon": 76.6461976}, {"type": "node", "id": 2039568210, "lat": 12.3104405, "lon": 76.6464143, "tags": {"amenity": "restaurant", "name": "Hotel Sringar"}}, {"type": "node", "id": 2041340101, "lat": 12.2833622, "lon": 76.6416921, "tags": {"amenity": "restaurant", "cuisine": "indian", "name": "Srinidhi Sagar", "name:kn": "\u0cb6\u0ccd\u0cb0\u0cc0\u0ca8\u0cbf\u0ca7\u0cbf \u0cb8\u0cbe\u0c97\u0cb0"}}, {"type": "node", "id": 2041861215, "lat": 12.3067174, "lon": 76.651169, "tags": {"amenity": "restaurant", "diet:vegetarian": "only", "name": "Rajabhavan Hotel"}}, {"type": "node", "id": 2041878321, "lat": 12.3312788, "lon": 76.6273349, "tags": {"amenity": "restaurant", "diet:vegetarian": "only", "name": "Vishnu Bhavan"}}, {"type": "node", "id": 2041909542, "lat": 12.327841, "lon": 76.6313797, "tags": {"amenity": "restaurant", "diet:vegetarian": "only", "name": "Nalapak"}}, {"type": "node", "id": 2361756938, "lat": 12.2869471, "lon": 76.6520888}, {"type": "node", "id": 2361756956, "lat": 12.2865146, "lon": 76.6520564}, {"type": "node", "id": 2361756974, "lat": 12.2866431, "lon": 76.6517185}, {"type": "node", "id": 2361756988, "lat": 12.2869392, "lon": 76.6517373}, {"type": "node", "id": 2382886590, "lat": 12.3210248, "lon": 76.624697}, {"type": "node", "id": 2382886591, "lat": 12.3213825, "lon": 76.6250359}, {"type": "node", "id": 2382886592, "lat": 12.320868, "lon": 76.625584}, {"type": "node", "id": 2382886593, "lat": 12.3205321, "lon": 76.6252542}, {"type": "node", "id": 2467741283, "lat": 12.3181954, "lon": 76.663362, "tags": {"amenity": "fuel", "brand": "Elf Gas India Ltd.", "name": "Acme Auto gas", "operator": "Elf Gas India Ltd."}}, {"type": "node", "id": 2467744571, "lat": 12.3016417, "lon": 76.635416, "tags": {"amenity": "fuel", "brand": "Bharat Petroleum", "brand:wikidata": "Q854826", "name": "Shree SS Petrol / Gas Station", "operator": "Bharat Petroleum"}}, {"type": "node", "id": 2467764345, "lat": 12.2858697, "lon": 76.6548861, "tags": {"amenity": "fuel", "brand": "Aegis Logistics Ltd.", "name": "Hoysala Auto gas", "operator": "Aegis Logistics Ltd."}}, {"type": "node", "id": 2499182938, "lat": 12.3151994, "lon": 76.6513152}, {"type": "node", "id": 2499182941, "lat": 12.3153042, "lon": 76.6515334}, {"type": "node", "id": 2499182943, "lat": 12.3152464, "lon": 76.6519515}, {"type": "node", "id": 2499182945, "lat": 12.3145994, "lon": 76.6518664}, {"type": "node", "id": 2499182947, "lat": 12.3146066, "lon": 76.6515667}, {"type": "node", "id": 2499182949, "lat": 12.3147078, "lon": 76.651452}, {"type": "node", "id": 2561057491, "lat": 12.3118798, "lon": 76.6400523}, {"type": "node", "id": 2561057494, "lat": 12.3109366, "lon": 76.6444085}, {"type": "node", "id": 2561057496, "lat": 12.3095985, "lon": 76.6442017}, {"type": "node", "id": 2561057498, "lat": 12.309749, "lon": 76.6416635}, {"type": "node", "id": 2561057499, "lat": 12.309895, "lon": 76.6416074}, {"type": "node", "id": 2561057500, "lat": 12.3100638, "lon": 76.6414487}, {"type": "node", "id": 2561057501, "lat": 12.3101049, "lon": 76.6412572}, {"type": "node", "id": 2561057502, "lat": 12.3100593, "lon": 76.6410797}, {"type": "node", "id": 2561057503, "lat": 12.3100958, "lon": 76.6402205}, {"type": "node", "id": 2561057504, "lat": 12.3106068, "lon": 76.6398609}, {"type": "node", "id": 2623349044, "lat": 12.31842, "lon": 76.6487789, "tags": {"amenity": "fuel", "brand": "Indian Oil", "brand:wikidata": "Q1289348", "brand:wikipedia": "en:Indian Oil Corporation", "name": "Indian Oil", "name:kn": "\u0c87\u0c82\u0ca1\u0cbf\u0caf\u0ca8\u0ccd \u0c86\u0caf\u0cbf\u0cb2\u0ccd"}}, {"type": "node", "id": 2699746048, "lat": 12.3125903, "lon": 76.6852793, "tags": {"addr:city": "Mysore", "addr:postcode": "570011", "addr:street": "GITB Press Campus", "amenity": "school", "brand": "Kendriya Vidyalaya", "brand:wikidata": "Q1156653", "name": "Kendriya Vidyalaya", "name:kn": "\u0c95\u0cc7\u0c82\u0ca6\u0ccd\u0cb0\u0cbf\u0caf \u0cb5\u0cbf\u0ca6\u0ccd\u0caf\u0cbe\u0cb2\u0caf", "operator": "Kendriya Vidyalaya Sangathan", "operator:type": "government_non_profit"}}, {"type": "node", "id": 2825875293, "lat": 12.2999571, "lon": 76.6346607, "tags": {"amenity": "bank", "atm": "yes", "brand": "HDFC Bank", "brand:wikidata": "Q631047", "brand:wikipedia": "en:HDFC Bank", "name": "HDFC Bank", "name:kn": "\u0c8e\u0c9a\u0ccd \u0ca1\u0cbf \u0c8e\u0cab\u0ccd \u0cb8\u0cbf", "short_name": "HDFC", "website": "https://www.hdfcbank.com"}}, {"type": "node", "id": 2919065477, "lat": 12.3259335, "lon": 76.6266137, "tags": {"amenity": "restaurant", "cuisine": "Multicuisine", "name": "Bell Platter", "opening_hours": "11:00-23:00"}}, {"type": "node", "id": 2919093812, "lat": 12.3267251, "lon": 76.6273263, "tags": {"amenity": "cafe", "cuisine": "chinese", "name": "Cubs & Mezzaluna"}}, {"type": "node", "id": 3002889702, "lat": 12.3157822, "lon": 76.6507937}, {"type": "node", "id": 3002889703, "lat": 12.3141277, "lon": 76.6513617}, {"type": "node", "id": 3002889704, "lat": 12.3123634, "lon": 76.649091}, {"type": "node", "id": 3002889705, "lat": 12.312284, "lon": 76.6518172}, {"type": "node", "id": 3002889706, "lat": 12.3173938, "lon": 76.6479956}, {"type": "node", "id": 3002889707, "lat": 12.3174252, "lon": 76.6488217}, {"type": "node", "id": 3002889708, "lat": 12.3168906, "lon": 76.6499053}, {"type": "node", "id": 3002889710, "lat": 12.3146668, "lon": 76.6479132}, {"type": "node", "id": 3002889711, "lat": 12.3166076, "lon": 76.6488432}, {"type": "node", "id": 3002889712, "lat": 12.3144252, "lon": 76.6510812}, {"type": "node", "id": 3002889713, "lat": 12.3121914, "lon": 76.6507848}, {"type": "node", "id": 3002889714, "lat": 12.3126588, "lon": 76.6479081}, {"type": "node", "id": 3002889715, "lat": 12.3124912, "lon": 76.6491201}, {"type": "node", "id": 3002889716, "lat": 12.3165578, "lon": 76.6492916}, {"type": "node", "id": 3002889717, "lat": 12.3147647, "lon": 76.6480076}, {"type": "node", "id": 3002889718, "lat": 12.3168828, "lon": 76.6501177}, {"type": "node", "id": 3002889719, "lat": 12.3149549, "lon": 76.6479535}, {"type": "node", "id": 3052934973, "lat": 12.299956, "lon": 76.6264328, "tags": {"addr:city": "Mysuru", "addr:street": "Kamakshi Hospital Road", "amenity": "pharmacy", "name": "Murugan Medicals"}}, {"type": "node", "id": 3056826829, "lat": 12.2958356, "lon": 76.6258709, "tags": {"addr:city": "Mysuru", "addr:postcode": "570023", "addr:street": "Vishvamanava Road", "amenity": "restaurant", "name": "Shree Guru Sasyahari", "name:kn": "\u0cb6\u0ccd\u0cb0\u0cc0 \u0c97\u0cc1\u0cb0\u0cc1 \u0cb8\u0cb8\u0ccd\u0caf\u0cbe\u0cb9\u0cbe\u0cb0\u0cbf"}}, {"type": "node", "id": 3058467710, "lat": 12.2993453, "lon": 76.6259355, "tags": {"addr:postcode": "570023", "addr:street": "Vishvamanava Road", "amenity": "bank", "atm": "yes", "brand": "State Bank of India", "brand:wikidata": "Q1340361", "brand:wikipedia": "en:State Bank of India", "name": "State Bank of India", "name:kn": "\u0cad\u0cbe\u0cb0\u0ca4\u0cc0\u0caf \u0cb8\u0ccd\u0c9f\u0cc7\u0c9f\u0ccd \u0cac\u0ccd\u0caf\u0cbe\u0c82\u0c95\u0ccd", "short_name": "SBI", "website": "https://www.sbi.co.in"}}, {"type": "node", "id": 3058467712, "lat": 12.2947068, "lon": 76.6257263, "tags": {"addr:postcode": "570023", "addr:street": "Vishvamanava Road", "amenity": "restaurant", "name": "Lemon Three"}}, {"type": "node", "id": 3058467713, "lat": 12.294573, "lon": 76.625697, "tags": {"addr:city": "Mysuru", "addr:postcode": "570023", "addr:street": "Vishvamanava Road", "amenity": "restaurant", "name": "Chicken Hut"}}, {"type": "node", "id": 3067770821, "lat": 12.2989456, "lon": 76.6263204, "tags": {"addr:city": "Mysuru", "addr:street": "Vishvamanava Road", "amenity": "bank", "atm": "yes", "brand": "IDBI Bank", "brand:wikidata": "Q3633485", "brand:wikipedia": "en:IDBI Bank", "name": "IDBI Bank", "name:en": "IDBI Bank", "name:kn": "\u0c90\u0ca1\u0cbf\u0cac\u0cbf\u0c90 \u0cac\u0ccd\u0caf\u0cbe\u0c82\u0c95\u0ccd", "old_name": "Industrial Development Bank of India", "short_name": "IDBI", "website": "https://www.idbi.com"}}, {"type": "node", "id": 3067770822, "lat": 12.2990973, "lon": 76.6263508, "tags": {"addr:city": "Mysuru", "addr:street": "Vishvamanava Road", "amenity": "restaurant", "cuisine": "regional;coffee_shop;indian", "name": "Hotel Nalpak", "name:kn": "\u0cb9\u0ccb\u0c9f\u0cc6\u0cb2\u0ccd \u0ca8\u0cb3\u0caa\u0cbe\u0c95\u0ccd", "opening_hours": "Mo-Su 10:00-22:00"}}, {"type": "node", "id": 3067848550, "lat": 12.2986812, "lon": 76.6333201, "tags": {"addr:city": "Mysuru", "addr:street": "Kamakshi Hospital Road", "amenity": "fuel", "brand": "Indian Oil", "brand:wikidata": "Q1289348", "brand:wikipedia": "en:Indian Oil Corporation", "name": "Indian Oil", "name:kn": "\u0c87\u0c82\u0ca1\u0cbf\u0caf\u0ca8\u0ccd \u0c86\u0caf\u0cbf\u0cb2\u0ccd", "operator": "Indian Oil"}}, {"type": "node", "id": 3150163468, "lat": 12.3018439, "lon": 76.6379412}, {"type": "node", "id": 3168414470, "lat": 12.3042424, "lon": 76.6517026}, {"type": "node", "id": 3168414471, "lat": 12.3043827, "lon": 76.6521769}, {"type": "node", "id": 3168414472, "lat": 12.3049905, "lon": 76.652102}, {"type": "node", "id": 3168414473, "lat": 12.3050482, "lon": 76.6518682}, {"type": "node", "id": 3168414474, "lat": 12.3048334, "lon": 76.6518405}, {"type": "node", "id": 3168414475, "lat": 12.304853, "lon": 76.651459}, {"type": "node", "id": 3168414476, "lat": 12.3046493, "lon": 76.6514817}, {"type": "node", "id": 3168414477, "lat": 12.3044146, "lon": 76.6515613}, {"type": "node", "id": 3170485678, "lat": 12.3101011, "lon": 76.6515769}, {"type": "node", "id": 3170485679, "lat": 12.3100533, "lon": 76.651743}, {"type": "node", "id": 3170485680, "lat": 12.3095729, "lon": 76.651629}, {"type": "node", "id": 3170485681, "lat": 12.3095983, "lon": 76.6515362}, {"type": "node", "id": 3170485682, "lat": 12.3098386, "lon": 76.6515997}, {"type": "node", "id": 3170485683, "lat": 12.309864, "lon": 76.6515118}, {"type": "node", "id": 3170485684, "lat": 12.310047, "lon": 76.6510428}, {"type": "node", "id": 3170485685, "lat": 12.3100024, "lon": 76.6512496}, {"type": "node", "id": 3170485686, "lat": 12.3096938, "lon": 76.6511714}, {"type": "node", "id": 3170485687, "lat": 12.3097336, "lon": 76.6509695}, {"type": "node", "id": 3175960021, "lat": 12.3101047, "lon": 76.6541227}, {"type": "node", "id": 3175960022, "lat": 12.3102993, "lon": 76.654571}, {"type": "node", "id": 3175960023, "lat": 12.3101473, "lon": 76.6546401}, {"type": "node", "id": 3175960024, "lat": 12.3099527, "lon": 76.6541918}, {"type": "node", "id": 3175960025, "lat": 12.310913, "lon": 76.6553937}, {"type": "node", "id": 3175960026, "lat": 12.3109005, "lon": 76.6555192}, {"type": "node", "id": 3175960027, "lat": 12.310849, "lon": 76.6555247}, {"type": "node", "id": 3175960028, "lat": 12.3108419, "lon": 76.6556738}, {"type": "node", "id": 3175960029, "lat": 12.3105539, "lon": 76.6556593}, {"type": "node", "id": 3175960030, "lat": 12.310561, "lon": 76.6555137}, {"type": "node", "id": 3175960031, "lat": 12.3105095, "lon": 76.6555024}, {"type": "node", "id": 3175960033, "lat": 12.3105108, "lon": 76.6554405}, {"type": "node", "id": 3175960034, "lat": 12.310513, "lon": 76.6553827}, {"type": "node", "id": 3178271861, "lat": 12.3092698, "lon": 76.6522794}, {"type": "node", "id": 3178271862, "lat": 12.3093258, "lon": 76.6519196}, {"type": "node", "id": 3178271863, "lat": 12.3090882, "lon": 76.651888}, {"type": "node", "id": 3178271864, "lat": 12.3090553, "lon": 76.65223}, {"type": "node", "id": 3178271877, "lat": 12.3083657, "lon": 76.6472371}, {"type": "node", "id": 3178271878, "lat": 12.308022, "lon": 76.6471883}, {"type": "node", "id": 3178271879, "lat": 12.3080061, "lon": 76.6472762}, {"type": "node", "id": 3178271880, "lat": 12.3083466, "lon": 76.6473316}, {"type": "node", "id": 3184039710, "lat": 12.3011525, "lon": 76.6431214}, {"type": "node", "id": 3184039711, "lat": 12.3010446, "lon": 76.6439431}, {"type": "node", "id": 3184039712, "lat": 12.2996981, "lon": 76.6437355}, {"type": "node", "id": 3184039713, "lat": 12.2998213, "lon": 76.6428933}, {"type": "node", "id": 3190997563, "lat": 12.2928781, "lon": 76.6253578}, {"type": "node", "id": 3190997564, "lat": 12.2928611, "lon": 76.6254792}, {"type": "node", "id": 3190997565, "lat": 12.2924504, "lon": 76.6254189}, {"type": "node", "id": 3190997566, "lat": 12.2924674, "lon": 76.6252974}, {"type": "node", "id": 3198435479, "lat": 12.2892132, "lon": 76.6267981}, {"type": "node", "id": 3198435480, "lat": 12.2891581, "lon": 76.626979}, {"type": "node", "id": 3198435481, "lat": 12.2890596, "lon": 76.6269476}, {"type": "node", "id": 3198435482, "lat": 12.2891148, "lon": 76.6267666}, {"type": "node", "id": 3200191015, "lat": 12.2893169, "lon": 76.6313153}, {"type": "node", "id": 3200191016, "lat": 12.2893016, "lon": 76.6314633}, {"type": "node", "id": 3200191017, "lat": 12.2891476, "lon": 76.6314466}, {"type": "node", "id": 3200191018, "lat": 12.2891633, "lon": 76.6312952}, {"type": "node", "id": 3200191019, "lat": 12.2892688, "lon": 76.63131}, {"type": "node", "id": 3200191020, "lat": 12.2892737, "lon": 76.6312624}, {"type": "node", "id": 3200191021, "lat": 12.2892172, "lon": 76.6312563}, {"type": "node", "id": 3200191022, "lat": 12.2892126, "lon": 76.6313005}, {"type": "node", "id": 3200981544, "lat": 12.2925279, "lon": 76.6280554, "tags": {"addr:city": "Mysuru", "addr:postcode": "570023", "addr:street": "Pancamantra Road", "amenity": "bank", "atm": "yes", "name": "The National Cooperative Bank Ltd."}}, {"type": "node", "id": 3200981545, "lat": 12.2939439, "lon": 76.628469, "tags": {"addr:city": "Mysuru", "addr:postcode": "570023", "addr:street": "Pancamantra Road", "amenity": "bank", "atm": "yes", "brand": "Bank of Baroda", "brand:wikidata": "Q2003797", "brand:wikipedia": "en:Bank of Baroda", "drive_through": "no", "name": "Bank of Baroda", "name:en": "Bank of Baroda", "name:kn": "\u0cac\u0ccd\u0caf\u0cbe\u0c82\u0c95\u0ccd \u0c86\u0cab\u0ccd \u0cac\u0cb0\u0ccb\u0ca1", "short_name": "BoB", "website": "http://www.bankofbaroda.com"}}, {"type": "node", "id": 3207135157, "lat": 12.298235, "lon": 76.6253819}, {"type": "node", "id": 3207135158, "lat": 12.2982258, "lon": 76.6254506}, {"type": "node", "id": 3207135159, "lat": 12.298006, "lon": 76.6254196}, {"type": "node", "id": 3207135160, "lat": 12.2980153, "lon": 76.6253509}, {"type": "node", "id": 3207655016, "lat": 12.2959486, "lon": 76.625368}, {"type": "node", "id": 3207655017, "lat": 12.2957964, "lon": 76.6253801}, {"type": "node", "id": 3207655018, "lat": 12.2958029, "lon": 76.6255127}, {"type": "node", "id": 3207655019, "lat": 12.2959572, "lon": 76.6255281}, {"type": "node", "id": 3211957399, "lat": 12.2946663, "lon": 76.6456719}, {"type": "node", "id": 3211957400, "lat": 12.2945068, "lon": 76.6455255}, {"type": "node", "id": 3211957401, "lat": 12.2945139, "lon": 76.6454696}, {"type": "node", "id": 3211957402, "lat": 12.2946889, "lon": 76.6454926}, {"type": "node", "id": 3214000649, "lat": 12.286281, "lon": 76.6282071}, {"type": "node", "id": 3214000650, "lat": 12.2862029, "lon": 76.6289532}, {"type": "node", "id": 3214000651, "lat": 12.2852764, "lon": 76.6288389}, {"type": "node", "id": 3214000652, "lat": 12.2853561, "lon": 76.6281168}, {"type": "node", "id": 3214318101, "lat": 12.2997079, "lon": 76.6268372}, {"type": "node", "id": 3214318102, "lat": 12.2996094, "lon": 76.6276123}, {"type": "node", "id": 3214318103, "lat": 12.2995167, "lon": 76.6280769}, {"type": "node", "id": 3214318104, "lat": 12.2994066, "lon": 76.6280729}, {"type": "node", "id": 3214318105, "lat": 12.2995225, "lon": 76.6268115}, {"type": "node", "id": 3215305288, "lat": 12.3090002, "lon": 76.6380724}, {"type": "node", "id": 3215305289, "lat": 12.3088754, "lon": 76.6384946}, {"type": "node", "id": 3215305290, "lat": 12.3088252, "lon": 76.6384863}, {"type": "node", "id": 3215305291, "lat": 12.3088735, "lon": 76.6380515}, {"type": "node", "id": 3216836958, "lat": 12.3037636, "lon": 76.6824534}, {"type": "node", "id": 3216836959, "lat": 12.3037355, "lon": 76.6836573}, {"type": "node", "id": 3216836960, "lat": 12.3031873, "lon": 76.6837942}, {"type": "node", "id": 3216837061, "lat": 12.3032175, "lon": 76.6825086}, {"type": "node", "id": 3217147025, "lat": 12.3163077, "lon": 76.6277322, "tags": {"addr:city": "mysuru", "addr:postcode": "570006", "addr:street": "Hunsur Road", "amenity": "bank", "brand": "State Bank of India", "brand:wikidata": "Q1340361", "name": "State Bank of India", "name:kn": "\u0cad\u0cbe\u0cb0\u0ca4\u0cc0\u0caf \u0cb8\u0ccd\u0c9f\u0cc7\u0c9f\u0ccd \u0cac\u0ccd\u0caf\u0cbe\u0c82\u0c95\u0ccd", "opening_hours": "10:30-16:30", "operator": "state bank of india", "short_name": "SBI"}}, {"type": "node", "id": 3220508860, "lat": 12.325117, "lon": 76.6397315}, {"type": "node", "id": 3220508961, "lat": 12.3251955, "lon": 76.6398189}, {"type": "node", "id": 3220508962, "lat": 12.3250425, "lon": 76.6399629}, {"type": "node", "id": 3220508963, "lat": 12.3249639, "lon": 76.6398755}, {"type": "node", "id": 3224353374, "lat": 12.3121104, "lon": 76.6507986}, {"type": "node", "id": 3229089054, "lat": 12.3088189, "lon": 76.6676595}, {"type": "node", "id": 3229089055, "lat": 12.3087807, "lon": 76.6682066}, {"type": "node", "id": 3229089056, "lat": 12.3084116, "lon": 76.6681871}, {"type": "node", "id": 3229089057, "lat": 12.3084593, "lon": 76.6676367}, {"type": "node", "id": 3254793250, "lat": 12.2973151, "lon": 76.6539565}, {"type": "node", "id": 3254793251, "lat": 12.2973206, "lon": 76.6539216}, {"type": "node", "id": 3254793252, "lat": 12.2971502, "lon": 76.6539297}, {"type": "node", "id": 3254793253, "lat": 12.2971731, "lon": 76.6538458}, {"type": "node", "id": 3254793254, "lat": 12.2972839, "lon": 76.6539156}, {"type": "node", "id": 3254793255, "lat": 12.2972924, "lon": 76.6538727}, {"type": "node", "id": 3264867281, "lat": 12.2941487, "lon": 76.6589281, "tags": {"amenity": "restaurant", "cuisine": "indian", "name": "Kamath Madhuvan", "name:kn": "\u0c95\u0cbe\u0cae\u0ca4\u0ccd \u0cae\u0ca6\u0cc1\u0cb5\u0ca8"}}, {"type": "node", "id": 3272654654, "lat": 12.2961243, "lon": 76.6435138}, {"type": "node", "id": 3272654655, "lat": 12.2961243, "lon": 76.6438127}, {"type": "node", "id": 3272655174, "lat": 12.2962491, "lon": 76.6438026}, {"type": "node", "id": 3272655175, "lat": 12.2962491, "lon": 76.6438127}, {"type": "node", "id": 3272655176, "lat": 12.2962518, "lon": 76.6435138}, {"type": "node", "id": 3272655177, "lat": 12.2962518, "lon": 76.6435535}, {"type": "node", "id": 3272655182, "lat": 12.2962716, "lon": 76.6435535}, {"type": "node", "id": 3272655183, "lat": 12.2962716, "lon": 76.6438026}, {"type": "node", "id": 3274240472, "lat": 12.2868071, "lon": 76.6517455}, {"type": "node", "id": 3276161291, "lat": 12.2753386, "lon": 76.6715436, "tags": {"amenity": "restaurant", "name": "Durga", "name:kn": "\u0ca6\u0cc1\u0cb0\u0ccd\u0c97"}}, {"type": "node", "id": 3277984105, "lat": 12.3102725, "lon": 76.6581207, "tags": {"amenity": "restaurant", "name": "Madwadi Gujrathi"}}, {"type": "node", "id": 3279674178, "lat": 12.307278, "lon": 76.646035}, {"type": "node", "id": 3279674179, "lat": 12.3070658, "lon": 76.6473842}, {"type": "node", "id": 3279674180, "lat": 12.305938, "lon": 76.6472144}, {"type": "node", "id": 3279674181, "lat": 12.3061538, "lon": 76.645858}, {"type": "node", "id": 3279674182, "lat": 12.3060935, "lon": 76.6471562, "tags": {"amenity": "bank", "atm": "yes", "brand": "Syndicate Bank", "brand:wikidata": "Q2004088", "name": "Syndicate Bank", "name:en": "Syndicate Bank", "name:kn": "\u0cb8\u0cbf\u0c82\u0ca1\u0cbf\u0c95\u0cc7\u0c9f\u0ccd \u0cac\u0ccd\u0caf\u0cbe\u0c82\u0c95\u0ccd", "website": "https://www.syndicatebank.in", "wikimedia_commons": "Category:Syndicate Bank"}}, {"type": "node", "id": 3279678151, "lat": 12.3073187, "lon": 76.6486077}, {"type": "node", "id": 3279678152, "lat": 12.3066411, "lon": 76.6485115}, {"type": "node", "id": 3279678153, "lat": 12.3065699, "lon": 76.6490374}, {"type": "node", "id": 3279678154, "lat": 12.3071027, "lon": 76.6491131}, {"type": "node", "id": 3279678155, "lat": 12.3070535, "lon": 76.6494757}, {"type": "node", "id": 3279678156, "lat": 12.3073195, "lon": 76.6495134}, {"type": "node", "id": 3279678157, "lat": 12.3073453, "lon": 76.649323}, {"type": "node", "id": 3279678158, "lat": 12.3072241, "lon": 76.6493057}, {"type": "node", "id": 3287005679, "lat": 12.3128198, "lon": 76.6462771, "tags": {"amenity": "fuel", "brand": "Bharat Petroleum", "brand:wikidata": "Q854826", "name": "Bharat Petroleum", "name:kn": "\u0cad\u0cbe\u0cb0\u0ca4 \u0caa\u0cc6\u0c9f\u0ccd\u0cb0\u0ccb\u0cb2\u0cbf\u0caf\u0c82", "operator": "Bharat Petroleum22"}}, {"type": "node", "id": 3300179728, "lat": 12.3180805, "lon": 76.657422, "tags": {"amenity": "pharmacy", "healthcare": "pharmacy", "name": "Gandhi Medicals", "wheelchair": "limited"}}, {"type": "node", "id": 3300183576, "lat": 12.3226615, "lon": 76.6580333, "tags": {"amenity": "pharmacy", "name": "M. M. Medicals"}}, {"type": "node", "id": 3300634231, "lat": 12.3172008, "lon": 76.6573189, "tags": {"amenity": "pharmacy", "healthcare": "pharmacy", "name": "Raj Medicals", "wheelchair": "limited"}}, {"type": "node", "id": 3300635196, "lat": 12.3166122, "lon": 76.6569372, "tags": {"amenity": "pharmacy", "healthcare": "pharmacy", "name": "Sikander Medicals", "wheelchair": "limited"}}, {"type": "node", "id": 3303963653, "lat": 12.2985799, "lon": 76.6682884, "tags": {"amenity": "restaurant", "name": "Mayura Rhino Canteen"}}, {"type": "node", "id": 3315667571, "lat": 12.3018948, "lon": 76.6379434}, {"type": "node", "id": 3328017132, "lat": 12.320427, "lon": 76.6500703, "tags": {"addr:district": "Mysuru", "addr:full": "Mandi Mohalla , Na", "addr:postcode": "570009", "addr:state": "Karnataka", "amenity": "hospital", "healthcare": "hospital", "name": "Csi Holdsworth Memorial Hospital", "source": "OpenGovernmentData"}}, {"type": "node", "id": 3328029791, "lat": 12.3178147, "lon": 76.6484991, "tags": {"amenity": "college", "name": "Vidyavardhaka First Grade College"}}, {"type": "node", "id": 3339409205, "lat": 12.28081, "lon": 76.6429689}, {"type": "node", "id": 3339409206, "lat": 12.2807984, "lon": 76.6436056}, {"type": "node", "id": 3339409207, "lat": 12.2799638, "lon": 76.6434949}, {"type": "node", "id": 3339409208, "lat": 12.2801493, "lon": 76.6426526}, {"type": "node", "id": 3358924721, "lat": 12.2888478, "lon": 76.6520122}, {"type": "node", "id": 3358924722, "lat": 12.2889281, "lon": 76.6524037}, {"type": "node", "id": 3358924723, "lat": 12.2887275, "lon": 76.6522295}, {"type": "node", "id": 3358926199, "lat": 12.288799, "lon": 76.6522925, "tags": {"addr:city": "Mysuru", "addr:postcode": "570004", "addr:street": "Ramanuja Road", "amenity": "clinic", "name:en": "Akkammanni Aaspatre", "name:kn": "\u0c85\u0c95\u0ccd\u0c95\u0cae\u0ccd\u0cae\u0ca3\u0ccd\u0ca3\u0cbf \u0c86\u0cb8\u0ccd\u0caa\u0ca4\u0ccd\u0cb0\u0cc6", "wheelchair": "limited"}}, {"type": "node", "id": 3358926700, "lat": 12.2888501, "lon": 76.6522603}, {"type": "node", "id": 3358926701, "lat": 12.2888396, "lon": 76.652334}, {"type": "node", "id": 3358926702, "lat": 12.2887361, "lon": 76.6523206}, {"type": "node", "id": 3358926703, "lat": 12.2887492, "lon": 76.6522442}, {"type": "node", "id": 3358927311, "lat": 12.2887558, "lon": 76.6520436}, {"type": "node", "id": 3358927312, "lat": 12.2887086, "lon": 76.6523623}, {"type": "node", "id": 3371337212, "lat": 12.308568, "lon": 76.6689392}, {"type": "node", "id": 3371337213, "lat": 12.3085576, "lon": 76.6691152}, {"type": "node", "id": 3371337214, "lat": 12.3083582, "lon": 76.6690973}, {"type": "node", "id": 3371337215, "lat": 12.308381, "lon": 76.6689196}, {"type": "node", "id": 3380635539, "lat": 12.3252255, "lon": 76.6582374, "tags": {"amenity": "fuel", "brand": "Indian Oil", "brand:wikidata": "Q1289348", "brand:wikipedia": "en:Indian Oil Corporation", "fuel:diesel": "yes", "fuel:octane_92": "yes", "name": "Indian Oil Fuel Station", "name:kn": "\u0c87\u0c82\u0ca1\u0cbf\u0caf\u0ca8\u0ccd \u0c86\u0caf\u0cbf\u0cb2\u0ccd"}}, {"type": "node", "id": 3380635540, "lat": 12.3254574, "lon": 76.6585825, "tags": {"amenity": "fuel", "brand": "Bharat Petroleum", "brand:wikidata": "Q854826", "fuel:diesel": "yes", "fuel:octane_92": "yes", "name": "Bharat Petroleum", "name:kn": "\u0cad\u0cbe\u0cb0\u0ca4 \u0caa\u0cc6\u0c9f\u0ccd\u0cb0\u0ccb\u0cb2\u0cbf\u0caf\u0c82"}}, {"type": "node", "id": 3390566641, "lat": 12.328986, "lon": 76.6635208, "tags": {"amenity": "bank", "atm": "yes", "brand:wikidata": "Q1340361", "brand:wikipedia": "en:State Bank of India", "name": "State Bank of India", "name:kn": "\u0cad\u0cbe\u0cb0\u0ca4\u0cc0\u0caf \u0cb8\u0ccd\u0c9f\u0cc7\u0c9f\u0ccd \u0cac\u0ccd\u0caf\u0cbe\u0c82\u0c95\u0ccd", "short_name": "SBI", "website": "https://www.sbi.co.in"}}, {"type": "node", "id": 3390584860, "lat": 12.3288029, "lon": 76.6635272, "tags": {"amenity": "restaurant", "cuisine": "burger", "name": "Five Star Chicken"}}, {"type": "node", "id": 3390693375, "lat": 12.2956553, "lon": 76.6404142, "tags": {"amenity": "clinic", "name": "Medident"}}, {"type": "node", "id": 3390693762, "lat": 12.2956979, "lon": 76.6396186, "tags": {"amenity": "restaurant", "name": "Sindhoor Restaurant"}}, {"type": "node", "id": 3390730016, "lat": 12.3092893, "lon": 76.6524423, "tags": {"amenity": "bank", "atm": "yes", "brand": "Canara Bank", "brand:en": "Canara Bank", "brand:hi": "\u0915\u0947\u0928\u0930\u093e \u092c\u0948\u0902\u0915", "brand:kn": "\u0c95\u0cc6\u0ca8\u0cb0\u0cbe \u0cac\u0ccd\u0caf\u0cbe\u0c82\u0c95\u0ccd", "brand:pa": "\u0a15\u0a47\u0a28\u0a30\u0a3e \u0a2c\u0a48\u0a02\u0a15", "brand:pnb": "\u06a9\u06cc\u0646\u0631\u0627 \u0628\u06cc\u0646\u06a9", "brand:ur": "\u06a9\u06cc\u0646\u0631\u0627 \u0628\u06cc\u0646\u06a9", "brand:wikidata": "Q2003777", "brand:wikipedia": "en:Canara Bank", "brand:wikipedia:pa": "\u0a15\u0a47\u0a28\u0a30\u0a3e \u0a2c\u0a48\u0a02\u0a15", "name": "Canara Bank", "name:en": "Canara Bank", "name:hi": "\u0915\u0947\u0928\u0930\u093e \u092c\u0948\u0902\u0915", "name:kn": "\u0c95\u0cc6\u0ca8\u0cb0\u0cbe \u0cac\u0ccd\u0caf\u0cbe\u0c82\u0c95\u0ccd", "name:pa": "\u0a15\u0a47\u0a28\u0a30\u0a3e \u0a2c\u0a48\u0a02\u0a15", "name:pnb": "\u06a9\u06cc\u0646\u0631\u0627 \u0628\u06cc\u0646\u06a9", "name:ur": "\u06a9\u06cc\u0646\u0631\u0627 \u0628\u06cc\u0646\u06a9", "website": "https://www.canarabank.com/"}}, {"type": "node", "id": 3390746058, "lat": 12.3120973, "lon": 76.6483818, "tags": {"amenity": "pharmacy", "healthcare": "pharmacy", "name": "Preethi Medical"}}, {"type": "node", "id": 3390821809, "lat": 12.313578, "lon": 76.6564205, "tags": {"amenity": "bank", "brand": "Indian Overseas Bank", "brand:wikidata": "Q2003611", "brand:wikipedia": "en:Indian Overseas Bank", "name": "Indian Overseas Bank", "name:en": "Indian Overseas Bank", "name:kn": "\u0c90 \u0c93 \u0cac\u0cbf", "short_name": "IOB", "website": "https://www.iob.in"}}, {"type": "node", "id": 3394795630, "lat": 12.3310674, "lon": 76.6457119, "tags": {"amenity": "fuel", "fuel:diesel": "yes", "fuel:octane_92": "yes"}}, {"type": "node", "id": 3394795706, "lat": 12.3310929, "lon": 76.6470596, "tags": {"amenity": "restaurant", "name": "Kamat Yatrinivas"}}, {"type": "node", "id": 3396347159, "lat": 12.3052338, "lon": 76.6847099, "tags": {"amenity": "clinic", "name": "Sushma Clinic"}}, {"type": "node", "id": 3519952006, "lat": 12.3238911, "lon": 76.6267867, "tags": {"amenity": "bank", "brand": "ICICI Bank", "brand:wikidata": "Q1653258", "name": "ICICI Bank", "name:en": "ICICI Bank", "name:kn": "\u0c90\u0cb8\u0cbf\u0c90\u0cb8\u0cbf\u0c90 \u0cac\u0ccd\u0caf\u0cbe\u0c82\u0c95\u0cc1", "short_name": "ICICI", "website": "https://www.icicibank.com"}}, {"type": "node", "id": 3564755098, "lat": 12.2995112, "lon": 76.6424642, "tags": {"amenity": "cafe", "cuisine": "pizza", "name": "The Old House"}}, {"type": "node", "id": 3564771332, "lat": 12.3280309, "lon": 76.6286193, "tags": {"amenity": "cafe", "cuisine": "North_Indian", "name": "Tina's Cafe"}}, {"type": "node", "id": 3564847547, "lat": 12.3234015, "lon": 76.628527, "tags": {"amenity": "restaurant", "name": "Madhwa Bhavan"}}, {"type": "node", "id": 3572684298, "lat": 12.3266498, "lon": 76.6268461, "tags": {"amenity": "cafe", "brand": "Cafe Coffee Day", "brand:wikidata": "Q5017235", "cuisine": "coffee_shop", "name": "Cafe Coffee Day", "name:kn": "\u0c95\u0cab\u0cc6 \u0c95\u0cbe\u0cab\u0cbf \u0ca1\u0cc7", "takeaway": "yes"}}, {"type": "node", "id": 3572696027, "lat": 12.3327212, "lon": 76.632753, "tags": {"amenity": "fuel", "brand": "Indian Oil", "brand:wikidata": "Q1289348", "brand:wikipedia": "en:Indian Oil Corporation", "name": "Indian Oil", "name:kn": "\u0c87\u0c82\u0ca1\u0cbf\u0caf\u0ca8\u0ccd \u0c86\u0caf\u0cbf\u0cb2\u0ccd"}}, {"type": "node", "id": 3582600596, "lat": 12.3238764, "lon": 76.6385564, "tags": {"amenity": "bank", "name": "Indian Overseas Bank", "name:kn": "\u0c90 \u0c93 \u0cac\u0cbf"}}, {"type": "node", "id": 3582601193, "lat": 12.3248093, "lon": 76.6315102, "tags": {"amenity": "cafe", "name": "Barrista"}}, {"type": "node", "id": 3630613256, "lat": 12.2861397, "lon": 76.6273009, "tags": {"amenity": "bank", "brand": "Bank of India", "brand:wikidata": "Q2004439", "brand:wikipedia": "en:Bank of India", "name": "Bank of India", "name:en": "Bank of India", "short_name": "BoI", "website": "http://www.bankofindia.co.in"}}, {"type": "node", "id": 3630694225, "lat": 12.3016882, "lon": 76.6639943, "tags": {"amenity": "cafe", "name": "New Mysore Refreshments"}}, {"type": "node", "id": 3630706015, "lat": 12.3017397, "lon": 76.6779947, "tags": {"amenity": "college", "name": "Government First Grade College", "name:kn": "\u0cb8\u0cb0\u0ccd\u0c95\u0cbe\u0cb0\u0cbf \u0caa\u0ccd\u0cb0\u0ca5\u0cae \u0ca6\u0cb0\u0ccd\u0c9c\u0cc6 \u0c95\u0cbe\u0cb2\u0cc7\u0c9c\u0cc1"}}, {"type": "node", "id": 3630715124, "lat": 12.2977704, "lon": 76.6642387, "tags": {"amenity": "cafe", "cuisine": "coffee_shop", "name": "Cafeteria"}}, {"type": "node", "id": 3630740152, "lat": 12.306409, "lon": 76.6455915, "tags": {"addr:district": "Mysuru", "addr:full": "313, Deewans Road Near Marimallappa College Deewans Road", "addr:postcode": "570024", "addr:state": "Karnataka", "amenity": "hospital", "name": "Sushrutha Eye Hospital", "source": "OpenGovernmentData"}}, {"type": "node", "id": 3630836642, "lat": 12.3269364, "lon": 76.6274067}, {"type": "node", "id": 3630836643, "lat": 12.3270069, "lon": 76.6274768}, {"type": "node", "id": 3630836644, "lat": 12.3269017, "lon": 76.6275754}, {"type": "node", "id": 3630836645, "lat": 12.3268371, "lon": 76.6275093}, {"type": "node", "id": 3632436385, "lat": 12.3084725, "lon": 76.660436, "tags": {"amenity": "cafe", "name": "Siddhartha", "name:kn": "\u0cb8\u0cbf\u0ca6\u0ccd\u0ca7\u0cbe\u0cb0\u0ccd\u0ca5"}}, {"type": "node", "id": 3632436756, "lat": 12.3046932, "lon": 76.6700946}, {"type": "node", "id": 3632455052, "lat": 12.3165669, "lon": 76.6269578}, {"type": "node", "id": 3632571466, "lat": 12.2949273, "lon": 76.6547116}, {"type": "node", "id": 3636269567, "lat": 12.3275761, "lon": 76.6312192}, {"type": "node", "id": 3636269568, "lat": 12.3276929, "lon": 76.6313271}, {"type": "node", "id": 3636274322, "lat": 12.3275045, "lon": 76.6312732}, {"type": "node", "id": 3636274323, "lat": 12.3276327, "lon": 76.6313966}, {"type": "node", "id": 3647236204, "lat": 12.2977478, "lon": 76.6426241}, {"type": "node", "id": 3647236205, "lat": 12.2977516, "lon": 76.6427581}, {"type": "node", "id": 3647236206, "lat": 12.2975225, "lon": 76.6427648}, {"type": "node", "id": 3647236207, "lat": 12.2975187, "lon": 76.6426308}, {"type": "node", "id": 3648131625, "lat": 12.3147568, "lon": 76.6264291}, {"type": "node", "id": 3648131626, "lat": 12.3150233, "lon": 76.6246928}, {"type": "node", "id": 3648131627, "lat": 12.314944, "lon": 76.6227098}, {"type": "node", "id": 3648131628, "lat": 12.3165862, "lon": 76.6216228}, {"type": "node", "id": 3648131629, "lat": 12.3149903, "lon": 76.6218868}, {"type": "node", "id": 3648131630, "lat": 12.3190882, "lon": 76.6149291}, {"type": "node", "id": 3648131631, "lat": 12.3072754, "lon": 76.6182983}, {"type": "node", "id": 3648607995, "lat": 12.3170043, "lon": 76.6238864}, {"type": "node", "id": 3705261966, "lat": 12.2989071, "lon": 76.6732545, "tags": {"amenity": "college", "name": "Administrative Training Institute", "website": "http://www.atimysore.gov.in/"}}, {"type": "node", "id": 3713179902, "lat": 12.3088401, "lon": 76.6381945}, {"type": "node", "id": 3713179903, "lat": 12.3088593, "lon": 76.6380721}, {"type": "node", "id": 3713179904, "lat": 12.30887, "lon": 76.6380739}, {"type": "node", "id": 3713179905, "lat": 12.3088702, "lon": 76.6381995}, {"type": "node", "id": 3713179906, "lat": 12.3088854, "lon": 76.6384309}, {"type": "node", "id": 3713179907, "lat": 12.3089169, "lon": 76.6384361}, {"type": "node", "id": 3713179909, "lat": 12.3089687, "lon": 76.638106}, {"type": "node", "id": 3713179910, "lat": 12.3089943, "lon": 76.6381102}, {"type": "node", "id": 3731304607, "lat": 12.3050292, "lon": 76.6298267}, {"type": "node", "id": 3731304608, "lat": 12.3050338, "lon": 76.6299959}, {"type": "node", "id": 3731304609, "lat": 12.3049229, "lon": 76.6300996}, {"type": "node", "id": 3731304610, "lat": 12.3047587, "lon": 76.6300897}, {"type": "node", "id": 3731304611, "lat": 12.3046853, "lon": 76.6299829}, {"type": "node", "id": 3731304612, "lat": 12.3046834, "lon": 76.6298248}, {"type": "node", "id": 3731304613, "lat": 12.3047606, "lon": 76.6297338}, {"type": "node", "id": 3731304614, "lat": 12.3049403, "lon": 76.6297259}, {"type": "node", "id": 3736904803, "lat": 12.3167422, "lon": 76.6282582}, {"type": "node", "id": 3736904804, "lat": 12.3166126, "lon": 76.6282419}, {"type": "node", "id": 3736904805, "lat": 12.3167304, "lon": 76.6283555}, {"type": "node", "id": 3736909684, "lat": 12.3168546, "lon": 76.6277067}, {"type": "node", "id": 3736909685, "lat": 12.3173356, "lon": 76.6277194}, {"type": "node", "id": 3736909686, "lat": 12.3168686, "lon": 76.6276301}, {"type": "node", "id": 3736911443, "lat": 12.317372, "lon": 76.6281817}, {"type": "node", "id": 3736911444, "lat": 12.3174598, "lon": 76.6283128}, {"type": "node", "id": 3736911445, "lat": 12.3174815, "lon": 76.6282048}, {"type": "node", "id": 3862548276, "lat": 12.3348587, "lon": 76.6636132}, {"type": "node", "id": 3862548277, "lat": 12.3349372, "lon": 76.6631522}, {"type": "node", "id": 3862548278, "lat": 12.3350225, "lon": 76.6631671}, {"type": "node", "id": 3862548279, "lat": 12.3350388, "lon": 76.6630716}, {"type": "node", "id": 3862548281, "lat": 12.3352123, "lon": 76.6631039}, {"type": "node", "id": 3862548282, "lat": 12.3353507, "lon": 76.6631298}, {"type": "node", "id": 3862548283, "lat": 12.3353332, "lon": 76.663704}, {"type": "node", "id": 3862548284, "lat": 12.3353282, "lon": 76.6632529}, {"type": "node", "id": 3862548285, "lat": 12.3354126, "lon": 76.6632691}, {"type": "node", "id": 3865265268, "lat": 12.3289234, "lon": 76.6477514, "tags": {"amenity": "restaurant", "cuisine": "asian", "name": "The 1961"}}, {"type": "node", "id": 3912110530, "lat": 12.286528, "lon": 76.6597892, "tags": {"amenity": "college", "name": "JSS College of Arts Commerce and Science"}}, {"type": "node", "id": 3914924533, "lat": 12.3053344, "lon": 76.635222, "tags": {"amenity": "restaurant", "name": "Ramya Hotel", "takeaway": "yes"}}, {"type": "node", "id": 3938790589, "lat": 12.3075666, "lon": 76.6476799}, {"type": "node", "id": 3938790590, "lat": 12.3074259, "lon": 76.6486132}, {"type": "node", "id": 3938790591, "lat": 12.3065031, "lon": 76.6484683}, {"type": "node", "id": 3938790592, "lat": 12.3066284, "lon": 76.6475297}, {"type": "node", "id": 3975607170, "lat": 12.3165977, "lon": 76.6283366}, {"type": "node", "id": 3975607171, "lat": 12.3167582, "lon": 76.6281199}, {"type": "node", "id": 3975607172, "lat": 12.316776, "lon": 76.6280221}, {"type": "node", "id": 3975607173, "lat": 12.3171631, "lon": 76.6282222}, {"type": "node", "id": 3975607174, "lat": 12.3171675, "lon": 76.6281983}, {"type": "node", "id": 3975607175, "lat": 12.3171853, "lon": 76.6281004}, {"type": "node", "id": 3975607176, "lat": 12.317241, "lon": 76.6282372}, {"type": "node", "id": 3975607177, "lat": 12.3172437, "lon": 76.6277811}, {"type": "node", "id": 3975607178, "lat": 12.3173503, "lon": 76.6282897}, {"type": "node", "id": 3997947136, "lat": 12.3023267, "lon": 76.6324517, "tags": {"addr:city": "Mysuru", "addr:postcode": "570009", "addr:street": "Sarasvatipuram 4th Main", "amenity": "hospital", "name": "Katil Dental clinic"}}, {"type": "node", "id": 3997956999, "lat": 12.3015807, "lon": 76.6349309, "tags": {"addr:street": "Sarasvatipuram 4th Cross", "amenity": "bank", "atm": "yes", "brand": "Karnataka Bank", "brand:wikidata": "Q2042632", "name": "Karnataka Bank", "name:kn": "\u0c95\u0cb0\u0ccd\u0ca8\u0cbe\u0c9f\u0c95 \u0cac\u0ccd\u0caf\u0cbe\u0c82\u0c95\u0cc1", "opening_hours": "Mo-Fr 09:00-16:00; Sa 09:00-13:00"}}, {"type": "node", "id": 4009672417, "lat": 12.2998992, "lon": 76.6788982, "tags": {"amenity": "police", "name": "Siddhartha Nagar Police Station", "wikimedia_commons": "File:Siddhartha Nagar Police Station Mysore May23 A7C 04924.jpg"}}, {"type": "node", "id": 4012599893, "lat": 12.3036854, "lon": 76.6318564, "tags": {"addr:city": "Mysuru", "addr:housenumber": "CH8", "addr:postcode": "570009", "addr:street": "Sarasvatipuram 6th Main", "amenity": "restaurant", "capacity": "20", "cuisine": "regional", "name": "Lalitha's \"Maneruchi\"", "opening_hours": "07:00-10:00,12:00-14:00,18:00-21:00", "phone": "+918147236034", "smoking": "no", "takeaway": "yes"}}, {"type": "node", "id": 4034377296, "lat": 12.3042997, "lon": 76.6368551}, {"type": "node", "id": 4034377297, "lat": 12.3119517, "lon": 76.6389901}, {"type": "node", "id": 4034377298, "lat": 12.3022048, "lon": 76.6395947}, {"type": "node", "id": 4034377299, "lat": 12.3080829, "lon": 76.6439295}, {"type": "node", "id": 4034377300, "lat": 12.3014395, "lon": 76.6372451}, {"type": "node", "id": 4034377301, "lat": 12.3035675, "lon": 76.6368481}, {"type": "node", "id": 4034377302, "lat": 12.3116897, "lon": 76.6387756}, {"type": "node", "id": 4034377303, "lat": 12.3118899, "lon": 76.63982}, {"type": "node", "id": 4034377304, "lat": 12.3120157, "lon": 76.6391441}, {"type": "node", "id": 4034377305, "lat": 12.3089329, "lon": 76.6379065}, {"type": "node", "id": 4034377306, "lat": 12.3019726, "lon": 76.6422195}, {"type": "node", "id": 4034377307, "lat": 12.3083545, "lon": 76.6439789}, {"type": "node", "id": 4034377308, "lat": 12.3017959, "lon": 76.6395089}, {"type": "node", "id": 4034377309, "lat": 12.3073411, "lon": 76.6375026}, {"type": "node", "id": 4034377310, "lat": 12.301134, "lon": 76.6389901}, {"type": "node", "id": 4034377311, "lat": 12.3028232, "lon": 76.6431352}, {"type": "node", "id": 4034377312, "lat": 12.3017645, "lon": 76.6391656}, {"type": "node", "id": 4034377313, "lat": 12.3014118, "lon": 76.6390631}, {"type": "node", "id": 4034377314, "lat": 12.3052641, "lon": 76.6370482}, {"type": "node", "id": 4034377315, "lat": 12.3020475, "lon": 76.6411075}, {"type": "node", "id": 4034377316, "lat": 12.3025507, "lon": 76.6430172}, {"type": "node", "id": 4034377317, "lat": 12.3113134, "lon": 76.638554}, {"type": "node", "id": 4034381947, "lat": 12.3080969, "lon": 76.6231539}, {"type": "node", "id": 4034381948, "lat": 12.308458, "lon": 76.6278177}, {"type": "node", "id": 4034381949, "lat": 12.3139003, "lon": 76.6271992}, {"type": "node", "id": 4034381950, "lat": 12.3077693, "lon": 76.6239451}, {"type": "node", "id": 4034381952, "lat": 12.3164275, "lon": 76.6275639}, {"type": "node", "id": 4034381953, "lat": 12.3066278, "lon": 76.6257298}, {"type": "node", "id": 4034381954, "lat": 12.3080429, "lon": 76.6281867}, {"type": "node", "id": 4034381955, "lat": 12.3089968, "lon": 76.6273756}, {"type": "node", "id": 4034381956, "lat": 12.3129355, "lon": 76.6285505}, {"type": "node", "id": 4034381957, "lat": 12.3066739, "lon": 76.6281535}, {"type": "node", "id": 4034381958, "lat": 12.3094832, "lon": 76.6279335}, {"type": "node", "id": 4034381959, "lat": 12.3080487, "lon": 76.6234387}, {"type": "node", "id": 4034381960, "lat": 12.3139685, "lon": 76.6284131}, {"type": "node", "id": 4034381961, "lat": 12.3069873, "lon": 76.627977}, {"type": "node", "id": 4034381962, "lat": 12.3063542, "lon": 76.6271096}, {"type": "node", "id": 4034381964, "lat": 12.3076797, "lon": 76.6208675}, {"type": "node", "id": 4069646898, "lat": 12.314917, "lon": 76.6244176}, {"type": "node", "id": 4069646899, "lat": 12.3179602, "lon": 76.6242183}, {"type": "node", "id": 4069646900, "lat": 12.3167648, "lon": 76.6222876}, {"type": "node", "id": 4069646901, "lat": 12.3168227, "lon": 76.6229364}, {"type": "node", "id": 4069646902, "lat": 12.3169459, "lon": 76.6230034}, {"type": "node", "id": 4069646903, "lat": 12.3169761, "lon": 76.6233587}, {"type": "node", "id": 4069646904, "lat": 12.3170594, "lon": 76.6233647}, {"type": "node", "id": 4069646905, "lat": 12.3170486, "lon": 76.6240973}, {"type": "node", "id": 4069646906, "lat": 12.3187874, "lon": 76.6223169}, {"type": "node", "id": 4069646907, "lat": 12.3195154, "lon": 76.6208841}, {"type": "node", "id": 4069646908, "lat": 12.3181133, "lon": 76.6211762}, {"type": "node", "id": 4069646910, "lat": 12.3184028, "lon": 76.6187346}, {"type": "node", "id": 4069646911, "lat": 12.3111751, "lon": 76.6155261}, {"type": "node", "id": 4069648552, "lat": 12.3179084, "lon": 76.624306}, {"type": "node", "id": 4069648553, "lat": 12.3174786, "lon": 76.6250731}, {"type": "node", "id": 4069648554, "lat": 12.3170994, "lon": 76.6256011}, {"type": "node", "id": 4069648555, "lat": 12.3168894, "lon": 76.6259789}, {"type": "node", "id": 4069648556, "lat": 12.3166858, "lon": 76.6265879}, {"type": "node", "id": 4069648557, "lat": 12.3149231, "lon": 76.6262199}, {"type": "node", "id": 4069648558, "lat": 12.3151744, "lon": 76.6246339}, {"type": "node", "id": 4069648559, "lat": 12.3150344, "lon": 76.6243571}, {"type": "node", "id": 4069648560, "lat": 12.3149612, "lon": 76.6240672}, {"type": "node", "id": 4069648561, "lat": 12.3150281, "lon": 76.6219178}, {"type": "node", "id": 4069648562, "lat": 12.3165489, "lon": 76.621667}, {"type": "node", "id": 4069648563, "lat": 12.3167144, "lon": 76.6221946}, {"type": "node", "id": 4069648564, "lat": 12.316778, "lon": 76.6229208}, {"type": "node", "id": 4069648565, "lat": 12.316883, "lon": 76.6230283}, {"type": "node", "id": 4069648566, "lat": 12.3169499, "lon": 76.6234322}, {"type": "node", "id": 4069648567, "lat": 12.3170167, "lon": 76.6234484}, {"type": "node", "id": 4069648568, "lat": 12.3170008, "lon": 76.6241519}, {"type": "node", "id": 4114513705, "lat": 12.3151382, "lon": 76.6449229, "tags": {"addr:street": "Jhansi Lakshmibai Road", "amenity": "restaurant", "brand": "Adyar Ananda Bhavan", "brand:wikidata": "Q15178238", "cuisine": "indian", "diet:vegetarian": "only", "indoor_seating": "yes", "name": "Adyar Ananda Bhavan", "name:kn": "\u0c85\u0ca8\u0c82\u0ca6 \u0cad\u0cb5\u0ca8", "opening_hours": "Mo-Su 07:00-23:00", "outdoor_seating": "no", "payment:credit_cards": "yes", "payment:debit_cards": "yes", "shop": "confectionery", "smoking": "no", "website": "http://sabsweets.in", "wheelchair": "no"}}, {"type": "node", "id": 4228244400, "lat": 12.3348193, "lon": 76.6318801, "tags": {"addr:street": "K.R.S. Road", "amenity": "cafe", "name": "Shree Vaishnavi Restaurant"}}, {"type": "node", "id": 4253741489, "lat": 12.3050449, "lon": 76.6472732, "tags": {"addr:street": "Narayana Shastri Road", "amenity": "cafe", "name": "Hangout Cafe & Bistro"}}, {"type": "node", "id": 4256988863, "lat": 12.2846843, "lon": 76.6462288}, {"type": "node", "id": 4256988864, "lat": 12.2847418, "lon": 76.6457237}, {"type": "node", "id": 4256988865, "lat": 12.2854767, "lon": 76.6463466}, {"type": "node", "id": 4256988866, "lat": 12.2854899, "lon": 76.6458233}, {"type": "node", "id": 4281990898, "lat": 12.3199187, "lon": 76.6527084, "tags": {"amenity": "restaurant", "name": "Hazrath Khwaja Ghareeb Un Nawaz Hotel"}}, {"type": "node", "id": 4326778366, "lat": 12.3145687, "lon": 76.6498592}, {"type": "node", "id": 4326778367, "lat": 12.3146873, "lon": 76.6488488}, {"type": "node", "id": 4326778374, "lat": 12.3145644, "lon": 76.649896}, {"type": "node", "id": 4326778385, "lat": 12.3144588, "lon": 76.650795}, {"type": "node", "id": 4326781882, "lat": 12.3146939, "lon": 76.6487768}, {"type": "node", "id": 4326786590, "lat": 12.3144417, "lon": 76.6479126}, {"type": "node", "id": 4327597392, "lat": 12.3233297, "lon": 76.6286203, "tags": {"amenity": "restaurant", "name": "Anima"}}, {"type": "node", "id": 4440837946, "lat": 12.3085598, "lon": 76.6655397, "tags": {"addr:housenumber": "79", "addr:street": "Nazarbad Main road", "amenity": "restaurant", "name": "Vinayaka Mylaria", "opening_hours": "Mo, Tu, Th-Su 06:30-01:30, 15:00-20:30"}}, {"type": "node", "id": 4444155799, "lat": 12.3037064, "lon": 76.6463657, "tags": {"addr:city": "Mysore", "addr:postcode": "570001", "addr:street": "Narayana Shastri Road", "amenity": "school", "name": "Dalvoy A S School Committee", "name:kn": "\u0ca1\u0cb2\u0ccd\u0cb5\u0ccb\u0caf\u0ccd \u0c8e \u0c8e\u0cb8\u0ccd \u0cb6\u0cbe\u0cb2\u0cc6  \u0cb8\u0cae\u0cbf\u0ca4\u0cbf", "phone": "91-821-2447597"}}, {"type": "node", "id": 4444160621, "lat": 12.3048276, "lon": 76.6297812, "tags": {"addr:city": "Mysuru", "addr:postcode": "570009", "addr:street": "Sarasvatipuram 11th Main", "amenity": "school", "name": "Mahabodhi School", "name:kn": "\u0cae\u0cb9\u0cbe\u0cac\u0ccb\u0ca7\u0cbf \u0cb6\u0cbe\u0cb2\u0cc6", "phone": "91-821-2341603"}}, {"type": "node", "id": 4444174743, "lat": 12.2944423, "lon": 76.6339185, "tags": {"addr:city": "Mysuru", "addr:housenumber": "Site B", "addr:postcode": "570014", "addr:street": "Jayanagar 4th Main", "amenity": "school", "name": "Balodyana English School", "phone": "91-821-2567513"}}, {"type": "node", "id": 4444175832, "lat": 12.3254682, "lon": 76.6479529, "tags": {"addr:city": "Mysore", "addr:postcode": "570021", "addr:street": "Omar Khayyam Road", "amenity": "school", "name": "Farooquia Higher Secondary School", "phone": "91-821-2490710"}}, {"type": "node", "id": 4444183207, "lat": 12.2761642, "lon": 76.6392317, "tags": {"addr:city": "Mysore", "addr:housenumber": "7", "addr:postcode": "570008", "addr:street": "C Block,J P Nagar", "amenity": "school", "name": "Vani Vidya Peeta School", "phone": "91-821-2372527"}}, {"type": "node", "id": 4444201744, "lat": 12.3032389, "lon": 76.6456274, "tags": {"addr:city": "Mysore", "addr:postcode": "570007", "addr:street": "Link Road,N R Mohalla,Mesco Iti Building", "amenity": "school", "name": "Mesco Higher Primary School", "phone": "91-821-2498947"}}, {"type": "node", "id": 4444259207, "lat": 12.322017, "lon": 76.6294503, "tags": {"addr:city": "Mysore", "addr:housenumber": "2799", "addr:postcode": "570002", "addr:street": "8th Cross,V V Mohalla", "amenity": "school", "name": "Mathuru Mandali School", "phone": "91-821-2511058"}}, {"type": "node", "id": 4444273764, "lat": 12.3019587, "lon": 76.6270872, "tags": {"addr:city": "Mysore", "addr:postcode": "570009", "addr:street": "4th Cross,16th Main,Saraswathipuram", "amenity": "school", "name": "Muktharunnisa Begam Royal English School", "phone": "91-821-2544836"}}, {"type": "node", "id": 4444299025, "lat": 12.3036388, "lon": 76.6455729, "tags": {"addr:city": "Mysore", "addr:housenumber": "897/1", "addr:postcode": "570004", "addr:street": "Chamundeswari Main Road", "amenity": "school", "name": "Dinkeys Higher Primary School", "phone": "91-821-2332049"}}, {"type": "node", "id": 4444307019, "lat": 12.3210823, "lon": 76.6347949, "tags": {"addr:city": "Mysore", "addr:postcode": "570020", "addr:street": "Cftri Campur,Yadavgiri", "amenity": "school", "name": "Cftri School", "phone": "91-821-2515381"}}, {"type": "node", "id": 4444324231, "lat": 12.3340304, "lon": 76.6755939, "tags": {"addr:city": "mysore", "addr:housenumber": "548/549", "addr:postcode": "570019", "addr:street": "Rajeev Anagr,Udayagiri", "amenity": "school", "name": "Sri Andalus School", "phone": "91-821-2454611"}}, {"type": "node", "id": 4444331874, "lat": 12.3093394, "lon": 76.6665085, "tags": {"addr:city": "Mysuru", "addr:postcode": "570010", "addr:street": "Vanivilas Ursu Road,", "amenity": "school", "name": "Vanivilas Ursu Girls School", "phone": "91-821-2520054"}}, {"type": "node", "id": 4444417600, "lat": 12.3209389, "lon": 76.671052}, {"type": "node", "id": 4444450491, "lat": 12.2958834, "lon": 76.639374, "tags": {"addr:city": "mysore", "addr:postcode": "570008", "addr:street": "H.D.Kote Road,Lakshmipuram", "amenity": "school", "name": "Mysore Public School", "phone": "8212597917"}}, {"type": "node", "id": 4446242238, "lat": 12.3129194, "lon": 76.6494717, "tags": {"addr:city": "Mysuru", "addr:postcode": "570 001", "addr:street": "Dhanvantri Road", "amenity": "police", "name": "Devaraja Police Station", "name:kn": "\u0ca6\u0cc7\u0cb5\u0cb0\u0cbe\u0c9c \u0c86\u0cb0\u0c95\u0ccd\u0cb7\u0c95 \u0ca0\u0cbe\u0ca3\u0cc6", "phone": "0821-2418306", "website": "devarajamyc@ksp.gov.in"}}, {"type": "node", "id": 4446249554, "lat": 12.308414, "lon": 76.667319, "tags": {"addr:city": "Mysuru", "addr:postcode": "570 010", "addr:street": "Nazarabad Main Road", "amenity": "police", "name": "Police Station", "name:kn": "\u0ca8\u0c9c\u0cb0\u0cac\u0cbe\u0ca6\u0ccd \u0c86\u0cb0\u0c95\u0ccd\u0cb7\u0c95 \u0ca0\u0cbe\u0ca3\u0cc6", "phone": "0821-2418308", "website": "nazarbadmyc@ksp.gov.in"}}, {"type": "node", "id": 4446264859, "lat": 12.3266904, "lon": 76.6809447, "tags": {"addr:city": "MYSORE", "addr:postcode": "570 019", "addr:street": "MAHADEVAPURA MAIN ROAD", "amenity": "police", "check_date": "2024-04-29", "name": "Udayagiri Police Station", "name:kn": "\u0c89\u0ca6\u0caf\u0c97\u0cbf\u0cb0\u0cbf \u0c86\u0cb0\u0c95\u0ccd\u0cb7\u0c95 \u0ca0\u0cbe\u0ca3\u0cc6", "phone": "0821-2418309", "website": "udayagirimyc@ksp.gov.in"}}, {"type": "node", "id": 4446279578, "lat": 12.3163407, "lon": 76.6542216, "tags": {"addr:city": "Mysore", "addr:postcode": "570021", "addr:street": "Kabir Road", "amenity": "police", "name": "Mandi Police Station", "name:kn": "\u0cae\u0c82\u0ca1\u0cbf \u0c86\u0cb0\u0c95\u0ccd\u0cb7\u0c95 \u0ca0\u0cbe\u0ca3\u0cc6", "phone": "0821-2418313", "website": "mandimyc@ksp.gov.in"}}, {"type": "node", "id": 4446310229, "lat": 12.2921389, "lon": 76.6475938, "tags": {"addr:city": "Mysuru", "addr:postcode": "570004", "addr:street": "Chamundipuram, Lakshmipuram,", "amenity": "police", "name": "Assistant Commissioner of Police Krishnaraja Division", "phone": "8212418518"}}, {"type": "node", "id": 4460023094, "lat": 12.3016843, "lon": 76.6418029, "tags": {"addr:postcode": "570005", "amenity": "restaurant", "name": "Ramanna Ahara Gudi", "name:en": "Ramanna Ahara Gudi"}}, {"type": "node", "id": 4469879189, "lat": 12.330716, "lon": 76.6286774, "tags": {"amenity": "restaurant", "cuisine": "burger;international;tea;local;coffee_shop;pasta;indian", "diet:vegan": "yes", "internet_access": "wlan", "name": "Depth 'n' Green", "name:en": "Depth 'n' Green", "name:fr": "Depth 'n' Green", "name:hi": "Depth 'n' Green"}}, {"type": "node", "id": 4472120190, "lat": 12.2969875, "lon": 76.6410841, "tags": {"amenity": "restaurant", "name": "Sambhrama Hotel", "name:en": "Sambhrama Hotel"}}, {"type": "node", "id": 4485553289, "lat": 12.3340896, "lon": 76.630132, "tags": {"addr:street": "8th Cross Road", "amenity": "cafe", "cuisine": "western", "internet_access": "wlan", "name": "Santosha Cafe"}}, {"type": "node", "id": 4491814095, "lat": 12.3220612, "lon": 76.6609221}, {"type": "node", "id": 4491814096, "lat": 12.3221359, "lon": 76.6614315}, {"type": "node", "id": 4491814097, "lat": 12.3211334, "lon": 76.6626687}, {"type": "node", "id": 4491814098, "lat": 12.3206215, "lon": 76.6626978}, {"type": "node", "id": 4491814099, "lat": 12.3203655, "lon": 76.6614825}, {"type": "node", "id": 4491814100, "lat": 12.3211441, "lon": 76.6611404}, {"type": "node", "id": 4554153689, "lat": 12.3320806, "lon": 76.628556, "tags": {"addr:street": "2nd Main Road", "amenity": "restaurant", "cuisine": "breakfast;italian_pizza;indian;coffee_shop;thai", "diet:vegan": "yes", "name:en": "Trattoria Food Court & German Bakery"}}, {"type": "node", "id": 4584951900, "lat": 12.3174883, "lon": 76.6529917, "tags": {"amenity": "marketplace", "name:en": "Local market"}}, {"type": "node", "id": 4631379390, "lat": 12.3065931, "lon": 76.6259046}, {"type": "node", "id": 4631390576, "lat": 12.3338399, "lon": 76.6398502, "tags": {"amenity": "bank", "atm": "yes", "brand": "HDFC Bank", "brand:wikidata": "Q631047", "name": "HDFC Bank", "name:kn": "\u0c8e\u0c9a\u0ccd \u0ca1\u0cbf \u0c8e\u0cab\u0ccd \u0cb8\u0cbf \u0cac\u0ccd\u0caf\u0cbe\u0c82\u0c95\u0ccd \u0c8e\u0c9f\u0cbf\u0c8e\u0cae\u0ccd", "operator": "HDFC", "short_name": "HDFC"}}, {"type": "node", "id": 4662805490, "lat": 12.30123, "lon": 76.6545342, "tags": {"amenity": "restaurant", "cuisine": "breakfast;diner;indian;local", "diet:vegetarian": "yes", "name": "Hotel Udupi", "name:de": "Hotel Udupi", "name:en": "Hotel Udupi", "name:kn": "\u0c89\u0ca1\u0cc1\u0caa\u0cbf"}}, {"type": "node", "id": 4692154545, "lat": 12.2815908, "lon": 76.6293487}, {"type": "node", "id": 4692154546, "lat": 12.2813304, "lon": 76.6293239}, {"type": "node", "id": 4692154547, "lat": 12.2812604, "lon": 76.6301175}, {"type": "node", "id": 4692154548, "lat": 12.2815093, "lon": 76.630136}, {"type": "node", "id": 4692161426, "lat": 12.2818578, "lon": 76.6295432}, {"type": "node", "id": 4692161427, "lat": 12.281713, "lon": 76.6295154}, {"type": "node", "id": 4692161428, "lat": 12.2816587, "lon": 76.6300619}, {"type": "node", "id": 4692161429, "lat": 12.2818035, "lon": 76.6300712}, {"type": "node", "id": 4692259491, "lat": 12.3309233, "lon": 76.6288296, "tags": {"amenity": "cafe", "name": "Espresso Bar", "name:hi": "espresso bar"}}, {"type": "node", "id": 4692457854, "lat": 12.2821759, "lon": 76.6301362}, {"type": "node", "id": 4692457855, "lat": 12.282097, "lon": 76.6301188}, {"type": "node", "id": 4692457856, "lat": 12.2821082, "lon": 76.6301881}, {"type": "node", "id": 4692457857, "lat": 12.2821759, "lon": 76.6301997}, {"type": "node", "id": 4692464008, "lat": 12.2780204, "lon": 76.6294552}, {"type": "node", "id": 4692464009, "lat": 12.2780827, "lon": 76.6292598}, {"type": "node", "id": 4692464010, "lat": 12.2778146, "lon": 76.6291703}, {"type": "node", "id": 4692464011, "lat": 12.2777523, "lon": 76.6293656}, {"type": "node", "id": 4693236293, "lat": 12.2919506, "lon": 76.6315539}, {"type": "node", "id": 4693236294, "lat": 12.2914542, "lon": 76.6314904}, {"type": "node", "id": 4693236295, "lat": 12.2914316, "lon": 76.6319927}, {"type": "node", "id": 4693236296, "lat": 12.2919224, "lon": 76.6320504}, {"type": "node", "id": 4727370540, "lat": 12.2933602, "lon": 76.6427451}, {"type": "node", "id": 4727370541, "lat": 12.2932643, "lon": 76.6435493}, {"type": "node", "id": 4727370542, "lat": 12.2926456, "lon": 76.6434874}, {"type": "node", "id": 4727370543, "lat": 12.2927345, "lon": 76.6426578}, {"type": "node", "id": 4750810421, "lat": 12.293627, "lon": 76.6483102, "tags": {"addr:housenumber": "897/1", "addr:postcode": "570004", "addr:street": "Narayana Shastri Road", "amenity": "school", "name": "Mysore Mandala Yogashala", "name:en": "Mysore Mandala Yogashala", "opening_hours": "Mo-Sa 06:00-19:00", "website": "https://ashtanga.org/"}}, {"type": "node", "id": 4764454021, "lat": 12.3108551, "lon": 76.6520287, "tags": {"amenity": "marketplace", "name": "Devaraja Market", "name:hi": "Devaraja Market", "name:kn": "\u0ca6\u0cc7\u0cb5\u0cb0\u0cbe\u0c9c \u0cae\u0cbe\u0cb0\u0cc1\u0c95\u0c9f\u0ccd\u0c9f\u0cc6"}}, {"type": "node", "id": 4790944306, "lat": 12.3259025, "lon": 76.6254452}, {"type": "node", "id": 4790944307, "lat": 12.3255617, "lon": 76.6257732}, {"type": "node", "id": 4790944308, "lat": 12.325774, "lon": 76.6260042}, {"type": "node", "id": 4790944309, "lat": 12.3261148, "lon": 76.6256763}, {"type": "node", "id": 4801818006, "lat": 12.3199641, "lon": 76.6269506}, {"type": "node", "id": 4801818007, "lat": 12.3198093, "lon": 76.6271014}, {"type": "node", "id": 4801818008, "lat": 12.3196505, "lon": 76.6269308}, {"type": "node", "id": 4801818009, "lat": 12.3198053, "lon": 76.6267799}, {"type": "node", "id": 4801818010, "lat": 12.3198503, "lon": 76.6258211}, {"type": "node", "id": 4801818011, "lat": 12.3196727, "lon": 76.6259765}, {"type": "node", "id": 4801818012, "lat": 12.3198245, "lon": 76.6261584}, {"type": "node", "id": 4801818013, "lat": 12.3200021, "lon": 76.626003}, {"type": "node", "id": 4852190221, "lat": 12.2973328, "lon": 76.6413368, "tags": {"amenity": "hospital", "name": "Nethradhama Eye Hospital", "name:kn": "\u0ca8\u0cc7\u0ca4\u0ccd\u0cb0\u0ca7\u0cbe\u0cae \u0c95\u0ca3\u0ccd\u0ca3\u0cbf\u0ca8 \u0c86\u0cb8\u0ccd\u0caa\u0ca4\u0ccd\u0cb0\u0cc6"}}, {"type": "node", "id": 4852190222, "lat": 12.2950023, "lon": 76.6456313, "tags": {"amenity": "pharmacy", "healthcare": "pharmacy"}}, {"type": "node", "id": 4852190224, "lat": 12.2945926, "lon": 76.6456042}, {"type": "node", "id": 4852190225, "lat": 12.2945751, "lon": 76.6456474, "tags": {"amenity": "pharmacy", "name": "Pharmacy"}}, {"type": "node", "id": 4892779430, "lat": 12.2882524, "lon": 76.6269171, "tags": {"addr:district": "Mysuru", "addr:full": "981, Panchamantra Road, Kuvempu Nagara, Mysore", "addr:postcode": "570023", "addr:state": "Karnataka", "addr:street": "Pancamantra Road", "amenity": "hospital", "name": "Netra Jyothi Eye Hospital & Phaco Cataract Surgery Centre", "name:en": "Netra Jyothi Eye Hospital, Dr Mahesh Kumar", "source": "Local Knowledge"}}, {"type": "node", "id": 4896307138, "lat": 12.3038177, "lon": 76.679032}, {"type": "node", "id": 4896307139, "lat": 12.3033522, "lon": 76.6790185}, {"type": "node", "id": 4896307140, "lat": 12.3033423, "lon": 76.6793758}, {"type": "node", "id": 4896307141, "lat": 12.3038077, "lon": 76.6793894}, {"type": "node", "id": 5004077421, "lat": 12.3313707, "lon": 76.6280075, "tags": {"amenity": "cafe", "name": "Just Gelato", "name:en": "Just Gelato"}}, {"type": "node", "id": 5039340724, "lat": 12.3058496, "lon": 76.6523069, "tags": {"addr:housenumber": "194/2", "addr:street": "Sayyaji Rao Road", "amenity": "restaurant", "name": "Cafe Aramane", "name:en": "Cafe Aramane", "name:fr": "Cafe Aramane", "phone": "08212434434"}}, {"type": "node", "id": 5080844234, "lat": 12.3247716, "lon": 76.6447363}, {"type": "node", "id": 5080844235, "lat": 12.3248135, "lon": 76.6448785}, {"type": "node", "id": 5080844236, "lat": 12.3249507, "lon": 76.6448361}, {"type": "node", "id": 5080844237, "lat": 12.3249088, "lon": 76.6446939}, {"type": "node", "id": 5080844238, "lat": 12.3193641, "lon": 76.6480201, "tags": {"amenity": "fuel", "compressed_air": "yes"}}, {"type": "node", "id": 5080844249, "lat": 12.3296071, "lon": 76.6300303, "tags": {"amenity": "pharmacy"}}, {"type": "node", "id": 5080844250, "lat": 12.3268374, "lon": 76.6272864, "tags": {"amenity": "cafe", "name": "Cubs"}}, {"type": "node", "id": 5080844251, "lat": 12.3255979, "lon": 76.6323585, "tags": {"amenity": "cafe", "name": "Pakva"}}, {"type": "node", "id": 5080844256, "lat": 12.3163872, "lon": 76.6278738, "tags": {"amenity": "cafe", "name": "Bamboo Leaf Restaurant"}}, {"type": "node", "id": 5080844258, "lat": 12.3226893, "lon": 76.6350406, "tags": {"amenity": "cafe", "name": "Frosting"}}, {"type": "node", "id": 5080844273, "lat": 12.3258002, "lon": 76.6775356}, {"type": "node", "id": 5080844274, "lat": 12.3258522, "lon": 76.6776207}, {"type": "node", "id": 5080844275, "lat": 12.3259329, "lon": 76.677569}, {"type": "node", "id": 5080844276, "lat": 12.325881, "lon": 76.6774839}, {"type": "node", "id": 5080844277, "lat": 12.3274519, "lon": 76.6766583}, {"type": "node", "id": 5080844278, "lat": 12.3274912, "lon": 76.6767227}, {"type": "node", "id": 5080844279, "lat": 12.3276052, "lon": 76.6766497}, {"type": "node", "id": 5080844280, "lat": 12.3275659, "lon": 76.6765854}, {"type": "node", "id": 5080844281, "lat": 12.3293949, "lon": 76.6755447, "tags": {"amenity": "library"}}, {"type": "node", "id": 5080844321, "lat": 12.3325288, "lon": 76.6587755, "tags": {"amenity": "restaurant"}}, {"type": "node", "id": 5080844331, "lat": 12.3319812, "lon": 76.6518232}, {"type": "node", "id": 5080844332, "lat": 12.331837, "lon": 76.6518232}, {"type": "node", "id": 5080844333, "lat": 12.331837, "lon": 76.6516408}, {"type": "node", "id": 5080844334, "lat": 12.3319812, "lon": 76.6516408}, {"type": "node", "id": 5080844335, "lat": 12.3319969, "lon": 76.6522658}, {"type": "node", "id": 5080844336, "lat": 12.3318816, "lon": 76.6522658}, {"type": "node", "id": 5080844337, "lat": 12.3318816, "lon": 76.6520458}, {"type": "node", "id": 5080844338, "lat": 12.3319969, "lon": 76.6520458}, {"type": "node", "id": 5080844339, "lat": 12.3320598, "lon": 76.6532314}, {"type": "node", "id": 5080844340, "lat": 12.3319497, "lon": 76.6532314}, {"type": "node", "id": 5080844341, "lat": 12.3319497, "lon": 76.6530463}, {"type": "node", "id": 5080844342, "lat": 12.3320598, "lon": 76.6530463}, {"type": "node", "id": 5112209424, "lat": 12.3147301, "lon": 76.6518836}, {"type": "node", "id": 5248474623, "lat": 12.3314201, "lon": 76.6267021, "tags": {"amenity": "cafe", "name": "Caf\u00e9 Roots"}}, {"type": "node", "id": 5411828822, "lat": 12.3003562, "lon": 76.6260956, "tags": {"amenity": "cafe", "internet_access": "wlan", "name": "Chai Patthe"}}, {"type": "node", "id": 5504660421, "lat": 12.3021996, "lon": 76.6498447, "tags": {"amenity": "school", "name": "Krishnamachaar Yoga Shala"}}, {"type": "node", "id": 5645365021, "lat": 12.3235832, "lon": 76.6279752, "tags": {"amenity": "cafe", "name": "KVR ruchi centre"}}, {"type": "node", "id": 5773582342, "lat": 12.2918023, "lon": 76.6359379, "tags": {"amenity": "hospital", "healthcare": "hospital", "name": "Government Hospital", "name:kn": "\u0cb8\u0cb0\u0ccd\u0c95\u0cbe\u0cb0\u0cbf \u0c86\u0cb8\u0ccd\u0caa\u0ca4\u0ccd\u0cb0\u0cc6"}}, {"type": "node", "id": 5829639189, "lat": 12.2837332, "lon": 76.6254822, "tags": {"amenity": "pharmacy", "name": "Pradhan Mantri Jan Aushadhi Kendra", "opening_hours": "Mo-Sa 09:30-21:30; Su 09:30-13:00", "operator": "Mr Kishore", "phone": "+918867666868"}}, {"type": "node", "id": 5857412189, "lat": 12.3055758, "lon": 76.651925, "tags": {"amenity": "cafe", "name": "Cafe Aramane"}}, {"type": "node", "id": 5890626958, "lat": 12.3255849, "lon": 76.6585192}, {"type": "node", "id": 5890626959, "lat": 12.3254256, "lon": 76.658896}, {"type": "node", "id": 5890626960, "lat": 12.325295, "lon": 76.6587327}, {"type": "node", "id": 5890626961, "lat": 12.3253613, "lon": 76.6585615}, {"type": "node", "id": 5890626962, "lat": 12.3251211, "lon": 76.6580788}, {"type": "node", "id": 5890626963, "lat": 12.3251539, "lon": 76.6583254}, {"type": "node", "id": 5890626964, "lat": 12.3254342, "lon": 76.6582695}, {"type": "node", "id": 5890626965, "lat": 12.325414, "lon": 76.6580164}, {"type": "node", "id": 5977292538, "lat": 12.2963218, "lon": 76.6568356}, {"type": "node", "id": 6117489129, "lat": 12.3180112, "lon": 76.6525938, "tags": {"amenity": "restaurant", "cuisine": "regional", "name": "Hanumanthu Biryani Original 1930"}}, {"type": "node", "id": 6117496113, "lat": 12.3123207, "lon": 76.6451228, "tags": {"amenity": "restaurant"}}, {"type": "node", "id": 6224968488, "lat": 12.3117283, "lon": 76.6496335, "tags": {"amenity": "restaurant", "name": "Tibet Restaurant"}}, {"type": "node", "id": 6305078985, "lat": 12.3335409, "lon": 76.6281692, "tags": {"amenity": "cafe", "name": "Khushi"}}, {"type": "node", "id": 6369579685, "lat": 12.3326908, "lon": 76.6750171, "tags": {"addr:housenumber": "387, 5th cross", "addr:postcode": "570019", "addr:street": "5th Cross Road", "amenity": "school", "name": "K. M. Zakee Ahmed", "name:en": "KMA MANZIL RAJIVE NAGAR MYSORE, MYSURU", "opening_hours": "Mo-Su 09:00-18:00", "phone": "9686812430"}}, {"type": "node", "id": 6715313685, "lat": 12.3199914, "lon": 76.6574812, "tags": {"addr:street": "Ashoka Road", "amenity": "cafe", "cuisine": "chicken;friture;kebab;grill;indian;local", "diet:vegan": "no", "diet:vegetarian": "yes", "indoor_seating": "no", "name": "Hotel New Quba Mess", "name:ru": "\u041a\u0430\u0444\u0435 \u041a\u0443\u0431\u0430 \u041c\u0435\u0441\u0441", "opening_hours": "Mo-Su 09:00-21:00", "outdoor_seating": "no", "phone": "+919741838875", "takeaway": "only"}}, {"type": "node", "id": 6782088086, "lat": 12.3265683, "lon": 76.6267593, "tags": {"amenity": "restaurant", "cuisine": "pizza", "name": "Onesta Pizzeria"}}, {"type": "node", "id": 6832323686, "lat": 12.2994928, "lon": 76.652673, "tags": {"addr:floor": "G", "addr:postcode": "570004", "amenity": "restaurant", "check_date": "2024-08-03", "cuisine": "indian", "level": "0", "name": "Mylary Agrahara", "name:en": "Mylary Agrahara", "opening_hours": "Mo-Su 07:00-12:30, 15:00-20:00", "phone": "+919900635618", "wheelchair": "limited"}}, {"type": "node", "id": 6857703585, "lat": 12.298879, "lon": 76.6526018, "tags": {"amenity": "restaurant", "name": "New Lakshmi Bavana"}}, {"type": "node", "id": 6938762575, "lat": 12.2988923, "lon": 76.6455086, "tags": {"addr:district": "Mysuru", "addr:full": "No. 873, M. G. Road, Laksmipuram", "addr:postcode": "570004", "addr:state": "Karnataka", "amenity": "hospital", "healthcare": "hospital", "name": "Preethi Centre For Oncology", "source": "OpenGovernmentData"}}, {"type": "node", "id": 6938777920, "lat": 12.3161539, "lon": 76.6510481, "tags": {"addr:district": "Mysuru", "addr:full": "1475, 1 st Floor , Above Hotel Venkatesh Bhavan , Near Ayurvedic Hospital , Mission Hospital Road", "addr:postcode": "570001", "addr:state": "Karnataka", "amenity": "hospital", "healthcare": "hospital", "name": "Netra Jyothi Eye Hospital", "name:kn": "\u0ca8\u0cc7\u0ca4\u0ccd\u0cb0\u0c9c\u0ccd\u0caf\u0ccb\u0ca4\u0cbf \u0c95\u0ca3\u0ccd\u0ca3\u0cbf\u0ca8 \u0c86\u0cb8\u0ccd\u0caa\u0ca4\u0ccd\u0cb0\u0cc6", "source": "OpenGovernmentData"}}, {"type": "node", "id": 6938830624, "lat": 12.3165288, "lon": 76.6294833, "tags": {"addr:district": "Mysuru", "addr:full": "Near Nilgiris Super Market, Vinoba Road, Hunsur Road", "addr:postcode": "570012", "addr:state": "Karnataka", "amenity": "hospital", "name": "City Bone and Joint Center", "source": "OpenGovernmentData"}}, {"type": "node", "id": 6938918643, "lat": 12.2927546, "lon": 76.6271737, "tags": {"addr:district": "Mysuru", "addr:full": "#P2, Jcst, E & F Block,Anikethana Road, Kuvemu Nagar,Behind Gnana Ganga School", "addr:postcode": "570023", "addr:state": "Karnataka", "amenity": "hospital", "name": "Bhanavi Hospital", "name:kn": "\u0cad\u0cbe\u0ca8\u0cb5\u0cbf \u0c86\u0cb8\u0ccd\u0caa\u0ca4\u0ccd\u0cb0\u0cc6", "source": "OpenGovernmentData"}}, {"type": "node", "id": 6944194878, "lat": 12.2902204, "lon": 76.6494012, "tags": {"addr:district": "Mysuru", "addr:full": "Narayana Shastry Road, Chamundipuram", "addr:postcode": "570004", "addr:state": "Karnataka", "amenity": "hospital", "name": "Mythri Hospital, Mysuru", "name:kn": "\u0cae\u0cc8\u0ca4\u0ccd\u0cb0\u0cbf \u0c86\u0cb8\u0ccd\u0caa\u0ca4\u0ccd\u0cb0\u0cc6", "source": "OpenGovernmentData"}}, {"type": "node", "id": 6944231442, "lat": 12.2972852, "lon": 76.6536548, "tags": {"addr:district": "Mysuru", "addr:full": "OppositeTo Sbm Bank, J.S.S Hospital, Ramanuja Road, Agrahara", "addr:postcode": "570004", "addr:state": "Karnataka", "amenity": "hospital", "name": "Mithi Surgery Hospital", "source": "OpenGovernmentData"}}, {"type": "node", "id": 6944276822, "lat": 12.2887482, "lon": 76.6496627, "tags": {"addr:district": "Mysuru", "addr:full": "#2876, 4Th Cross,Narayana Shastry Road, Chamundipuram,Opposite G.R.T,Chamundipuram", "addr:postcode": "570004", "addr:state": "Karnataka", "amenity": "hospital", "name": "Vidyaranya Hospital (P) Ltd", "source": "OpenGovernmentData"}}, {"type": "node", "id": 6944276831, "lat": 12.3038151, "lon": 76.6477396, "tags": {"addr:district": "Mysuru", "addr:full": "No. 605, College Road, Behind Anathalaya Post Office", "addr:postcode": "570001", "addr:state": "Karnataka", "amenity": "clinic", "name": "Dr Lalitha Memorial Chamundeshwari Nursing Home", "source": "OpenGovernmentData"}}, {"type": "node", "id": 6944276841, "lat": 12.2982394, "lon": 76.6443821, "tags": {"addr:district": "Mysuru", "addr:full": "No. 877 / 1, Dewans Road, Lakshmipuram", "addr:postcode": "570004", "addr:state": "Karnataka", "amenity": "hospital", "healthcare": "hospital", "name": "Usha Kiran Eye Hospital and Usha Kiran Charitable Trust", "source": "OpenGovernmentData"}}, {"type": "node", "id": 6944276842, "lat": 12.3068832, "lon": 76.6846065, "tags": {"addr:district": "Mysuru", "addr:full": "Siddarthanagara", "addr:postcode": "570011", "addr:state": "Karnataka", "amenity": "clinic", "name": "Shree Mahadeshwara Nursing Home", "source": "OpenGovernmentData"}}, {"type": "node", "id": 6944276847, "lat": 12.3040307, "lon": 76.6814382, "tags": {"addr:district": "Mysuru", "addr:full": "No. 73/B, Vinaya Marga, Siddarthanagar", "addr:postcode": "570011", "addr:state": "Karnataka", "amenity": "hospital", "name": "A V Hospital", "source": "OpenGovernmentData"}}, {"type": "node", "id": 6944426021, "lat": 12.2967682, "lon": 76.6479206, "tags": {"addr:district": "Mysuru", "addr:full": "953 Kantharaj Urs Road Lakshmipuram", "addr:postcode": "570004", "addr:state": "Karnataka", "amenity": "clinic", "name": "Annapoorna Hospital", "name:kn": "\u0c85\u0ca8\u0ccd\u0ca8\u0caa\u0cc2\u0cb0\u0ccd\u0ca3 \u0c86\u0cb8\u0ccd\u0caa\u0ca4\u0ccd\u0cb0\u0cc6", "source": "OpenGovernmentData"}}, {"type": "node", "id": 6944561971, "lat": 12.2861464, "lon": 76.6518205, "tags": {"addr:district": "Mysuru", "addr:full": "# 1120/F-58 B, 1st Main, J. L. B. Road, Vidyaranyapuram", "addr:postcode": "570008", "addr:state": "Karnataka", "amenity": "hospital", "name": "Rama Krishna Hospital, Mysuru", "source": "OpenGovernmentData"}}, {"type": "node", "id": 6944578885, "lat": 12.3245957, "lon": 76.6768898, "tags": {"addr:district": "Mysuru", "addr:full": "No. 03, Mahadevapura Double Road, Opposite Jss Jan Shikshan Samsthan, Udayagiri", "addr:postcode": "570019", "addr:state": "Karnataka", "amenity": "hospital", "name": "Sri Srinivasa Hospital, Mysuru", "source": "OpenGovernmentData"}}, {"type": "node", "id": 6944996519, "lat": 12.2952836, "lon": 76.648398, "tags": {"addr:district": "Mysuru", "addr:full": "Sita Ranga Healthcare Complex,No.1659, Narayan Shastri Road,Narayan Shastri Road, Lakshmipuram", "addr:postcode": "570008", "addr:state": "Karnataka", "amenity": "hospital", "healthcare": "hospital", "name": "Vaatsalaya Hospital, Mysuru", "source": "OpenGovernmentData"}}, {"type": "node", "id": 6945192067, "lat": 12.3101589, "lon": 76.6563984, "tags": {"addr:district": "Mysuru", "addr:full": "410 Contour Road Gokulam 3Road Stage", "addr:postcode": "570007", "addr:state": "Karnataka", "amenity": "hospital", "healthcare": "hospital", "name": "Ramesh Hospital For Piles and Proctology", "source": "OpenGovernmentData"}}, {"type": "node", "id": 6945716390, "lat": 12.2965546, "lon": 76.6466251, "tags": {"addr:district": "Mysuru", "addr:full": "933 Hemaganga 1st Main Laxmipuram", "addr:postcode": "570004", "addr:state": "Karnataka", "amenity": "hospital", "healthcare": "hospital", "name": "Simha Heart Foundation", "source": "OpenGovernmentData"}}, {"type": "node", "id": 6947293187, "lat": 12.3113639, "lon": 76.647771, "tags": {"addr:district": "Mysuru", "addr:full": "Opposite Sangeetha Lodge, 1374, Naryana Shastri Road", "addr:postcode": "570001", "addr:state": "Karnataka", "amenity": "hospital", "healthcare": "hospital", "name": "Sharda Surgery and Cyro- Surgery Centre", "source": "OpenGovernmentData"}}, {"type": "node", "id": 6948503464, "lat": 12.2922659, "lon": 76.6422933, "tags": {"addr:district": "Mysuru", "addr:full": "1498, Ramaiyer Road, K.M.Puram, Near Sharadavilas Educational Institutions", "addr:postcode": "570004", "addr:state": "Karnataka", "amenity": "hospital", "name": "Raman Memorial Hospital-Mysore", "source": "OpenGovernmentData"}}, {"type": "node", "id": 6948620732, "lat": 12.3144454, "lon": 76.6552249, "tags": {"addr:district": "Mysuru", "addr:full": "25/1A Irwin Road", "addr:postcode": "570024", "addr:state": "Karnataka", "amenity": "hospital", "healthcare": "hospital", "name": "Chitra's Hospital", "source": "OpenGovernmentData"}}, {"type": "node", "id": 6948674250, "lat": 12.281944, "lon": 76.6420546, "tags": {"addr:district": "Mysuru", "addr:full": "No.1417, Opp-Roby Bakery,E&F Block, Dakshineshwara Road, Ramakrishna Nagar", "addr:postcode": "570022", "addr:state": "Karnataka", "amenity": "clinic", "name": "Sri Sai Nursing Home, Mysuru", "source": "OpenGovernmentData"}}, {"type": "node", "id": 7039571569, "lat": 12.3071012, "lon": 76.6677607}, {"type": "node", "id": 7039596008, "lat": 12.3081818, "lon": 76.6675088}, {"type": "node", "id": 7039596009, "lat": 12.3082551, "lon": 76.6676027}, {"type": "node", "id": 7039596010, "lat": 12.3079407, "lon": 76.671618}, {"type": "node", "id": 7039596011, "lat": 12.3079014, "lon": 76.672546}, {"type": "node", "id": 7039596012, "lat": 12.3079721, "lon": 76.6736055}, {"type": "node", "id": 7039596013, "lat": 12.3048961, "lon": 76.6736135}, {"type": "node", "id": 7039596014, "lat": 12.3046073, "lon": 76.6727008}, {"type": "node", "id": 7039596015, "lat": 12.305687, "lon": 76.6729698}, {"type": "node", "id": 7039596016, "lat": 12.3060041, "lon": 76.6705531}, {"type": "node", "id": 7039596017, "lat": 12.30472, "lon": 76.670242}, {"type": "node", "id": 7039596018, "lat": 12.3075686, "lon": 76.6674766}, {"type": "node", "id": 7049388833, "lat": 12.3196784, "lon": 76.6191442}, {"type": "node", "id": 7049388834, "lat": 12.3206985, "lon": 76.6159422}, {"type": "node", "id": 7068976385, "lat": 12.312295, "lon": 76.6484584, "tags": {"amenity": "restaurant", "name": "Ashoka Hotel", "name:kn": "\u0c85\u0cb6\u0ccb\u0c95"}}, {"type": "node", "id": 7076914185, "lat": 12.2991888, "lon": 76.6409796, "tags": {"amenity": "restaurant", "name": "Vaibhav annexe"}}, {"type": "node", "id": 7079234288, "lat": 12.3110966, "lon": 76.6567825, "tags": {"amenity": "cafe", "diet:vegan": "yes", "diet:vegetarian": "yes", "name": "Murali caf\u00e9"}}, {"type": "node", "id": 7151051785, "lat": 12.284174, "lon": 76.6506231, "tags": {"addr:housenumber": "7", "addr:postcode": "570024", "addr:street": "Narayana Shastri Road", "amenity": "school", "name": "Sadvidya educational institutions"}}, {"type": "node", "id": 7174452685, "lat": 12.3110043, "lon": 76.6594241, "tags": {"amenity": "restaurant", "name": "Gufha"}}, {"type": "node", "id": 7174452785, "lat": 12.3084678, "lon": 76.6644764, "tags": {"amenity": "restaurant", "name": "Guru"}}, {"type": "node", "id": 7562027203, "lat": 12.2943418, "lon": 76.6479099, "tags": {"addr:district": "Mysuru", "addr:full": "Beside BSNL Office, New Kantharaj Urs Road, Near Nanjumallige Circle, Lakshmipuram, Mysuru", "addr:postcode": "570004", "addr:state": "Karnataka", "amenity": "clinic", "name": "Sharada Clinic", "source": "Local Knowledge"}}, {"type": "node", "id": 7562027204, "lat": 12.2996624, "lon": 76.6524005, "tags": {"addr:district": "Mysuru", "addr:full": "Agrahara, Fort Mohalla, Mysuru", "addr:postcode": "570004", "addr:state": "Karnataka", "amenity": "hospital", "name": "Anagha Hospital", "source": "Local Knowledge"}}, {"type": "node", "id": 7562027210, "lat": 12.2863447, "lon": 76.6309373, "tags": {"addr:district": "Mysuru", "addr:full": "Adhichuchunagiri Road, Kuvempu Nagara, Mysore", "addr:postcode": "570023", "addr:state": "Karnataka", "amenity": "hospital", "name": "Dr. Agarwals Eye Hospital", "source": "Local Knowledge"}}, {"type": "node", "id": 7562027211, "lat": 12.3079269, "lon": 76.6471859, "tags": {"addr:district": "Mysuru", "addr:full": "ESI Hospital Road, Subbarayanakere, Chamrajpura, Mysuru", "addr:postcode": "570004", "addr:state": "Karnataka", "amenity": "hospital", "healthcare": "hospital", "name": "ESI Hospital", "name:kn": "\u0c87\u0c8e\u0cb8\u0ccd\u0c90 \u0c86\u0cb8\u0ccd\u0caa\u0ca4\u0ccd\u0cb0\u0cc6", "operator": "Employees' State Insurance", "operator:short": "ESI", "operator:wikidata": "Q3595726", "source": "Local Knowledge"}}, {"type": "node", "id": 7562027212, "lat": 12.2997381, "lon": 76.6259275, "tags": {"addr:district": "Mysuru", "addr:full": "28, Kamakshi Hospital Road, Kuvempunagara North, Saraswathipuram, Mysore", "addr:postcode": "570009", "addr:state": "Karnataka", "amenity": "clinic", "name": "Pratham Kids Clinic", "source": "Local Knowledge"}}, {"type": "node", "id": 7562027217, "lat": 12.32484, "lon": 76.6321094, "tags": {"addr:district": "Mysuru", "addr:full": "Vontikoppal, Mysuru", "addr:postcode": "570002", "addr:state": "Karnataka", "amenity": "hospital", "name": "DRM Multi Speciality Hospital", "source": "Local Knowledge"}}, {"type": "node", "id": 7562027221, "lat": 12.3233058, "lon": 76.6642719, "tags": {"addr:district": "Mysuru", "addr:full": "Gandhi Nagar, Gayathri Puram, Mysuru", "addr:postcode": "570007", "addr:state": "Karnataka", "amenity": "hospital", "name": "Disha Hospital", "source": "Local Knowledge"}}, {"type": "node", "id": 7562027227, "lat": 12.2952298, "lon": 76.6445926, "tags": {"addr:district": "Mysuru", "addr:full": "963/1A, New Kanthraju Urs Road, Near C.K.C School, Lakshmipuram, Mysuru", "addr:postcode": "570004", "addr:state": "Karnataka", "amenity": "clinic", "name": "Santasa IVF Centre", "source": "Local Knowledge"}}, {"type": "node", "id": 7562027229, "lat": 12.2971488, "lon": 76.6534444, "tags": {"addr:district": "Mysuru", "addr:full": "2nd Cross Road, Ramachandra Agrahara, Mysuru", "addr:postcode": "570004", "addr:state": "Karnataka", "amenity": "clinic", "name": "The Brain Neuro Clinic", "source": "Local Knowledge"}}, {"type": "node", "id": 7562027231, "lat": 12.3021508, "lon": 76.6281828, "tags": {"addr:district": "Mysuru", "addr:full": "14th Main Road, Saraswathipuram, Mysore", "addr:postcode": "570009", "addr:state": "Karnataka", "amenity": "hospital", "name": "Agasthya Hospital", "name:kn": "\u0c85\u0c97\u0cb8\u0ccd\u0ca4\u0ccd\u0caf \u0c86\u0cb8\u0ccd\u0caa\u0ca4\u0ccd\u0cb0\u0cc6", "source": "Local Knowledge"}}, {"type": "node", "id": 7562027237, "lat": 12.3193378, "lon": 76.663692, "tags": {"addr:district": "Mysuru", "addr:full": "Mohammed Sait Block, Earangere, Gayathri Puram, Mysuru", "addr:postcode": "570007", "addr:state": "Karnataka", "amenity": "hospital", "name": "Al Ansaar Hospital", "name:kn": "\u0c85\u0cb2\u0ccd \u0c85\u0ca8\u0ccd\u0cb8\u0cbe\u0cb0\u0ccd \u0c86\u0cb8\u0ccd\u0caa\u0ca4\u0ccd\u0cb0\u0cc6", "source": "Local Knowledge"}}, {"type": "node", "id": 7562027243, "lat": 12.2835486, "lon": 76.6274948, "tags": {"addr:district": "Mysuru", "addr:full": "Khb Colony, Kuvempu Nagara, Mysore", "addr:postcode": "570008", "addr:state": "Karnataka", "amenity": "hospital", "name": "Bhanavi Hospital", "name:kn": "\u0cad\u0cbe\u0ca8\u0cb5\u0cbf \u0c86\u0cb8\u0ccd\u0caa\u0ca4\u0ccd\u0cb0\u0cc6", "source": "Local Knowledge"}}, {"type": "node", "id": 7562027244, "lat": 12.3310761, "lon": 76.6585695, "tags": {"addr:district": "Mysuru", "addr:full": "Subhasnagara, Rajendra Nagar, Mysuru", "addr:postcode": "570007", "addr:state": "Karnataka", "amenity": "clinic", "name": "Dr. Idrees Akmal Orthocare Clinic", "source": "Local Knowledge"}}, {"type": "node", "id": 7562027255, "lat": 12.3098034, "lon": 76.6639542, "tags": {"addr:district": "Mysuru", "addr:full": "Nazarbad, Mysuru", "addr:postcode": "570010", "addr:state": "Karnataka", "amenity": "clinic", "name": "Chinmaya Kids Clinic", "source": "Local Knowledge"}}, {"type": "node", "id": 7562027261, "lat": 12.2831634, "lon": 76.6288346, "tags": {"addr:district": "Mysuru", "addr:full": "Khb Colony, M-Block, Kuvempunahar, Mysore", "addr:postcode": "570023", "addr:state": "Karnataka", "amenity": "clinic", "name": "Vijayadurga Clinic", "source": "Local Knowledge"}}, {"type": "node", "id": 7562027270, "lat": 12.2960015, "lon": 76.6393656, "tags": {"addr:district": "Mysuru", "addr:full": "Chamarajapura, Chamarajapuram Mohalla, Lakshmipuram, Mysore", "addr:postcode": "570004", "addr:state": "Karnataka", "amenity": "hospital", "name": "Sindhu Eye Hospital", "source": "Local Knowledge"}}, {"type": "node", "id": 7562027272, "lat": 12.301903, "lon": 76.6433102, "tags": {"addr:district": "Mysuru", "addr:full": "Mangalore - Mysore Highway, Chamarajapura, Chamarajapuram Mohalla, Lakshmipuram, Mysuru", "addr:postcode": "570005", "addr:state": "Karnataka", "amenity": "hospital", "name": "Preety Cancer Hospital", "source": "Local Knowledge"}}, {"type": "node", "id": 7562027273, "lat": 12.3233006, "lon": 76.6271655, "tags": {"addr:district": "Mysuru", "addr:full": "Kalidasa Road, Vani Vilas Mohalla, Mysuru", "addr:postcode": "570002", "addr:state": "Karnataka", "amenity": "hospital", "name": "Brindavan Hospital", "name:kn": "\u0cac\u0cc3\u0c82\u0ca6\u0cbe\u0cb5\u0ca8 \u0c86\u0cb8\u0ccd\u0caa\u0ca4\u0ccd\u0cb0\u0cc6", "source": "Local Knowledge"}}, {"type": "node", "id": 7562027276, "lat": 12.316897, "lon": 76.6504964, "tags": {"addr:district": "Mysuru", "addr:full": "Near K.R Hospital, Kabir Road, CFTRI Campus, Yadavagiri, Mysuru", "addr:postcode": "570021", "addr:state": "Karnataka", "amenity": "hospital", "healthcare": "hospital", "name": "Hitech Kidney Stone Hospital", "source": "Local Knowledge"}}, {"type": "node", "id": 7562027277, "lat": 12.284166, "lon": 76.625851, "tags": {"addr:district": "Mysuru", "addr:full": "Kuvempu Nagara, Mysore", "addr:postcode": "570023", "addr:state": "Karnataka", "amenity": "clinic", "name": "Suraksha Kids Clinic", "source": "Local Knowledge"}}, {"type": "node", "id": 7562027280, "lat": 12.3147654, "lon": 76.6560528, "tags": {"addr:district": "Mysuru", "addr:full": "Lashkar Mohalla, Mandi Mohalla, Mysuru", "addr:postcode": "570001", "addr:state": "Karnataka", "amenity": "clinic", "healthcare": "clinic", "name": "Sharada Nursing Home", "source": "Local Knowledge"}}, {"type": "node", "id": 7562027284, "lat": 12.2875301, "lon": 76.6523576, "tags": {"addr:district": "Mysuru", "addr:full": "Bettadpura, Mysuru", "addr:postcode": "570004", "addr:state": "Karnataka", "amenity": "hospital", "name": "Leelavathi Hospital", "source": "Local Knowledge"}}, {"type": "node", "id": 7562027285, "lat": 12.3286155, "lon": 76.6630709, "tags": {"addr:district": "Mysuru", "addr:full": "N R Mohalla, Rajendra Nagar, Mysuru", "addr:postcode": "570007", "addr:state": "Karnataka", "amenity": "hospital", "name": "SLES Hospital", "source": "Local Knowledge"}}, {"type": "node", "id": 7562027289, "lat": 12.3023507, "lon": 76.6304378, "tags": {"addr:district": "Mysuru", "addr:full": "#89, 9th Main, 3rd Cross Road, Opp. Saraswathipuram, Mysore", "addr:postcode": "570009", "addr:state": "Karnataka", "amenity": "clinic", "name": "Mamatha Kid Care Clinic", "source": "Local Knowledge"}}, {"type": "node", "id": 7562027293, "lat": 12.3195272, "lon": 76.6619657, "tags": {"addr:district": "Mysuru", "addr:full": "Bangalore Road, Lashkar Mohalla, Gayathri Puram, Mysuru", "addr:postcode": "570007", "addr:state": "Karnataka", "amenity": "clinic", "name": "Vaishali Maternity Home", "source": "Local Knowledge"}}, {"type": "node", "id": 7562027299, "lat": 12.302911, "lon": 76.6443991, "tags": {"addr:district": "Mysuru", "addr:full": "Dewance Road, Near Chamraja Mohalla, Mysuru", "addr:postcode": "570024", "addr:state": "Karnataka", "amenity": "hospital", "name": "Sapthagiri Hospital", "name:kn": "\u0cb8\u0caa\u0ccd\u0ca4\u0c97\u0cbf\u0cb0\u0cbf \u0c86\u0cb8\u0ccd\u0caa\u0ca4\u0ccd\u0cb0\u0cc6", "source": "Local Knowledge"}}, {"type": "node", "id": 7562027300, "lat": 12.3028747, "lon": 76.6277329, "tags": {"addr:district": "Mysuru", "addr:full": "15th Main Road, Kukkarahalli, Saraswathipuram, Mysore", "addr:postcode": "570009", "addr:state": "Karnataka", "amenity": "clinic", "name": "Kalpavruksha Health Care", "source": "Local Knowledge"}}, {"type": "node", "id": 7562027302, "lat": 12.295678, "lon": 76.6533958, "tags": {"addr:district": "Mysuru", "addr:full": "Ramanuja Road, Ramachandra Agrahara, Mysuru", "addr:postcode": "570004", "addr:state": "Karnataka", "amenity": "clinic", "name": "Dr. Shambu Primary Health Care Centre", "source": "Local Knowledge"}}, {"type": "node", "id": 7562027304, "lat": 12.320474, "lon": 76.648926, "tags": {"addr:district": "Mysuru", "addr:full": "Tilak Nagar, Mysuru", "addr:postcode": "570001", "addr:state": "Karnataka", "amenity": "hospital", "healthcare": "hospital", "name": "Gayatri Hospital", "name:kn": "\u0c97\u0cbe\u0caf\u0ca4\u0ccd\u0cb0\u0cbf \u0c86\u0cb8\u0ccd\u0caa\u0ca4\u0ccd\u0cb0\u0cc6", "source": "Local Knowledge"}}, {"type": "node", "id": 7562027313, "lat": 12.2940593, "lon": 76.6481521, "tags": {"addr:district": "Mysuru", "addr:full": "Chamundipuram Main Road, Lakshmipuram, Mysuru", "addr:postcode": "570004", "addr:state": "Karnataka", "amenity": "clinic", "name": "Neuro Care", "source": "Local Knowledge"}}, {"type": "node", "id": 7562027318, "lat": 12.2980718, "lon": 76.6480207, "tags": {"addr:district": "Mysuru", "addr:full": "1557, Vani Vilas Double Road, NR Mohalla, Lakshmipuram, Mysuru", "addr:postcode": "570004", "addr:state": "Karnataka", "amenity": "clinic", "healthcare": "clinic", "healthcare:speciality": "urology", "name": "Trupthi Urology and Kidney Centre", "source": "Local Knowledge"}}, {"type": "node", "id": 7562027319, "lat": 12.2964029, "lon": 76.6267572, "tags": {"addr:district": "Mysuru", "addr:full": "16th Main Road, Kuvempunagara North, Kuvempu Nagara, Mysore", "addr:postcode": "570009", "addr:state": "Karnataka", "amenity": "clinic", "name": "BKG Multi Speciality Health Centre", "source": "Local Knowledge"}}, {"type": "node", "id": 7562027322, "lat": 12.3226091, "lon": 76.6489192, "tags": {"addr:district": "Mysuru", "addr:full": "Wesley Road, Tilak Nagar, Mysuru", "addr:postcode": "570001", "addr:state": "Karnataka", "amenity": "clinic", "name": "Jaipadma Clinic", "source": "Local Knowledge"}}, {"type": "node", "id": 8187960604, "lat": 12.3334685, "lon": 76.6670639, "tags": {"addr:full": "NO 10/B RAJENDRA CIRCLE MAIN ROAD OPP KEB KALYAN MANTAP KESRI MYSORE 2nd Stage, 2nd Stage, R.S.Naidu Nagar, Mysuru, Karnataka", "addr:state": "Karnataka", "amenity": "bank", "name": "Axis Bank", "name:kn": "\u0c86\u0c95\u0ccd\u0cb8\u0cbf\u0cb8\u0ccd \u0cac\u0ccd\u0caf\u0cbe\u0c82\u0c95\u0ccd"}}, {"type": "node", "id": 8187960623, "lat": 12.332894, "lon": 76.6627126, "tags": {"addr:full": "Site No 8, Opp. KPTCL Samudhaya Bhavan, Rajendra Nagar Main Rd, Subhasnagara, R.S.Naidu Nagar, Mysuru, Karnataka", "addr:state": "Karnataka", "amenity": "bank", "name": "State Bank of India", "name:kn": "\u0cad\u0cbe\u0cb0\u0ca4\u0cc0\u0caf \u0cb8\u0ccd\u0c9f\u0cc7\u0c9f\u0ccd \u0cac\u0ccd\u0caf\u0cbe\u0c82\u0c95\u0ccd"}}, {"type": "node", "id": 8187960884, "lat": 12.3246005, "lon": 76.6302273, "tags": {"addr:full": "2774, 5th Main Rd, Vani Vilas Mohalla, Mysuru, Karnataka", "addr:state": "Karnataka", "amenity": "bank", "brand": "Syndicate Bank", "brand:wikidata": "Q2004088", "name": "Syndicate Bank", "name:kn": "\u0cb8\u0cbf\u0c82\u0ca1\u0cbf\u0c95\u0cc7\u0c9f\u0ccd \u0cac\u0ccd\u0caf\u0cbe\u0c82\u0c95\u0ccd"}}, {"type": "node", "id": 8187961016, "lat": 12.3221128, "lon": 76.625857, "tags": {"addr:full": "Door No, 529 530, Ashoka Road, Prithvi Arcade, Ashoka Road, Jayalakshmipuram, Mysuru, Karnataka", "addr:state": "Karnataka", "amenity": "bank", "brand": "Indian Overseas Bank", "brand:wikidata": "Q2003611", "name": "Indian Overseas Bank", "name:kn": "\u0c90\u0c93\u0cac\u0cbf"}}, {"type": "node", "id": 8187961044, "lat": 12.3210241, "lon": 76.630615, "tags": {"addr:full": "NO.D3, LEO MADHURYA, Adipampa Rd, Paduvaralli, Vani Vilas Mohalla, Mysuru, Karnataka", "addr:state": "Karnataka", "amenity": "bank", "brand": "Federal Bank", "brand:wikidata": "Q2044983", "name": "Federal Bank", "name:kn": "\u0cab\u0cc6\u0ca1\u0cc6\u0cb0\u0cb2\u0ccd \u0cac\u0ccd\u0caf\u0cbe\u0c82\u0c95\u0ccd"}}, {"type": "node", "id": 8187961335, "lat": 12.3103502, "lon": 76.6475116, "tags": {"addr:full": "Shivrampet Branch, Vinoba Rd, Devaraja Mohalla, Shivarampet, Mysuru, Karnataka", "addr:state": "Karnataka", "amenity": "bank", "brand": "State Bank of India", "brand:wikidata": "Q1340361", "name": "State Bank of India", "name:kn": "\u0cad\u0cbe\u0cb0\u0ca4\u0cc0\u0caf \u0cb8\u0ccd\u0c9f\u0cc7\u0c9f\u0ccd \u0cac\u0ccd\u0caf\u0cbe\u0c82\u0c95\u0ccd", "short_name": "SBI"}}, {"type": "node", "id": 8187961383, "lat": 12.3100697, "lon": 76.6478763, "tags": {"addr:full": "1252, NS Road, Near More Megamart, Shivarampet, Mysuru, Karnataka", "addr:state": "Karnataka", "amenity": "bank", "brand": "Andhra Bank", "brand:wikidata": "Q2003476", "name": "Andhra Bank", "name:kn": "\u0c86\u0c82\u0ca7\u0ccd\u0cb0 \u0cac\u0ccd\u0caf\u0cbe\u0c82\u0c95\u0ccd"}}, {"type": "node", "id": 8187961614, "lat": 12.3083969, "lon": 76.6640574, "tags": {"addr:full": "Nazarbad Branch, No.1, Ground Floor, Mahalakshmi Krupa, Zoo Rd, Nazarbad, Mysuru, Karnataka", "addr:state": "Karnataka", "amenity": "bank", "brand": "Karnataka Bank", "brand:wikidata": "Q2042632", "name": "Karnataka Bank", "name:kn": "\u0c95\u0cb0\u0ccd\u0ca8\u0cbe\u0c9f\u0c95 \u0cac\u0ccd\u0caf\u0cbe\u0c82\u0c95\u0cc1"}}, {"type": "node", "id": 8187961683, "lat": 12.3075364, "lon": 76.680185, "tags": {"addr:full": "1b, Buddha Marga, Siddartha Nagar, Siddhartha Layout, Mysuru, Karnataka", "addr:state": "Karnataka", "amenity": "bank", "name": "State Bank of India", "name:kn": "\u0cad\u0cbe\u0cb0\u0ca4\u0cc0\u0caf \u0cb8\u0ccd\u0c9f\u0cc7\u0c9f\u0ccd \u0cac\u0ccd\u0caf\u0cbe\u0c82\u0c95\u0ccd"}}, {"type": "node", "id": 8187961704, "lat": 12.3075039, "lon": 76.6438426, "tags": {"addr:full": "P B No 8 NO 1149/1173, Bazar Street, Muda, Jhansi Rani Lakshmi Bai Rd, K.G Koppal, Nanjangud, Chamarajapuram Mohalla, Chamrajpura, Mysuru, Karnataka", "addr:state": "Karnataka", "amenity": "bank", "name": "Vijaya Bank", "name:kn": "\u0cb5\u0cbf\u0c9c\u0caf \u0cac\u0ccd\u0caf\u0cbe\u0c82\u0c95\u0cc1"}}, {"type": "node", "id": 8187961906, "lat": 12.3037381, "lon": 76.6616404, "tags": {"addr:full": "PB, 952, Tank Bund Rd, Indira Nagar, Ittige Gudu, Mysuru, Karnataka", "addr:state": "Karnataka", "amenity": "bank", "branch": "Ittigegud Branch", "brand": "State Bank of India", "brand:wikidata": "Q1340361", "name": "State Bank of India", "short_name": "SBI"}}, {"type": "node", "id": 8187961922, "lat": 12.3034735, "lon": 76.6522759, "tags": {"addr:full": "New Santhepet Branch, Shop No. 94, Corporation Building, New Sayyaji Rao Road, Agrahara, Chamrajpura, Mysuru, Karnataka", "addr:state": "Karnataka", "amenity": "bank", "brand": "State Bank of India", "brand:wikidata": "Q1340361", "name": "State Bank of India", "name:kn": "\u0cad\u0cbe\u0cb0\u0ca4\u0cc0\u0caf \u0cb8\u0ccd\u0c9f\u0cc7\u0c9f\u0ccd \u0cac\u0ccd\u0caf\u0cbe\u0c82\u0c95\u0ccd", "short_name": "SBI"}}, {"type": "node", "id": 8187962200, "lat": 12.298492, "lon": 76.6491025, "tags": {"addr:full": "Medar Block, Yadavagiri, Mysuru, Karnataka", "addr:state": "Karnataka", "amenity": "bank", "name": "The Railway Co-operative Bank"}}, {"type": "node", "id": 8187962206, "lat": 12.2984838, "lon": 76.6843906, "tags": {"addr:full": "212, MAIN ROAD, KC Layout, Mysuru, Karnataka", "addr:state": "Karnataka", "amenity": "bank", "name": "Kaveri Grameena Bank", "name:kn": "\u0c95\u0cbe\u0cb5\u0cc7\u0cb0\u0cbf \u0c97\u0ccd\u0cb0\u0cbe\u0cae\u0cc0\u0ca3 \u0cac\u0ccd\u0caf\u0cbe\u0c82\u0c95\u0ccd"}}, {"type": "node", "id": 8187962332, "lat": 12.2941781, "lon": 76.646951, "tags": {"addr:full": "Lakshmipuram, Mysuru, Karnataka", "addr:state": "Karnataka", "amenity": "bank", "brand": "Corporation Bank", "brand:wikidata": "Q2003387", "name": "Corporation Bank", "name:kn": "\u0c95\u0cbe\u0cb0\u0ccd\u0caa\u0ccb\u0cb0\u0cc7\u0cb6\u0ca8\u0ccd \u0cac\u0ccd\u0caf\u0cbe\u0c82\u0c95\u0ccd"}}, {"type": "node", "id": 8187962356, "lat": 12.2927792, "lon": 76.6388215, "tags": {"addr:full": "1433/A, 6th Cross Road, Jayanagar, Krishnamurthy Puram, Mysuru, Karnataka", "addr:state": "Karnataka", "amenity": "bank", "name": "Agastya Co-operative Bank"}}, {"type": "node", "id": 8187986402, "lat": 12.2961026, "lon": 76.6346681, "tags": {"addr:full": "Jayanagar, Kuvempu Nagara, Mysuru, Karnataka", "addr:state": "Karnataka", "amenity": "clinic", "name": "S. M. Piles Clinic"}}, {"type": "node", "id": 8188038158, "lat": 12.3257179, "lon": 76.635622, "tags": {"addr:full": "Vontikoppal Railway Colony, V V Mohalla, V V Mohalla, Gokulam 4th Stage, Gokulam, Mysuru, Karnataka", "addr:state": "Karnataka", "amenity": "hospital", "name": "Railway Hospital", "name:kn": "\u0cb0\u0cc8\u0cb2\u0ccd\u0cb5\u0cc7 \u0c86\u0cb8\u0ccd\u0caa\u0ca4\u0ccd\u0cb0\u0cc6"}}, {"type": "node", "id": 8188038214, "lat": 12.3230417, "lon": 76.633185, "tags": {"addr:full": "Vontikoppal, Mysuru, Karnataka", "addr:state": "Karnataka", "amenity": "hospital", "name": "V V Puram Esi Hosital Dispensary"}}, {"type": "node", "id": 8188038278, "lat": 12.3141191, "lon": 76.6493079, "tags": {"addr:full": "Opp Mysore Medical College, KR Hospital Compound, Irwin Rd, Devaraja Mohalla, Devraj Mohalla, Mysuru, Karnataka", "addr:state": "Karnataka", "amenity": "hospital", "healthcare": "hospital", "name": "Cheluvamba Hospital", "name:kn": "\u0c9a\u0cc6\u0cb2\u0cc1\u0cb5\u0cbe\u0c82\u0cac \u0c86\u0cb8\u0ccd\u0caa\u0ca4\u0ccd\u0cb0\u0cc6"}}, {"type": "node", "id": 8188038588, "lat": 12.3003795, "lon": 76.6263986, "tags": {"addr:full": "662, Vishwamanava Double Road, Saraswathipuram, Mysuru, Karnataka", "addr:state": "Karnataka", "amenity": "hospital", "name": "Poornima Hospital", "name:kn": "\u0caa\u0cc2\u0cb0\u0ccd\u0ca3\u0cbf\u0cae\u0cbe \u0c86\u0cb8\u0ccd\u0caa\u0ca4\u0ccd\u0cb0\u0cc6"}}, {"type": "node", "id": 8188038825, "lat": 12.2844714, "lon": 76.6419027, "tags": {"addr:full": "Ashokapuram, Mysuru, Karnataka", "addr:state": "Karnataka", "amenity": "hospital", "name": "St. Marys DE Addiction Hospital"}}, {"type": "node", "id": 8188038832, "lat": 12.2797607, "lon": 76.6253639, "tags": {"addr:full": "State Bank Of Mysore, 671/B, M Block, Nrupatunga Rd, Kuvempu Nagar 1st Stage, Kuvempu Nagara, Mysuru, Karnataka", "addr:state": "Karnataka", "amenity": "hospital", "name": "Karuna Hospital", "name:kn": "\u0c95\u0cb0\u0cc1\u0ca3\u0cbe \u0c86\u0cb8\u0ccd\u0caa\u0ca4\u0ccd\u0cb0\u0cc6"}}, {"type": "node", "id": 8188054660, "lat": 12.3336018, "lon": 76.6742019, "tags": {"addr:full": "254, Syed Abdul Rahman Rd, Udayagir, 2nd Stage, Gayathri Puram, Mysuru, Karnataka", "addr:state": "Karnataka", "amenity": "restaurant", "diet:vegetarian": "only", "name": "Annapoorneshwari Vegetarian Hotel"}}, {"type": "node", "id": 8188054795, "lat": 12.3292828, "lon": 76.6642289, "tags": {"addr:full": "Beside home world, Shivaji, 4650, Rajendra Nagar Main Rd, N R Mohalla, Rajendra Nagar, Mysuru, Karnataka", "addr:state": "Karnataka", "amenity": "restaurant", "name": "Five Star Chicken"}}, {"type": "node", "id": 8188054844, "lat": 12.3283251, "lon": 76.6846598, "tags": {"addr:full": "Shantinagara North, Rajiv Nagar, Mysuru, Karnataka", "addr:state": "Karnataka", "amenity": "restaurant", "name": "Hotel Tippu Taj Family Restaurant"}}, {"type": "node", "id": 8188054883, "lat": 12.3274884, "lon": 76.633012, "tags": {"addr:full": "Princess Road, Gokulam 1st Stage, Vani Vilas Mohalla, Mysuru, Karnataka", "addr:state": "Karnataka", "amenity": "restaurant", "name": "Raj Bhavan Vegetarian Restaurant"}}, {"type": "node", "id": 8188054962, "lat": 12.3256026, "lon": 76.6323266, "tags": {"addr:full": "Livin Corner, No. 10, 1st Floor, Temple Rd, above Woodland Showroom, Vani Vilas Mohalla, Mysuru, Karnataka", "addr:state": "Karnataka", "amenity": "restaurant", "diet:vegetarian": "only", "name": "Pakva Lounge Vegetarian Family Restaurant"}}, {"type": "node", "id": 8188055595, "lat": 12.3195081, "lon": 76.6619325, "tags": {"addr:full": "17/1, Lashkar Mohalla, Mysore - Bangalore Road, Earangere, Mandi Mohalla, Earangere, Gayathri Puram, Mysuru, Karnataka", "addr:state": "Karnataka", "amenity": "restaurant", "name": "Balaji Restaurant"}}, {"type": "node", "id": 8188055634, "lat": 12.3177141, "lon": 76.6646127, "tags": {"addr:full": "Abba Rd, Earangere, Nazarbad, Mysuru, Karnataka", "addr:state": "Karnataka", "amenity": "restaurant", "name": "Akshaya Pure Veg Restaurent"}}, {"type": "node", "id": 8188055732, "lat": 12.3127335, "lon": 76.6677398, "tags": {"addr:full": "25, opp Chamundi Vihara Stadium, Hyderali Road, Vasantha Mahal Rd, Doora, Mysuru, Karnataka", "addr:state": "Karnataka", "amenity": "restaurant", "diet:vegetarian": "only", "name": "GOAL Villa Park - Pure Vegetarian Restaurant"}}, {"type": "node", "id": 8188056154, "lat": 12.3080392, "lon": 76.6604908, "tags": {"addr:full": "73/1, Guest House Road Nazarbad, Doora, Mysuru, Karnataka", "addr:state": "Karnataka", "amenity": "restaurant", "diet:vegetarian": "only", "name": "Om Shanthi (Hotel Siddharta) - Vegetarian Restaurant"}}, {"type": "node", "id": 8188056278, "lat": 12.3055775, "lon": 76.6498367, "tags": {"addr:full": "139, Ramavilas Rd, NEAR JAGANMOHAN PALACE, Chamrajpura, Mysuru, Karnataka", "addr:state": "Karnataka", "amenity": "restaurant", "check_date": "2023-02-15", "diet:vegetarian": "only", "name": "The Veg Kitchen Vegetarian Restaurant"}}, {"type": "node", "id": 8188056530, "lat": 12.302408, "lon": 76.644039, "tags": {"addr:full": "442 mathrushree complex, Chamaraja Double Road, Near, Ramaswamy Cirlce, Sunnadakeri, Rahmania Mohalla, Mysuru, Karnataka", "addr:state": "Karnataka", "amenity": "restaurant", "name": "Udupi Ruchi Veg Restaurant"}}, {"type": "node", "id": 8188056802, "lat": 12.2962106, "lon": 76.635335, "tags": {"addr:full": "New Kantharaj Urs Rd, K.G Koppal, Chamrajpuram, Mysuru, Karnataka", "addr:state": "Karnataka", "amenity": "restaurant", "diet:vegetarian": "only", "name": "Hotel Gokul Vegetarian"}}, {"type": "node", "id": 8188056994, "lat": 12.2876652, "lon": 76.6596801, "tags": {"addr:full": "Opposite JSS College of Arts Commerce and Science, Chamundipuram, Mysuru, Karnataka", "addr:state": "Karnataka", "amenity": "restaurant", "name": "Shaktidhama Restaurant", "name:kn": "\u0cb6\u0c95\u0ccd\u0ca4\u0cbf\u0ca7\u0cbe\u0cae"}}, {"type": "node", "id": 8196807381, "lat": 12.3336716, "lon": 76.6634162, "tags": {"addr:full": "PENSIONERS BLOCK, Subhasnagara, Rajendra Nagar, Mysuru, Karnataka", "addr:state": "Karnataka", "amenity": "college", "name": "Sri Chayadevi B.ed College of Education"}}, {"type": "node", "id": 8196807896, "lat": 12.3176601, "lon": 76.6480232, "tags": {"addr:full": "Sheshadri Iyer Road, Medar Block, Yadavagiri, Mysuru, Karnataka", "addr:state": "Karnataka", "amenity": "college", "name": "Vidyavardhaka Pre University College", "name:kn": "\u0cb5\u0cbf\u0ca6\u0ccd\u0caf\u0cbe\u0cb5\u0cb0\u0ccd\u0ca7\u0c95 \u0caa\u0ca6\u0cb5\u0cbf \u0caa\u0cc2\u0cb0\u0ccd\u0cb5 \u0c95\u0cbe\u0cb2\u0cc7\u0c9c\u0cc1"}}, {"type": "node", "id": 8196808459, "lat": 12.3056239, "lon": 76.6303958, "tags": {"addr:full": "131, Swimming Pool Rd, Kukkarahalli, Saraswathipuram, Mysuru, Karnataka", "addr:state": "Karnataka", "amenity": "college", "name": "Yuvaraja College Hostel"}}, {"type": "node", "id": 8196808479, "lat": 12.3053521, "lon": 76.6406059, "tags": {"addr:full": "MYSURU, K.G Koppal, Chamarajapuram Mohalla, Chamrajpura, Mysuru, Karnataka", "addr:state": "Karnataka", "amenity": "college", "name": "Maharaja Degree College"}}, {"type": "node", "id": 8196809314, "lat": 12.295577, "lon": 76.648064, "tags": {"addr:full": "885/1, NS Road, NR Mohalla, Chamundeshwari Road, Lakshmipuram, Mysuru, Karnataka", "addr:state": "Karnataka", "amenity": "college", "name": "Sri Jagadamba Womens Teacher Training College Estd:1955"}}, {"type": "node", "id": 8614936317, "lat": 12.3232065, "lon": 76.628601, "tags": {"amenity": "cafe", "name": "Bean Stop - Hunkal Heights"}}, {"type": "node", "id": 8617010617, "lat": 12.3308875, "lon": 76.628533, "tags": {"amenity": "pharmacy", "name": "Sree Murugan Medicines"}}, {"type": "node", "id": 8919088127, "lat": 12.3288588, "lon": 76.6635769, "tags": {"addr:city": "Mysuru", "addr:housenumber": "#4647/1 first floor", "addr:postcode": "570007", "addr:street": "Shivaji Main Road N R Mohalla", "amenity": "hospital", "description": "Above State Bank of India", "ele": "1", "email": "drhemanthkumarkv@gmail.com", "emergency": "yes", "healthcare": "hospital", "healthcare:speciality": "Diabetologist;general", "name": "Srinivasa Polyclinic & Day Care", "operator": "Dr Hemanth Kumar K V", "operator:type": "private"}}, {"type": "node", "id": 8976560461, "lat": 12.3012888, "lon": 76.6266425, "tags": {"addr:city": "Mysuru", "addr:housename": "Siddu Complex", "addr:postcode": "570009", "addr:street": "Vishvamanava Road", "addr:suburb": "Saraswathipuram", "amenity": "cafe", "brand": "Cafe Coffee Day", "brand:wikidata": "Q5017235", "cuisine": "coffee_shop", "name": "Cafe Coffee Day", "name:kn": "\u0c95\u0cab\u0cc6 \u0c95\u0cbe\u0cab\u0cbf \u0ca1\u0cc7", "opening_hours": "Mo-Su 09:00-21:00", "outdoor_seating": "no", "phone": "+919341404497", "takeaway": "yes"}}, {"type": "node", "id": 8976560462, "lat": 12.3011991, "lon": 76.6266107, "tags": {"addr:city": "Mysuru", "addr:postcode": "570009", "addr:street": "Vishvamanava Road", "amenity": "restaurant", "cuisine": "pizza;burger;italian;sandwich;american", "name": "american cuisne restuarant", "opening_hours": "Mo-Su 09:00-21:00"}}, {"type": "node", "id": 9294859572, "lat": 12.2930393, "lon": 76.6274155}, {"type": "node", "id": 9294859573, "lat": 12.2928977, "lon": 76.6279887}, {"type": "node", "id": 9294859574, "lat": 12.2918173, "lon": 76.6276988}, {"type": "node", "id": 9294859575, "lat": 12.2919558, "lon": 76.6271289}, {"type": "node", "id": 9324319633, "lat": 12.2934079, "lon": 76.6280562, "tags": {"amenity": "pharmacy", "brand": "MedPlus", "brand:wikidata": "Q65684234", "dispensing": "yes", "healthcare": "pharmacy", "name": "MedPlus", "name:kn": "\u0cae\u0cc6\u0ca1\u0ccd\u200d\u0caa\u0ccd\u0cb2\u0cb8\u0ccd"}}, {"type": "node", "id": 9324319634, "lat": 12.2939616, "lon": 76.6282451, "tags": {"amenity": "restaurant", "name": "Chaithra Bhavan"}}, {"type": "node", "id": 9325713716, "lat": 12.3160657, "lon": 76.6149454}, {"type": "node", "id": 9325713717, "lat": 12.3113971, "lon": 76.6175511}, {"type": "node", "id": 9325713718, "lat": 12.3083374, "lon": 76.6181727}, {"type": "node", "id": 9325713719, "lat": 12.3110208, "lon": 76.6176946}, {"type": "node", "id": 9325713720, "lat": 12.3102215, "lon": 76.6173811}, {"type": "node", "id": 9534848317, "lat": 12.2863687, "lon": 76.6259511, "tags": {"amenity": "cafe", "name": "Holige Mane", "name:kn": "\u0cb9\u0cca\u0cb2\u0cbf\u0c97\u0cc6 \u0cae\u0ca8\u0cc6"}}, {"type": "node", "id": 9662402717, "lat": 12.3322764, "lon": 76.6284333, "tags": {"amenity": "cafe", "contact:instagram": "minimalcoffeeroasters", "name": "Minimal Coffee Roasters", "opening_hours": "Mo-Su 08:00-21:00"}}, {"type": "node", "id": 9666138717, "lat": 12.3269792, "lon": 76.6274731, "tags": {"addr:street": "Gokulam Main Road", "amenity": "restaurant", "cuisine": "seafood", "internet_access": "wlan", "name": "Seafood Restaurant", "name:en": "Fresh catch seafood", "opening_hours": "Mo-Su 11:00-23:00", "phone": "08214852604;8884427277", "website": "https://freshcatchrestaurants.com/"}}, {"type": "node", "id": 9847967917, "lat": 12.3254316, "lon": 76.6254073, "tags": {"amenity": "cafe", "name": "Big Cup Cafe"}}, {"type": "node", "id": 9847968117, "lat": 12.3281604, "lon": 76.6284806, "tags": {"amenity": "cafe", "name": "White Teak Coffee Roasters"}}, {"type": "node", "id": 9863307244, "lat": 12.3026524, "lon": 76.6355096, "tags": {"amenity": "bank", "atm": "yes", "drive_through": "no", "name": "State Bank of India", "name:kn": "\u0cad\u0cbe\u0cb0\u0ca4\u0cc0\u0caf \u0cb8\u0ccd\u0c9f\u0cc7\u0c9f\u0ccd \u0cac\u0ccd\u0caf\u0cbe\u0c82\u0c95\u0ccd", "not:brand:wikidata": "Q1340361"}}, {"type": "node", "id": 9863345681, "lat": 12.3039711, "lon": 76.6341715}, {"type": "node", "id": 9863345682, "lat": 12.3038875, "lon": 76.6349954}, {"type": "node", "id": 9863345683, "lat": 12.3034989, "lon": 76.6349555}, {"type": "node", "id": 9863345684, "lat": 12.3035825, "lon": 76.6341244}, {"type": "node", "id": 9868141105, "lat": 12.3064566, "lon": 76.6656048}, {"type": "node", "id": 9868141106, "lat": 12.3072804, "lon": 76.6657693}, {"type": "node", "id": 9868141107, "lat": 12.3065449, "lon": 76.6651418}, {"type": "node", "id": 9868141108, "lat": 12.3068563, "lon": 76.6634935}, {"type": "node", "id": 9868141109, "lat": 12.3069402, "lon": 76.6634694}, {"type": "node", "id": 9868141110, "lat": 12.3077368, "lon": 76.6637081}, {"type": "node", "id": 9868141111, "lat": 12.3073687, "lon": 76.6653062}, {"type": "node", "id": 10008345154, "lat": 12.3012746, "lon": 76.652158, "tags": {"amenity": "fuel"}}, {"type": "node", "id": 10132274582, "lat": 12.294083, "lon": 76.6273857, "tags": {"amenity": "clinic", "healthcare": "clinic", "name": "Kushal Child Care"}}, {"type": "node", "id": 10132289242, "lat": 12.2941615, "lon": 76.6260178, "tags": {"amenity": "clinic", "healthcare": "clinic", "name": "Raksha Clinic", "operator": "Dr. Roopa Prakash"}}, {"type": "node", "id": 10132289243, "lat": 12.2943019, "lon": 76.6260418, "tags": {"amenity": "clinic", "healthcare": "clinic", "name": "Chyavana Ayuralaya", "operator": "Dr. Anitha M."}}, {"type": "node", "id": 10221037092, "lat": 12.3247714, "lon": 76.6269917, "tags": {"amenity": "restaurant", "description": "Organic restaurant", "name": "Dhatu"}}, {"type": "node", "id": 10266999388, "lat": 12.3139668, "lon": 76.6586769, "tags": {"amenity": "restaurant", "name": "Hotel Samrat"}}, {"type": "node", "id": 10669133755, "lat": 12.3240671, "lon": 76.6307679, "tags": {"amenity": "bank", "atm": "yes", "brand": "State Bank of India", "brand:wikidata": "Q1340361", "check_date": "2023-02-16", "name": "State Bank of India", "name:kn": "\u0cad\u0cbe\u0cb0\u0ca4\u0cc0\u0caf \u0cb8\u0ccd\u0c9f\u0cc7\u0c9f\u0ccd \u0cac\u0ccd\u0caf\u0cbe\u0c82\u0c95\u0ccd", "operator": "SBI", "short_name": "SBI"}}, {"type": "node", "id": 10669133756, "lat": 12.3237904, "lon": 76.6305619, "tags": {"amenity": "bank", "atm": "yes", "brand": "Bandhan Bank", "brand:wikidata": "Q19882235", "check_date": "2023-02-16", "name": "Bandhan Bank", "name:kn": "\u0cac\u0c82\u0ca7\u0ca8\u0ccd \u0cac\u0ccd\u0caf\u0cbe\u0c82\u0c95\u0ccd", "operator": "Bandhan Bank"}}, {"type": "node", "id": 10969372533, "lat": 12.3343036, "lon": 76.6328216, "tags": {"amenity": "fuel", "brand": "Indian Oil", "brand:wikidata": "Q1289348", "check_date": "2023-06-11", "name": "Indian Oil", "name:kn": "\u0c87\u0c82\u0ca1\u0cbf\u0caf\u0ca8\u0ccd \u0c86\u0caf\u0cbf\u0cb2\u0ccd", "self_service": "no"}}, {"type": "node", "id": 11067262832, "lat": 12.3389223, "lon": 76.655302}, {"type": "node", "id": 11067262833, "lat": 12.3386655, "lon": 76.6576999}, {"type": "node", "id": 11067262834, "lat": 12.3341796, "lon": 76.6575551}, {"type": "node", "id": 11067262835, "lat": 12.3327646, "lon": 76.6576034}, {"type": "node", "id": 11067262836, "lat": 12.3331315, "lon": 76.6564232}, {"type": "node", "id": 11067289535, "lat": 12.2957207, "lon": 76.6567861}, {"type": "node", "id": 11067289640, "lat": 12.3201082, "lon": 76.6730422}, {"type": "node", "id": 11067289641, "lat": 12.3196837, "lon": 76.6735089}, {"type": "node", "id": 11067289642, "lat": 12.319571, "lon": 76.6734713}, {"type": "node", "id": 11067289643, "lat": 12.3187351, "lon": 76.6734365}, {"type": "node", "id": 11067289644, "lat": 12.3187665, "lon": 76.6717789}, {"type": "node", "id": 11067289645, "lat": 12.3175323, "lon": 76.671744}, {"type": "node", "id": 11067289646, "lat": 12.3175769, "lon": 76.6721436}, {"type": "node", "id": 11067289647, "lat": 12.3174642, "lon": 76.6723126}, {"type": "node", "id": 11067289648, "lat": 12.3167881, "lon": 76.6722992}, {"type": "node", "id": 11067289649, "lat": 12.3163819, "lon": 76.6723421}, {"type": "node", "id": 11067289650, "lat": 12.3163741, "lon": 76.6720524}, {"type": "node", "id": 11067289651, "lat": 12.3164055, "lon": 76.6715616}, {"type": "node", "id": 11067289652, "lat": 12.3162326, "lon": 76.6708079}, {"type": "node", "id": 11067289653, "lat": 12.3165654, "lon": 76.6706738}, {"type": "node", "id": 11067289654, "lat": 12.3166702, "lon": 76.6704136}, {"type": "node", "id": 11067289655, "lat": 12.3173567, "lon": 76.6705719}, {"type": "node", "id": 11067289656, "lat": 12.3188294, "lon": 76.670478}, {"type": "node", "id": 11067289657, "lat": 12.3188583, "lon": 76.6710225}, {"type": "node", "id": 11067289658, "lat": 12.3205851, "lon": 76.670875}, {"type": "node", "id": 11067289659, "lat": 12.3206533, "lon": 76.6711003}, {"type": "node", "id": 11067289660, "lat": 12.3217224, "lon": 76.672495}, {"type": "node", "id": 11067289752, "lat": 12.3063846, "lon": 76.673607}, {"type": "node", "id": 11114310142, "lat": 12.3053858, "lon": 76.6631291, "tags": {"addr:street": "Lokaranjan Mahal Road", "amenity": "restaurant", "name": "Hotel Anand Vihar"}}, {"type": "node", "id": 11381461669, "lat": 12.3267865, "lon": 76.6269118, "tags": {"amenity": "cafe", "name": "Win-win tea cafe", "opening_hours": "Mo-Fr 09:00-13:15, 15:30-20:30"}}, {"type": "node", "id": 11410061744, "lat": 12.3144389, "lon": 76.6509376}, {"type": "node", "id": 11454500728, "lat": 12.3122609, "lon": 76.6482446, "tags": {"amenity": "restaurant", "check_date": "2023-12-26", "name": "Maddur Tiffanys", "opening_hours": "06:00-22:00"}}, {"type": "node", "id": 11499557924, "lat": 12.3252649, "lon": 76.6583014}, {"type": "node", "id": 11499557976, "lat": 12.3302498, "lon": 76.6568186}, {"type": "node", "id": 11499557977, "lat": 12.330055, "lon": 76.6569145}, {"type": "node", "id": 11499557978, "lat": 12.3301074, "lon": 76.6572022}, {"type": "node", "id": 11499557979, "lat": 12.3303098, "lon": 76.6571255}, {"type": "node", "id": 11499557981, "lat": 12.3255323, "lon": 76.6584904}, {"type": "node", "id": 11499557982, "lat": 12.3200972, "lon": 76.6616964}, {"type": "node", "id": 11499557983, "lat": 12.3199324, "lon": 76.6617692}, {"type": "node", "id": 11499557984, "lat": 12.3200223, "lon": 76.662007}, {"type": "node", "id": 11499557985, "lat": 12.3201834, "lon": 76.6619495}, {"type": "node", "id": 11661938330, "lat": 12.2982223, "lon": 76.6470421}, {"type": "node", "id": 11661938331, "lat": 12.2982328, "lon": 76.6471467}, {"type": "node", "id": 11661938332, "lat": 12.297934, "lon": 76.6471628}, {"type": "node", "id": 11661938333, "lat": 12.2979261, "lon": 76.6470608}, {"type": "node", "id": 11661938338, "lat": 12.2978986, "lon": 76.6504782}, {"type": "node", "id": 11661938339, "lat": 12.2978783, "lon": 76.6506351}, {"type": "node", "id": 11661938340, "lat": 12.2976701, "lon": 76.6506122}, {"type": "node", "id": 11661938341, "lat": 12.2976762, "lon": 76.6504501}, {"type": "node", "id": 11704288303, "lat": 12.3166467, "lon": 76.6441796}, {"type": "node", "id": 11704288304, "lat": 12.3163609, "lon": 76.6436001, "tags": {"amenity": "library", "name": "Museum Reference Library"}}, {"type": "node", "id": 11704288306, "lat": 12.3167342, "lon": 76.6441306}, {"type": "node", "id": 11704288352, "lat": 12.3166698, "lon": 76.6442015}, {"type": "node", "id": 11704288357, "lat": 12.3167111, "lon": 76.6441087}, {"type": "node", "id": 11704288358, "lat": 12.3163246, "lon": 76.6437005, "tags": {"amenity": "cafe", "name": "Yashraj Cafeteria"}}, {"type": "node", "id": 11754606171, "lat": 12.2890038, "lon": 76.6495648, "tags": {"amenity": "pharmacy", "brand": "Apollo Pharmacy", "brand:wikidata": "Q62562612", "check_date": "2024-03-23", "healthcare": "pharmacy", "name": "Apollo Pharmacy", "name:kn": "\u0c85\u0caa\u0cca\u0cb2\u0cca"}}, {"type": "node", "id": 11868366998, "lat": 12.3225159, "lon": 76.672889, "tags": {"amenity": "fuel", "brand": "Bharat Petroleum", "brand:wikidata": "Q854826", "check_date": "2024-04-29", "name": "Bharat Petroleum"}}, {"type": "node", "id": 11868366999, "lat": 12.3252442, "lon": 76.6781754, "tags": {"amenity": "bank", "brand": "Indian Bank", "brand:wikidata": "Q2003789", "check_date": "2024-04-29", "name": "Indian Bank"}}, {"type": "node", "id": 11868367000, "lat": 12.3282045, "lon": 76.6844648, "tags": {"amenity": "pharmacy", "check_date": "2024-04-29", "healthcare": "pharmacy"}}, {"type": "node", "id": 11925651024, "lat": 12.3230082, "lon": 76.6261488}, {"type": "node", "id": 11925651025, "lat": 12.3229697, "lon": 76.6261865}, {"type": "node", "id": 11925651026, "lat": 12.322922, "lon": 76.6261354}, {"type": "node", "id": 11925651027, "lat": 12.3229605, "lon": 76.6260977}, {"type": "node", "id": 11925651028, "lat": 12.322752, "lon": 76.6259627}, {"type": "node", "id": 11925651029, "lat": 12.3228308, "lon": 76.6260497}, {"type": "node", "id": 11925651030, "lat": 12.322873, "lon": 76.6260096}, {"type": "node", "id": 11925651031, "lat": 12.3227942, "lon": 76.6259227}, {"type": "node", "id": 11925651032, "lat": 12.3229194, "lon": 76.6258672}, {"type": "node", "id": 11925651033, "lat": 12.3229821, "lon": 76.6259349}, {"type": "node", "id": 11925651034, "lat": 12.3229489, "lon": 76.6259671}, {"type": "node", "id": 11925651035, "lat": 12.3228895, "lon": 76.625903}, {"type": "node", "id": 11925651036, "lat": 12.322848, "lon": 76.6259433}, {"type": "node", "id": 11925651037, "lat": 12.3227832, "lon": 76.6258734}, {"type": "node", "id": 11925651038, "lat": 12.3228336, "lon": 76.6258244}, {"type": "node", "id": 11925651039, "lat": 12.3227917, "lon": 76.6257792}, {"type": "node", "id": 11925651040, "lat": 12.3226435, "lon": 76.6259232}, {"type": "node", "id": 11925651041, "lat": 12.3227925, "lon": 76.626084}, {"type": "node", "id": 11925651042, "lat": 12.322732, "lon": 76.6261428}, {"type": "node", "id": 11925651043, "lat": 12.3227927, "lon": 76.6262083}, {"type": "node", "id": 11925651044, "lat": 12.322843, "lon": 76.6261594}, {"type": "node", "id": 11925651045, "lat": 12.3228902, "lon": 76.6262103}, {"type": "node", "id": 11925651046, "lat": 12.3230277, "lon": 76.6263586}, {"type": "node", "id": 11925651047, "lat": 12.3232116, "lon": 76.6261799}, {"type": "node", "id": 11925651048, "lat": 12.3231021, "lon": 76.6260619}, {"type": "node", "id": 11925651049, "lat": 12.3230276, "lon": 76.6261342}, {"type": "node", "id": 11925651050, "lat": 12.3229933, "lon": 76.6260971}, {"type": "node", "id": 11925651051, "lat": 12.323032, "lon": 76.6260595}, {"type": "node", "id": 11925651052, "lat": 12.3229741, "lon": 76.6259971}, {"type": "node", "id": 11925651053, "lat": 12.3230043, "lon": 76.6259677}, {"type": "node", "id": 11925651054, "lat": 12.3230608, "lon": 76.6260287}, {"type": "node", "id": 11925651055, "lat": 12.3231235, "lon": 76.6259678}, {"type": "node", "id": 11925651056, "lat": 12.3229776, "lon": 76.6258106}, {"type": "node", "id": 12012809160, "lat": 12.3063109, "lon": 76.6500816, "tags": {"amenity": "cafe", "name": "Mud Caf\u00e9"}}, {"type": "node", "id": 12019223285, "lat": 12.3275323, "lon": 76.6320407, "tags": {"amenity": "restaurant", "check_date": "2024-06-29", "name": "TKS Iyengar's"}}, {"type": "node", "id": 12201420399, "lat": 12.3066013, "lon": 76.6436318}, {"type": "node", "id": 12347844063, "lat": 12.3281106, "lon": 76.6316238, "tags": {"addr:city": "Mysuru", "addr:floor": "G", "addr:housenumber": "1A", "addr:postcode": "570012", "addr:street": "13th Cross Road", "amenity": "cafe", "check_date": "2024-11-17", "contact:instagram": "sapabakery", "delivery": "yes", "name": "SAPA Bakery", "outdoor_seating": "yes", "phone": "+91 63605 71579", "shop": "bakery", "takeaway": "yes", "toilets": "yes", "website": "https://www.sapabakery.com/"}}, {"type": "node", "id": 12558892701, "lat": 12.3312567, "lon": 76.6291262, "tags": {"amenity": "cafe", "cuisine": "local", "name": "Sri Chakra House", "website": "http://www.yogasamitha.in"}}, {"type": "node", "id": 12640790501, "lat": 12.3295396, "lon": 76.6301706, "tags": {"addr:housenumber": "38", "addr:postcode": "570002", "addr:street": "Gokulam Main Road", "amenity": "cafe", "internet_access": "wlan", "name": "Roy's Cafe", "opening_hours": "Mo-Su 12:00-22:30", "phone": "09986781648"}}, {"type": "node", "id": 12756626799, "lat": 12.3109271, "lon": 76.6519613}, {"type": "node", "id": 12756638522, "lat": 12.3115584, "lon": 76.6517753}, {"type": "node", "id": 12756638524, "lat": 12.3108985, "lon": 76.6521292}, {"type": "node", "id": 12756638533, "lat": 12.310338, "lon": 76.6521374}, {"type": "node", "id": 12756638537, "lat": 12.3109716, "lon": 76.6521097}, {"type": "node", "id": 12756638539, "lat": 12.3103824, "lon": 76.6522884}, {"type": "node", "id": 12756638549, "lat": 12.3115967, "lon": 76.6519351}, {"type": "node", "id": 12756638550, "lat": 12.310854, "lon": 76.6519783}, {"type": "node", "id": 12756812767, "lat": 12.3013497, "lon": 76.6380781}, {"type": "node", "id": 12756812775, "lat": 12.3018822, "lon": 76.6391653}, {"type": "node", "id": 12756812785, "lat": 12.3016878, "lon": 76.6385948, "tags": {"amenity": "library", "name": "WCFA Library"}}, {"type": "node", "id": 12756812796, "lat": 12.3020799, "lon": 76.6381021}, {"type": "node", "id": 12756812798, "lat": 12.3011362, "lon": 76.6390312}, {"type": "node", "id": 12876957233, "lat": 12.3116063, "lon": 76.643248, "tags": {"amenity": "cafe", "check_date": "2025-05-31", "name": "Minimal Roasters", "name:kn": "\u0cae\u0cbf\u0ca8\u0cbf\u0cae\u0cb2\u0ccd \u0cb0\u0cca\u0cb8\u0ccd\u0c9f\u0cb0\u0ccd\u0cb8\u0ccd", "operator": "Minimal Roasters", "outdoor_seating": "yes", "payment:cash": "yes", "payment:credit_cards": "yes", "payment:debit_cards": "yes", "wheelchair": "yes"}}, {"type": "node", "id": 12892518479, "lat": 12.3256077, "lon": 76.6272588, "tags": {"amenity": "restaurant", "check_date": "2025-05-31", "name": "SIHI, Patisserie and Boulangerie", "payment:cash": "yes", "payment:credit_cards": "yes", "payment:debit_cards": "yes", "wheelchair": "limited"}}, {"type": "node", "id": 12946564392, "lat": 12.3296427, "lon": 76.6300692, "tags": {"addr:city": "Mysuru", "addr:district": "Mysuru", "addr:housenumber": "262", "addr:postcode": "570002", "addr:street": "Sapthagiri Shopping Complex, 2nd Main Rd, Gokulam 2nd Stage, Vani Vilas Mohalla, Karnataka", "amenity": "hospital", "email": "Balajielitedental@gmail.com", "healthcare": "hospital", "healthcare:speciality": "dental_oral_maxillo_facial_surgery;dentistry;dentist", "name": "Balaji Elite Dental", "operator": "Dr. Madhura Ram", "operator:type": "private", "website": "Balajielitedental.com"}}, {"type": "node", "id": 12966515101, "lat": 12.3245678, "lon": 76.6308008, "tags": {"amenity": "cafe", "name": "Grub Monkey's"}}, {"type": "way", "id": 43171652, "nodes": [540901926, 540901927, 540901928, 540901929, 540901926], "tags": {"amenity": "college", "name": "JSS College for Women", "name:kn": "\u0c9c\u0cc6.\u0c8e\u0cb8\u0ccd.\u0c8e\u0cb8\u0ccd. \u0cae\u0cb9\u0cbf\u0cb3\u0cbe \u0c95\u0cbe\u0cb2\u0cc7\u0c9c\u0cc1"}}, {"type": "way", "id": 43172621, "nodes": [540916260, 540916261, 540916264, 540916265, 540916266, 540916267, 540916270, 540916275, 540916277, 540916280, 540916283, 540916288, 3150163468, 3315667571, 540916260], "tags": {"amenity": "school", "name": "Arasu Boarding School"}}, {"type": "way", "id": 43173899, "nodes": [540932620, 540932622, 540932623, 540932624, 540932620], "tags": {"amenity": "school", "name": "Government Primary School", "name:kn": "\u0cb8\u0cb0\u0ccd\u0c95\u0cbe\u0cb0\u0cbf \u0caa\u0ccd\u0cb0\u0cbe\u0ca5\u0cae\u0cbf\u0c95 \u0cb6\u0cbe\u0cb2\u0cc6"}}, {"type": "way", "id": 43195405, "nodes": [541330596, 7039571569, 541330599, 3632436756, 541330600, 541330602, 541330603, 541330596], "tags": {"amenity": "college", "name": "DIET"}}, {"type": "way", "id": 43705245, "nodes": [553053422, 553053428, 1575103307, 1575103293, 1636119388, 1575103274, 553053430, 1575103269, 1575103352, 553053422], "tags": {"amenity": "college", "name": "National Institute of Engineering"}}, {"type": "way", "id": 43705439, "nodes": [553058111, 553058112, 553058113, 553058114, 553058118, 553058126, 553058131, 553058111], "tags": {"amenity": "college"}}, {"type": "way", "id": 51684020, "nodes": [4069646911, 9325713716, 3648131630, 7049388834, 7049388833, 4069646910, 4069646908, 4069646907, 4069646906, 4069646899, 4069646905, 4069646904, 4069646903, 4069646902, 4069646901, 4069646900, 3648131628, 3648131629, 3648131627, 4069646898, 3648131626, 3648131625, 659788601, 3632455052, 4034381952, 4034381949, 4034381960, 4034381956, 4034381958, 4034381955, 4034381948, 4034381954, 4034381961, 4034381957, 4034381962, 4631379390, 4034381953, 4034381950, 4034381959, 4034381947, 4034381964, 3648131631, 9325713718, 9325713720, 9325713719, 541322483, 9325713717, 4069646911], "tags": {"addr:city": "Mysuru", "addr:postcode": "570006", "alt_name": "KSOU", "amenity": "university", "name": "Manasagangotri Campus", "name:kn": "\u0cae\u0cbe\u0ca8\u0cb8\u0c97\u0c82\u0c97\u0ccb\u0ca4\u0ccd\u0cb0\u0cbf"}}, {"type": "way", "id": 127321340, "nodes": [1409642790, 1575103273, 1575103298, 1575103391, 1575103376, 1575103317, 1575103399, 1645219812, 1409642792, 1409642810, 1645219801, 1575103403, 1409642813, 1575107327, 1409642790], "tags": {"amenity": "college", "name": "National Institute of Engineering"}}, {"type": "way", "id": 143936054, "nodes": [1575062525, 1575062554, 1575062533, 1575062531, 1575062525], "tags": {"amenity": "college", "name": "S D M Institute of management development"}}, {"type": "way", "id": 143939786, "nodes": [1575103265, 1575103250, 1575103261, 1575103323, 1575103265], "tags": {"addr:housename": "nie", "amenity": "bank", "atm": "yes", "building": "yes", "name": "Syndicate Bank", "name:kn": "\u0cb8\u0cbf\u0c82\u0ca1\u0cbf\u0c95\u0cc7\u0c9f\u0ccd \u0cac\u0ccd\u0caf\u0cbe\u0c82\u0c95\u0ccd"}}, {"type": "way", "id": 150868553, "nodes": [1637358317, 1637358314, 1637358319, 1637358320, 1637358315, 1637358313, 1637358309, 1637358308, 1637358311, 1637358312, 1637358318, 1637358322, 1637358316, 1637358310, 1637358321, 1637358317], "tags": {"addr:city": "Mysuru", "addr:postcode": "570004", "addr:street": "Jhansi Lakshmibai Road", "alt_name": "SDM-MMK", "amenity": "college", "int_name": "SDM-MMK", "name": "SDM College", "old_name": "SDM-MMK", "source": "SDM College"}}, {"type": "way", "id": 150869510, "nodes": [1637367328, 3254793250, 3254793251, 3254793254, 3254793255, 3254793253, 3254793252, 1637367322, 1637367327, 1637367325, 3632571466, 1637367306, 1637367318, 1637367323, 11067289535, 1637367320, 5977292538, 1637367326, 1637367304, 1637367324, 1637367305, 1637367303, 1637367301, 1637367328], "tags": {"addr:city": "Mysuru", "addr:street": "Ramanuja Road", "amenity": "hospital", "emergency": "yes", "name": "JSS Hospital", "name:kn": "\u0c9c\u0cc7.\u0c8e\u0cb8\u0ccd.\u0c8e\u0cb8\u0ccd. \u0c86\u0cb8\u0ccd\u0caa\u0ca4\u0ccd\u0cb0\u0cc6"}}, {"type": "way", "id": 168610366, "nodes": [1798448764, 1798448762, 1798448766, 1798448778, 1798448764], "tags": {"addr:city": "Mysuru", "amenity": "police", "building": "yes", "name": "Vontikoppal Police Station", "name:kn": "\u0c92\u0c82\u0c9f\u0cbf\u0c95\u0cca\u0caa\u0ccd\u0caa\u0cb2\u0cc1 \u0c86\u0cb0\u0c95\u0ccd\u0cb7\u0c95 \u0ca0\u0cbe\u0ca3\u0cc6"}}, {"type": "way", "id": 183313649, "nodes": [1936807327, 1936807321, 1936807315, 1936807322, 1936807283, 1936807310, 1936807327], "tags": {"alt_name": "B G S Apollo Hospital", "amenity": "hospital", "emergency": "yes", "name": "Apollo Hospital", "name:kn": "\u0c85\u0caa\u0cca\u0cb2\u0cca \u0c86\u0cb8\u0ccd\u0caa\u0ca4\u0ccd\u0cb0\u0cc6"}}, {"type": "way", "id": 193437999, "nodes": [2039568182, 2039568186, 2039568206, 2039568183, 2039568182], "tags": {"amenity": "college", "name": "Maharani College", "name:etymology:wikidata": "Q6387033", "name:kn": "\u0cae\u0cb9\u0cbe\u0cb0\u0cbe\u0ca3\u0cbf \u0c95\u0cbe\u0cb2\u0cc7\u0c9c\u0cc1"}}, {"type": "way", "id": 227504218, "nodes": [2361756974, 2361756956, 2361756938, 2361756988, 3274240472, 2361756974], "tags": {"amenity": "school", "name": "St Mary's School", "name:kn": "\u0cb8\u0cc7\u0c82\u0c9f\u0ccd \u0cae\u0cc7\u0cb0\u0cbf\u0cb8\u0ccd \u0cb6\u0cbe\u0cb2\u0cc6"}}, {"type": "way", "id": 229731945, "nodes": [2382886590, 2382886591, 2382886592, 2382886593, 2382886590], "tags": {"addr:city": "Mysore", "addr:housename": "Sri Satya Sai Baba Higher Primary School", "addr:postcode": "570012", "addr:street": "Ashrama Road", "alt_name": "Sai Baba School", "amenity": "school", "name": "Sri Sathya Sai Baba Higher Primary School", "name:kn": "\u0cb6\u0ccd\u0cb0\u0cc0 \u0cb8\u0ca4\u0ccd\u0caf \u0cb8\u0cbe\u0caf\u0cbf \u0cac\u0cbe\u0cac\u0cbe \u0cb9\u0cbf\u0cb0\u0cbf\u0caf \u0caa\u0ccd\u0cb0\u0cbe\u0ca5\u0cae\u0cbf\u0c95 \u0cb6\u0cbe\u0cb2\u0cc6"}}, {"type": "way", "id": 242454055, "nodes": [2499182938, 2499182941, 2499182943, 5112209424, 2499182945, 2499182947, 2499182949, 2499182938], "tags": {"addr:city": "Mysore", "addr:postcode": "570001", "addr:street": "Sayyaji Rao Road", "amenity": "hospital", "building": "yes", "healthcare": "hospital", "name": "Government Ayurveda Medical College", "name:kn": "\u0cb8\u0cb0\u0ccd\u0c95\u0cbe\u0cb0\u0cbf \u0c85\u0caf\u0cc1\u0cb0\u0ccd\u0cb5\u0cc7\u0ca6 \u0c95\u0cbe\u0cb2\u0cc7\u0c9c\u0cc1"}}, {"type": "way", "id": 249514079, "nodes": [2561057491, 2561057494, 2561057496, 2561057498, 2561057499, 2561057500, 2561057501, 2561057502, 2561057503, 2561057504, 2561057491], "tags": {"amenity": "college", "building:levels": "8", "name": "Maharani Womens' College", "name:etymology:wikidata": "Q6387033", "name:kn": "\u0cae\u0cb9\u0cbe\u0cb0\u0cbe\u0ca3\u0cbf \u0cae\u0cb9\u0cbf\u0cb3\u0cbe \u0c95\u0cbe\u0cb2\u0cc7\u0c9c\u0cc1"}}, {"type": "way", "id": 296503412, "nodes": [3002889717, 3002889710, 4326786590, 3002889714, 3002889704, 3002889715, 3002889713, 3224353374, 3002889705, 3002889703, 3002889712, 11410061744, 4326778385, 4326778374, 4326778366, 4326778367, 4326781882, 3002889717], "tags": {"addr:district": "Mysuru", "addr:full": "Irwin Road, Mysuru", "addr:postcode": "570001", "addr:state": "Karnataka", "alt_name": "K R Hospital", "amenity": "hospital", "emergency": "yes", "healthcare": "hospital", "name": "Krishna Rajendra Hospital", "name:etymology:wikidata": "Q2429324", "name:kn": "\u0c95\u0cc3\u0cb7\u0ccd\u0ca3\u0cb0\u0cbe\u0c9c\u0cc7\u0c82\u0ca6\u0ccd\u0cb0 \u0c86\u0cb8\u0ccd\u0caa\u0ca4\u0ccd\u0cb0\u0cc6", "source": "OpenGovernmentData"}}, {"type": "way", "id": 296503413, "nodes": [3002889719, 541311830, 3002889702, 3002889718, 3002889708, 3002889716, 3002889711, 3002889707, 3002889706, 3002889719], "tags": {"addr:city": "Mysuru", "addr:full": "Irwin Road, Mysore", "addr:postcode": "570001", "addr:street": "Sayyaji Rao Road", "alt_name": "Government Medical College, Mysore", "amenity": "college", "name": "Mysore Medical College and Research Institute", "name:kn": "\u0cae\u0cc8\u0cb8\u0cc2\u0cb0\u0cc1 \u0cb5\u0cc8\u0ca6\u0ccd\u0caf\u0c95\u0cc0\u0caf \u0cae\u0cb9\u0cbe\u0cb5\u0cbf\u0ca6\u0ccd\u0caf\u0cbe\u0caf", "name:ml": "\u0d2e\u0d48\u0d38\u0d42\u0d7c \u0d2e\u0d46\u0d21\u0d3f\u0d15\u0d4d\u0d15\u0d7d \u0d15\u0d4b\u0d33\u0d47\u0d1c\u0d4d & \u0d31\u0d3f\u0d38\u0d7c\u0d1a\u0d4d\u0d1a\u0d4d \u0d07\u0d7b\u0d38\u0d4d\u0d31\u0d4d\u0d31\u0d3f\u0d31\u0d4d\u0d31\u0d4d\u0d2f\u0d42\u0d1f\u0d4d\u0d1f\u0d4d", "wikidata": "Q6948708", "wikimedia_commons": "Category:Mysore Medical College & Research Institute", "wikipedia": "en:Mysore Medical College & Research Institute"}}, {"type": "way", "id": 311248802, "nodes": [3168414470, 3168414471, 3168414472, 3168414473, 3168414474, 3168414475, 3168414476, 3168414477, 3168414470], "tags": {"amenity": "college", "name": "D. Banumaiah's College", "name:kn": "\u0ca1\u0cbf. \u0cac\u0ca8\u0cc1\u0cae\u0caf\u0ccd\u0caf \u0c95\u0cbe\u0cb2\u0cc7\u0c9c\u0ccd"}}, {"type": "way", "id": 311412065, "nodes": [3170485678, 3170485679, 3170485680, 3170485681, 3170485682, 3170485683, 3170485678], "tags": {"amenity": "marketplace", "building": "yes", "name": "Mannar's Market"}}, {"type": "way", "id": 311412066, "nodes": [3170485684, 3170485685, 3170485686, 3170485687, 3170485684], "tags": {"amenity": "marketplace", "building": "yes", "name": "Evening Bazaar"}}, {"type": "way", "id": 311852708, "nodes": [3175960021, 3175960022, 3175960023, 3175960024, 3175960021], "tags": {"amenity": "marketplace", "building": "yes", "name": "Makkaji Complex"}}, {"type": "way", "id": 311852709, "nodes": [3175960025, 3175960026, 3175960027, 3175960028, 3175960029, 3175960030, 3175960031, 3175960033, 3175960034, 3175960025], "tags": {"amenity": "marketplace", "building": "yes", "name": "Kaveripatnam Market", "name:kn": "\u0c95\u0cbe\u0cb5\u0cc7\u0cb0\u0cbf\u0caa\u0c9f\u0ccd\u0c9f\u0ca3\u0c82 \u0cae\u0cbe\u0cb0\u0cc1\u0c95\u0c9f\u0ccd\u0c9f\u0cc6"}}, {"type": "way", "id": 312017985, "nodes": [3178271861, 3178271862, 3178271863, 3178271864, 3178271861], "tags": {"amenity": "marketplace", "building": "yes", "name": "Duplin Complex"}}, {"type": "way", "id": 312017989, "nodes": [3178271877, 3178271878, 3178271879, 3178271880, 3178271877], "tags": {"amenity": "police", "building": "yes", "name": "Nallappa Thana Police Station", "name:kn": "\u0ca8\u0cb2\u0ccd\u0cb2\u0caa\u0ccd\u0caa \u0ca0\u0cbe\u0ca3\u0cbe \u0caa\u0ccb\u0cb2\u0cbf\u0cb8\u0ccd \u0ca0\u0cbe\u0ca3\u0cc6"}}, {"type": "way", "id": 312533340, "nodes": [3184039710, 3184039711, 3184039712, 3184039713, 3184039710], "tags": {"amenity": "school", "name": "Hardwick High School", "name:kn": "\u0cb9\u0cbe\u0cb0\u0ccd\u0ca1\u0ccd\u0cb5\u0cbf\u0c95 \u0caa\u0ccd\u0cb0\u0ccc\u0ca1\u0cb6\u0cbe\u0cb2\u0cc6", "wikidata": "Q27962993", "wikipedia": "en:Hardwick High School and College"}}, {"type": "way", "id": 313191574, "nodes": [3190997563, 3190997564, 3190997565, 3190997566, 3190997563], "tags": {"amenity": "bank", "atm": "yes", "brand": "ICICI Bank", "brand:wikidata": "Q1653258", "building": "yes", "name": "ICICI Bank", "name:en": "ICICI Bank", "name:kn": "\u0c90\u0cb8\u0cbf\u0c90\u0cb8\u0cbf\u0c90 \u0cac\u0ccd\u0caf\u0cbe\u0c82\u0c95\u0cc1", "short_name": "ICICI", "website": "https://www.icicibank.com"}}, {"type": "way", "id": 313810615, "nodes": [3198435479, 3198435480, 3198435481, 3198435482, 3198435479], "tags": {"amenity": "bank", "atm": "yes", "brand": "State Bank of India", "brand:wikidata": "Q1340361", "brand:wikipedia": "en:State Bank of India", "building": "yes", "name": "State Bank of India", "name:kn": "\u0cad\u0cbe\u0cb0\u0ca4\u0cc0\u0caf \u0cb8\u0ccd\u0c9f\u0cc7\u0c9f\u0ccd \u0cac\u0ccd\u0caf\u0cbe\u0c82\u0c95\u0ccd", "short_name": "SBI"}}, {"type": "way", "id": 313978170, "nodes": [3200191015, 3200191016, 3200191017, 3200191018, 3200191022, 3200191021, 3200191020, 3200191019, 3200191015], "tags": {"amenity": "police", "building": "yes", "name": "Ashokpuram Police Station", "name:kn": "\u0c85\u0cb6\u0ccb\u0c95\u0caa\u0cc1\u0cb0\u0c82 \u0c86\u0cb0\u0c95\u0ccd\u0cb7\u0c95 \u0ca0\u0cbe\u0ca3\u0cc6"}}, {"type": "way", "id": 314667212, "nodes": [3207135157, 3207135158, 3207135159, 3207135160, 3207135157], "tags": {"addr:city": "Mysuru", "addr:postcode": "570023", "addr:street": "Vishvamanava Road", "amenity": "library", "building": "yes", "name": "City Central Library (Kuvempunagar Branch)", "name:kn": "\u0ca8\u0c97\u0cb0 \u0c95\u0cc7\u0c82\u0ca6\u0ccd\u0cb0 \u0c97\u0ccd\u0cb0\u0c82\u0ca5\u0cbe\u0cb2\u0caf (\u0c95\u0cc1\u0cb5\u0cc6\u0c82\u0caa\u0cc1\u0ca8\u0c97\u0cb0 \u0cb6\u0cbe\u0c96\u0cc6)"}}, {"type": "way", "id": 314721160, "nodes": [3207655016, 3207655017, 3207655018, 3207655019, 3207655016], "tags": {"addr:city": "Mysuru", "addr:postcode": "570023", "addr:street": "New Kantharaje Urs Road", "amenity": "bank", "atm": "yes", "building": "yes", "name": "Banka of Baroda", "name:kn": "\u0cac\u0ccd\u0caf\u0cbe\u0c82\u0c95\u0ccd\u200c \u0c86\u0cab\u0cbc\u0ccd\u200c \u0cac\u0cb0\u0ccb\u0ca1", "old_name": "Vijaya Bank"}}, {"type": "way", "id": 315103277, "nodes": [3211957399, 4852190224, 3211957400, 3211957401, 3211957402, 3211957399], "tags": {"addr:city": "Mysuru", "addr:district": "Mysuru", "addr:full": "922/2-B, Ch-6/2-B, Kantharaja Urs Road, Lakshmipuram", "addr:postcode": "570004", "addr:state": "Karnataka", "addr:street": "New Kantharaje Urs Road", "amenity": "clinic", "building": "hospital", "name": "Ashwini Nursing Home, Lakshmipuram", "source": "OpenGovernmentData"}}, {"type": "way", "id": 315289484, "nodes": [3214000649, 3214000650, 3214000651, 3214000652, 3214000649], "tags": {"amenity": "school"}}, {"type": "way", "id": 315320725, "nodes": [3214318101, 3214318102, 3214318103, 3214318104, 3214318105, 3214318101], "tags": {"amenity": "school"}}, {"type": "way", "id": 315414953, "nodes": [3215305288, 3713179910, 3713179909, 3713179907, 3713179906, 3215305289, 3215305290, 3713179905, 3713179902, 3713179903, 3713179904, 3215305291, 3215305288], "tags": {"addr:postcode": "570005", "amenity": "bank", "brand:wikidata": "Q1340361", "brand:wikipedia": "en:State Bank of India", "building": "yes", "name": "State Bank of India", "name:kn": "\u0cad\u0cbe\u0cb0\u0ca4\u0cc0\u0caf \u0cb8\u0ccd\u0c9f\u0cc7\u0c9f\u0ccd \u0cac\u0ccd\u0caf\u0cbe\u0c82\u0c95\u0ccd", "short_name": "SBI", "website": "https://www.sbi.co.in"}}, {"type": "way", "id": 315559051, "nodes": [3216836958, 3216836959, 3216836960, 3216837061, 3216836958], "tags": {"amenity": "school"}}, {"type": "way", "id": 315927358, "nodes": [3220508860, 3220508961, 3220508962, 3220508963, 3220508860], "tags": {"addr:city": "Mysuru", "addr:postcode": "570020", "addr:street": "Vivekananda Road", "amenity": "bank", "atm": "yes", "brand": "State Bank of India", "brand:wikidata": "Q1340361", "brand:wikipedia": "en:State Bank of India", "building": "yes", "name": "State Bank of India", "name:kn": "\u0cae\u0cc8\u0cb8\u0cc2\u0cb0\u0cc1 \u0cac\u0ccd\u0caf\u0cbe\u0c82\u0c95\u0ccd\u200c", "short_name": "SBI", "website": "https://www.sbi.co.in"}}, {"type": "way", "id": 316747947, "nodes": [3229089054, 3229089055, 3229089056, 3229089057, 3229089054], "tags": {"addr:city": "Mysuru", "addr:district": "Mysuru", "addr:full": "T Narasipura Road, Opp Nazarbad Police Station", "addr:postcode": "570010", "addr:state": "Karnataka", "addr:street": "Bannur Road", "amenity": "hospital", "building": "yes", "name": "Gopalagowda Shanthaveri Memorial Hospital", "name:kn": "\u0cb6\u0cbe\u0c82\u0ca4\u0cb5\u0cc7\u0cb0\u0cbf \u0c97\u0ccb\u0caa\u0cbe\u0cb2\u0c97\u0ccc\u0ca1 \u0c86\u0cb8\u0ccd\u0caa\u0ca4\u0ccd\u0cb0\u0cc6", "source": "OpenGovernmentData"}}, {"type": "way", "id": 320649146, "nodes": [3272655177, 3272655182, 3272655183, 3272655174, 3272655175, 3272654655, 3272654654, 3272655176, 3272655177], "tags": {"addr:district": "Mysuru", "addr:full": "966/2, Jlb Road, Chamrajamohalla, Lakshmipuram", "addr:postcode": "570004", "addr:state": "Karnataka", "amenity": "hospital", "building": "yes", "emergency": "no", "name": "Vasan Eye Care Hospital, Mysuru", "source": "OpenGovernmentData"}}, {"type": "way", "id": 321235899, "nodes": [3279674178, 3279674179, 3279674180, 3279674181, 3279674178], "tags": {"addr:city": "Mysuru", "addr:street": "Ramavilas Road", "amenity": "school", "name": "Marimallapa's Educational Institutions", "name:kn": "\u0cae\u0cb0\u0cbf\u0cae\u0cb2\u0ccd\u0cb2\u0caa\u0ccd\u0caa \u0cb6\u0cbe\u0cb2\u0cc6"}}, {"type": "way", "id": 321236120, "nodes": [3279678151, 3279678152, 3279678153, 3279678154, 3279678155, 3279678156, 3279678157, 3279678158, 3279678151], "tags": {"addr:city": "Mysuru", "addr:street": "Krishnavilas Road", "amenity": "school", "name": "Avila Convent", "name:kn": "\u0c85\u0cb5\u0cbf\u0cb2 \u0c95\u0cbe\u0ca8\u0ccd\u0cb5\u0cc6\u0c82\u0c9f\u0ccd"}}, {"type": "way", "id": 327210903, "nodes": [3339409205, 3339409206, 3339409207, 3339409208, 3339409205], "tags": {"addr:city": "Mysuru", "amenity": "school", "name": "St. Thomas School", "name:kn": "\u0cb8\u0cc7\u0c82\u0c9f\u0ccd \u0ca4\u0ccb\u0cae\u0cb8\u0ccd \u0cb6\u0cbe\u0cb2\u0cc6"}}, {"type": "way", "id": 329067373, "nodes": [3358926700, 3358926701, 3358926702, 3358926703, 3358926700], "tags": {"amenity": "clinic", "building": "yes"}}, {"type": "way", "id": 329067435, "nodes": [3358924721, 3358924722, 3358927312, 3358924723, 3358927311, 3358924721], "tags": {"amenity": "hospital"}}, {"type": "way", "id": 330182661, "nodes": [3371337212, 3371337213, 3371337214, 3371337215, 3371337212], "tags": {"amenity": "fuel", "area": "yes", "building": "yes", "name": "BPCL Petrol bunk"}}, {"type": "way", "id": 358055281, "nodes": [3630836642, 3630836643, 3630836644, 3630836645, 3630836642], "tags": {"amenity": "cafe", "building": "yes", "name": "Funda"}}, {"type": "way", "id": 358753770, "nodes": [3636269567, 3636274322, 3636274323, 3636269568, 3636269567], "tags": {"amenity": "restaurant", "building": "yes", "cuisine": "indian", "name": "Nalapak", "name:kn": "\u0ca8\u0cb3\u0caa\u0cbe\u0c95"}}, {"type": "way", "id": 360123279, "nodes": [3647236204, 3647236205, 3647236206, 3647236207, 3647236204], "tags": {"addr:city": "Mysuru", "addr:street": "Jhansi Lakshmibai Road", "amenity": "police", "building": "yes", "name": "Lakshmipuram Police Station", "name:kn": "\u0cb2\u0c95\u0ccd\u0cb7\u0ccd\u0cae\u0cbf\u0caa\u0cc1\u0cb0\u0c82 \u0c86\u0cb0\u0c95\u0ccd\u0cb7\u0c95 \u0ca0\u0cbe\u0ca3\u0cc6"}}, {"type": "way", "id": 369331157, "nodes": [3731304607, 3731304608, 3731304609, 3731304610, 3731304611, 3731304612, 3731304613, 3731304614, 3731304607], "tags": {"addr:city": "Mysuru", "addr:postcode": "570009", "addr:street": "Sarasvatipuram 11th Main", "amenity": "school", "building": "school", "name": "Mahabodhi School", "name:kn": "\u0cae\u0cb9\u0cbe\u0cac\u0ccb\u0ca7\u0cbf \u0cb6\u0cbe\u0cb2\u0cc6", "phone": "91-821-2341603"}}, {"type": "way", "id": 369955595, "nodes": [3736904804, 3736904803, 3736904805, 3975607170, 3736904804], "tags": {"amenity": "clinic", "name": "Bone Hospital & Joint Centre"}}, {"type": "way", "id": 369955821, "nodes": [3736911445, 3736911444, 3975607178, 3736911443, 3736911445], "tags": {"amenity": "clinic", "name": "Nanjamma Javaregowda Hospital", "name:kn": "\u0ca8\u0c82\u0c9c\u0cae\u0ccd\u0cae \u0c9c\u0cb5\u0cb0\u0cc7\u0c97\u0ccc\u0ca1 \u0c86\u0cb8\u0ccd\u0caa\u0ca4\u0ccd\u0cb0\u0cc6"}}, {"type": "way", "id": 369955843, "nodes": [3736909685, 3736909686, 3736909684, 3975607177, 3975607175, 3975607172, 3975607171, 3975607174, 3975607173, 3975607176, 3736909685], "tags": {"amenity": "college", "name": "Shree Vivekananda College", "name:kn": "\u0cb5\u0cbf\u0cb5\u0cc7\u0c95\u0ca8\u0c82\u0ca6 \u0c95\u0cbe\u0cb2\u0cc7\u0c9c\u0cc1"}}, {"type": "way", "id": 383054892, "nodes": [3862548285, 3862548283, 3862548276, 3862548277, 3862548278, 3862548279, 3862548281, 3862548282, 3862548284, 3862548285], "tags": {"amenity": "school"}}, {"type": "way", "id": 390732516, "nodes": [3938790589, 3938790590, 3938790591, 3938790592, 3938790589], "tags": {"amenity": "college", "name": "Maharan Government Pre-University College", "name:kn": "\u0cae\u0cb9\u0cbe\u0cb0\u0cbe\u0ca3\u0cbf \u0cb8\u0cb0\u0ccd\u0c95\u0cbe\u0cb0\u0cbf \u0caa\u0ca6\u0cb5\u0cbf\u0caa\u0cc2\u0cb0\u0ccd\u0cb5 \u0c95\u0cbe\u0cb2\u0cc7\u0c9c\u0cc1"}}, {"type": "way", "id": 400949009, "nodes": [4034377310, 4034377300, 4034377301, 4034377296, 4034377314, 4034377309, 4034377305, 4034377317, 4034377302, 4034377297, 4034377304, 4034377303, 2561057494, 4034377307, 4034377299, 12201420399, 4034377311, 4034377316, 4034377306, 4034377315, 4034377298, 4034377308, 4034377312, 4034377313, 4034377310], "tags": {"alt_name": "Mysore University", "amenity": "university", "name": "University of Mysore", "name:kn": "\u0cae\u0cc8\u0cb8\u0cc2\u0cb0\u0cc1 \u0cb5\u0cbf\u0cb6\u0ccd\u0cb5\u0cb5\u0cbf\u0ca6\u0ccd\u0caf\u0cbe\u0cb2\u0caf", "wikidata": "Q1370721", "wikipedia": "en:University of Mysore"}}, {"type": "way", "id": 404693819, "nodes": [4069648552, 4069648553, 4069648554, 4069648555, 4069648556, 4069648557, 4069648558, 4069648559, 4069648560, 4069648561, 4069648562, 4069648563, 4069648564, 4069648565, 4069648566, 4069648567, 3648607995, 4069648568, 4069648552], "tags": {"addr:city": "Mysuru", "addr:postcode": "570006", "amenity": "university", "internet_access": "yes", "name": "Karnataka State Open University", "name:kn": "\u0c95\u0cb0\u0ccd\u0ca8\u0cbe\u0c9f\u0c95 \u0cb0\u0cbe\u0c9c\u0ccd\u0caf \u0cae\u0cc1\u0c95\u0ccd\u0ca4 \u0cb5\u0cbf\u0cb6\u0ccd\u0cb5\u0cb5\u0cbf\u0ca6\u0ccd\u0caf\u0cbe\u0ca8\u0cbf\u0cb2\u0caf", "website": "https://www.ksoumysuru.ac.in/", "wikidata": "Q6372912", "wikipedia": "en:Karnataka State Open University"}}, {"type": "way", "id": 426391245, "nodes": [4256988866, 4256988865, 4256988863, 4256988864, 4256988866], "tags": {"amenity": "school", "name": "Sarvajanika High School", "name:kn": "\u0cb8\u0cbe\u0cb0\u0ccd\u0cb5\u0c9c\u0ca8\u0cbf\u0c95 \u0caa\u0ccd\u0cb0\u0ccc\u0ca1\u0cb6\u0cbe\u0cb2\u0cc6"}}, {"type": "way", "id": 452374149, "nodes": [4491814095, 4491814096, 4491814097, 4491814098, 4491814099, 4491814100, 4491814095], "tags": {"amenity": "school", "name": "St. Philomena's School", "name:kn": "\u0cb8\u0cc7\u0c82\u0c9f\u0ccd \u0cab\u0cbf\u0cb2\u0ccb\u0cae\u0cc7\u0ca8 \u0cb6\u0cbe\u0cb2\u0cc6"}}, {"type": "way", "id": 475476825, "nodes": [4692161426, 4692161427, 4692161428, 4692161429, 4692161426], "tags": {"amenity": "school", "name": "Kaginele Kalidasa school", "name:kn": "\u0c95\u0cbe\u0c97\u0cbf\u0ca8\u0cc6\u0cb2\u0cc6 \u0c95\u0cbe\u0cb3\u0cbf\u0ca6\u0cbe\u0cb8 \u0cb6\u0cbe\u0cb2\u0cc6"}}, {"type": "way", "id": 475476936, "nodes": [4692154545, 4692154546, 4692154547, 4692154548, 4692154545], "tags": {"amenity": "school", "name": "Sri Gokula School", "name:kn": "\u0cb6\u0ccd\u0cb0\u0cc0 \u0c97\u0ccb\u0c95\u0cc1\u0cb2 \u0cb6\u0cbe\u0cb2\u0cc6"}}, {"type": "way", "id": 475504878, "nodes": [4692457854, 4692457855, 4692457856, 4692457857, 4692457854], "tags": {"amenity": "bank", "atm": "yes", "brand": "Axis Bank", "brand:wikidata": "Q2003549", "brand:wikipedia": "en:Axis Bank", "building": "yes", "name": "Axis Bank", "name:en": "Axis Bank", "name:kn": "\u0c86\u0c95\u0ccd\u0cb8\u0cbf\u0cb8\u0ccd \u0cac\u0ccd\u0caf\u0cbe\u0c82\u0c95\u0ccd", "website": "https://www.axisbank.com"}}, {"type": "way", "id": 475505915, "nodes": [4692464008, 4692464009, 4692464010, 4692464011, 4692464008], "tags": {"addr:district": "Mysuru", "addr:full": "No. 644, 4Th Main, Arvind Nagar", "addr:postcode": "570023", "addr:state": "Karnataka", "amenity": "hospital", "building": "yes", "name": "Arvinda Nursing Home", "name:kn": "\u0c85\u0cb0\u0cb5\u0cbf\u0c82\u0ca6 \u0ca8\u0cb0\u0ccd\u0cb8\u0cbf\u0c82\u0c97\u0ccd \u0cb9\u0ccb\u0cae\u0ccd", "source": "OpenGovernmentData"}}, {"type": "way", "id": 475589184, "nodes": [4693236293, 4693236294, 4693236295, 4693236296, 4693236293], "tags": {"amenity": "school", "name": "Kaveri School", "name:kn": "\u0c95\u0cbe\u0cb5\u0cc7\u0cb0\u0cbf \u0cb6\u0cbe\u0cb2\u0cc6"}}, {"type": "way", "id": 479680540, "nodes": [4727370540, 4727370541, 4727370542, 4727370543, 4727370540], "tags": {"amenity": "school"}}, {"type": "way", "id": 486483968, "nodes": [4790944306, 4790944307, 4790944308, 4790944309, 4790944306], "tags": {"amenity": "restaurant", "building": "yes", "name": "Hotel SPR"}}, {"type": "way", "id": 487767349, "nodes": [4801818006, 4801818007, 4801818008, 4801818009, 4801818006], "tags": {"amenity": "bank", "atm": "yes", "brand": "Canara Bank", "brand:en": "Canara Bank", "brand:hi": "\u0915\u0947\u0928\u0930\u093e \u092c\u0948\u0902\u0915", "brand:kn": "\u0c95\u0cc6\u0ca8\u0cb0\u0cbe \u0cac\u0ccd\u0caf\u0cbe\u0c82\u0c95\u0ccd", "brand:pa": "\u0a15\u0a47\u0a28\u0a30\u0a3e \u0a2c\u0a48\u0a02\u0a15", "brand:pnb": "\u06a9\u06cc\u0646\u0631\u0627 \u0628\u06cc\u0646\u06a9", "brand:ur": "\u06a9\u06cc\u0646\u0631\u0627 \u0628\u06cc\u0646\u06a9", "brand:wikidata": "Q2003777", "brand:wikipedia": "en:Canara Bank", "brand:wikipedia:pa": "\u0a15\u0a47\u0a28\u0a30\u0a3e \u0a2c\u0a48\u0a02\u0a15", "building": "yes", "name": "Canara Bank", "name:en": "Canara Bank", "name:hi": "\u0915\u0947\u0928\u0930\u093e \u092c\u0948\u0902\u0915", "name:kn": "\u0c95\u0cc6\u0ca8\u0cb0\u0cbe \u0cac\u0ccd\u0caf\u0cbe\u0c82\u0c95\u0ccd", "name:pa": "\u0a15\u0a47\u0a28\u0a30\u0a3e \u0a2c\u0a48\u0a02\u0a15", "name:pnb": "\u06a9\u06cc\u0646\u0631\u0627 \u0628\u06cc\u0646\u06a9", "name:ur": "\u06a9\u06cc\u0646\u0631\u0627 \u0628\u06cc\u0646\u06a9", "website": "https://www.canarabank.com/"}}, {"type": "way", "id": 487767350, "nodes": [4801818010, 4801818011, 4801818012, 4801818013, 4801818010], "tags": {"addr:city": "Mysuru", "addr:postcode": "570012", "addr:street": "Temple Road", "amenity": "school", "name": "Acharya Vidya Kula", "name:kn": "\u0c86\u0c9a\u0cbe\u0cb0\u0ccd\u0caf \u0cb5\u0cbf\u0ca6\u0ccd\u0caf\u0cbe \u0c95\u0cc1\u0cb2", "phone": "0821 251 3950"}}, {"type": "way", "id": 498147947, "nodes": [4896307138, 4896307139, 4896307140, 4896307141, 4896307138], "tags": {"addr:city": "Mysuru", "addr:housenumber": "H-1", "addr:street": "Vinaya Marga", "amenity": "hospital", "name": "MRC Eye Hospital", "phone": "0821 247 2102"}}, {"type": "way", "id": 521447611, "nodes": [5080844237, 5080844236, 5080844235, 5080844234, 5080844237], "tags": {"amenity": "restaurant", "building": "yes"}}, {"type": "way", "id": 521447615, "nodes": [5080844276, 5080844275, 5080844274, 5080844273, 5080844276], "tags": {"amenity": "clinic", "building": "yes"}}, {"type": "way", "id": 521447616, "nodes": [5080844280, 5080844279, 5080844278, 5080844277, 5080844280], "tags": {"amenity": "restaurant", "building": "yes"}}, {"type": "way", "id": 521447626, "nodes": [5080844334, 5080844331, 5080844332, 5080844333, 5080844334], "tags": {"amenity": "restaurant", "building": "yes"}}, {"type": "way", "id": 521447627, "nodes": [5080844338, 5080844335, 5080844336, 5080844337, 5080844338], "tags": {"amenity": "bank", "building": "yes"}}, {"type": "way", "id": 521447628, "nodes": [5080844342, 5080844339, 5080844340, 5080844341, 5080844342], "tags": {"amenity": "cafe", "building": "yes"}}, {"type": "way", "id": 623813381, "nodes": [5890626958, 5890626959, 5890626960, 5890626961, 11499557981, 5890626958], "tags": {"amenity": "fuel"}}, {"type": "way", "id": 623813382, "nodes": [5890626962, 5890626963, 11499557924, 5890626964, 5890626965, 5890626962], "tags": {"amenity": "fuel"}}, {"type": "way", "id": 753433157, "nodes": [7039596008, 7039596009, 7039596010, 7039596011, 7039596012, 11067289752, 7039596013, 7039596014, 7039596015, 7039596016, 7039596017, 7039596018, 7039596008], "tags": {"amenity": "college", "name": "Postal Training College", "name:kn": "\u0c85\u0c82\u0c9a\u0cc6 \u0c95\u0c9b\u0cc7\u0cb0\u0cbf, \u0ca4\u0cb0\u0cac\u0cc7\u0ca4\u0cbf \u0cb8\u0c82\u0cb8\u0ccd\u0ca5\u0cc6"}}, {"type": "way", "id": 1007505513, "nodes": [9294859572, 9294859573, 9294859574, 9294859575, 9294859572], "tags": {"amenity": "school", "name": "Gnanaganga Vidyapeeta", "name:kn": "\u0c9c\u0ccd\u0c9e\u0cbe\u0ca8\u0c97\u0c82\u0c97\u0cbe \u0cb5\u0cbf\u0ca6\u0ccd\u0caf\u0cbe\u0caa\u0cc0\u0ca0"}}, {"type": "way", "id": 1075468272, "nodes": [9863345681, 9863345682, 9863345683, 9863345684, 9863345681], "tags": {"amenity": "fire_station", "building": "yes", "name": "Saraswathipuram Fire Station", "name:kn": "\u0cb8\u0cb0\u0cb8\u0ccd\u0cb5\u0ca4\u0cbf\u0caa\u0cc1\u0cb0\u0c82 \u0c85\u0c97\u0ccd\u0ca8\u0cbf\u0cb6\u0cbe\u0cae\u0c95 \u0ca0\u0cbe\u0ca3\u0cc6"}}, {"type": "way", "id": 1076054321, "nodes": [9868141111, 9868141106, 9868141105, 9868141107, 9868141111], "tags": {"amenity": "police", "name": "Cyber Crime Police Station"}}, {"type": "way", "id": 1076054322, "nodes": [9868141111, 9868141110, 9868141109, 9868141108, 9868141107, 9868141111], "tags": {"amenity": "police"}}, {"type": "way", "id": 1192131905, "nodes": [11067262836, 11067262835, 11067262834, 11067262833, 11067262832, 11067262836], "tags": {"amenity": "college", "name": "St. Philomena's College", "name:kn": "\u0cb8\u0cc7\u0c82\u0c9f\u0ccd \u0cab\u0cbf\u0cb2\u0ccb\u0cae\u0cc7\u0ca8 \u0c95\u0cbe\u0cb2\u0cc7\u0c9c\u0cc1"}}, {"type": "way", "id": 1192131928, "nodes": [11067289660, 4444417600, 11067289659, 11067289658, 11067289657, 11067289656, 11067289655, 11067289654, 11067289653, 11067289652, 11067289651, 11067289650, 11067289649, 11067289648, 11067289647, 11067289646, 11067289645, 11067289644, 11067289643, 11067289642, 11067289641, 11067289640, 11067289660], "tags": {"addr:city": "MYSORE", "addr:postcode": "570019", "addr:street": "MAHADEVAPURA MAIN ROAD", "amenity": "school", "name": "Police Public School", "phone": "8212459900"}}, {"type": "way", "id": 1237993683, "nodes": [11499557976, 11499557977, 11499557978, 11499557979, 11499557976], "tags": {"amenity": "fuel", "brand": "Hindustan Petroleum", "brand:wikidata": "Q1619375", "name": "HP", "name:kn": "\u0cb9\u0cbf\u0c82\u0ca6\u0cc1\u0cb8\u0ccd\u0ca4\u0cbe\u0ca8\u0ccd \u0caa\u0cc6\u0c9f\u0ccd\u0cb0\u0ccb\u0cb2\u0cbf\u0caf\u0c82", "official_name": "Hindustan Petroleum"}}, {"type": "way", "id": 1237993684, "nodes": [11499557982, 11499557983, 11499557984, 11499557985, 11499557982], "tags": {"amenity": "fuel", "brand": "Shell", "brand:wikidata": "Q110716465", "name": "Shell", "name:kn": "\u0cb6\u0cc6\u0cb2\u0ccd"}}, {"type": "way", "id": 1254511630, "nodes": [11661938330, 11661938331, 11661938332, 11661938333, 11661938330], "tags": {"amenity": "restaurant", "building": "yes", "diet:vegetarian": "yes", "name": "Hotel Harigovindas", "name:kn": "\u0cb9\u0ccb\u0c9f\u0cc6\u0cb2\u0ccd\u200c \u0cb9\u0cb0\u0cbf\u0c97\u0ccb\u0cb5\u0cbf\u0c82\u0ca6\u0cbe\u0cb8\u0ccd\u200c"}}, {"type": "way", "id": 1254511632, "nodes": [11661938338, 11661938339, 11661938340, 11661938341, 11661938338], "tags": {"amenity": "police", "building": "yes", "name": "K R Police station", "name:kn": "\u0c95\u0cc6 \u0c86\u0cb0\u0ccd \u0caa\u0cca\u0cb2\u0cc0\u0cb8\u0ccd \u0ca0\u0cbe\u0ca3\u0cc6"}}, {"type": "way", "id": 1259067911, "nodes": [11704288306, 11704288357, 11704288303, 11704288352, 11704288306], "tags": {"amenity": "cafe", "name": "Rail Coach Caf\u00e9"}}, {"type": "way", "id": 1285594182, "nodes": [11925651027, 11925651026, 11925651025, 11925651024, 11925651027]}, {"type": "way", "id": 1285594183, "nodes": [11925651031, 11925651030, 11925651029, 11925651028, 11925651031]}, {"type": "way", "id": 1285594184, "nodes": [11925651056, 11925651055, 11925651054, 11925651053, 11925651052, 11925651051, 11925651050, 11925651049, 11925651048, 11925651047, 11925651046, 11925651045, 11925651044, 11925651043, 11925651042, 11925651041, 11925651040, 11925651039, 11925651038, 11925651037, 11925651036, 11925651035, 11925651034, 11925651033, 11925651032, 11925651056]}, {"type": "way", "id": 1377697663, "nodes": [12756638533, 12756638539, 12756638524, 12756638550, 12756638533], "tags": {"amenity": "marketplace", "building": "retail", "name": "Banana Market"}}, {"type": "way", "id": 1377697666, "nodes": [12756626799, 12756638537, 12756638549, 12756638522, 12756626799], "tags": {"amenity": "marketplace", "name": "Vegetable Market"}}, {"type": "way", "id": 1377721428, "nodes": [12756812775, 12756812798, 12756812767, 12756812796, 12756812775], "tags": {"amenity": "college", "name": "Wadiyar Centre For Architecture"}}, {"type": "relation", "id": 17624715, "members": [{"type": "way", "ref": 1285594182, "role": "inner"}, {"type": "way", "ref": 1285594183, "role": "inner"}, {"type": "way", "ref": 1285594184, "role": "outer"}], "tags": {"amenity": "clinic", "building": "yes", "name": "Urban Community Health Centre", "name:kn": "\u0ca8\u0c97\u0cb0 \u0caa\u0ccd\u0cb0\u0cbe\u0ca5\u0cae\u0cbf\u0c95 \u0c86\u0cb0\u0ccb\u0c97\u0ccd\u0caf \u0c95\u0cc7\u0c82\u0ca6\u0ccd\u0cb0", "type": "multipolygon"}}]}